{
    "version": 0.6,
    "generator": "Overpass API 0.7.62.1 084b4234",
    "osm3s": {
      "timestamp_osm_base": "2024-09-18T18:27:30Z",
      "copyright": "The data included in this document is from www.openstreetmap.org. The data is made available under ODbL."
    },
    "elements": [
  {
    "type": "way",
    "id": 25283139,
    "nodes": [
      275422192,
      11295415374,
      11295415384,
      4548049972,
      275422194
    ],
    "tags": {
      "highway": "residential",
      "int_name": "Kustarnaja vulica",
      "maxspeed": "60",
      "maxspeed:practical": "40",
      "name": "Кустарная вуліца",
      "name:be": "Кустарная вуліца",
      "name:ru": "Кустарная улица",
      "name:uk": "Кустарна вулиця",
      "surface": "asphalt"
    }
  },
  {
    "type": "way",
    "id": 25283142,
    "nodes": [
      275421940,
      4548049981,
      3222255805,
      4189033703
    ],
    "tags": {
      "highway": "residential",
      "int_name": "Aharodnaja vulica",
      "name": "Агародная вуліца",
      "name:be": "Агародная вуліца",
      "name:pl": "ulica Ogrodowa",
      "name:ru": "Огородная улица",
      "name:uk": "Огородна вулиця",
      "surface": "unpaved"
    }
  },
  {
    "type": "way",
    "id": 25283144,
    "nodes": [
      275422220,
      9954470382,
      11146030649,
      3294765535,
      275422221
    ],
    "tags": {
      "highway": "residential",
      "int_name": "vulica Valadarskaha",
      "name": "вуліца Валадарскага",
      "name:be": "вуліца Валадарскага",
      "name:pl": "ulica Wołodarskiego",
      "name:ru": "улица Володарского",
      "name:uk": "вулиця Володарського",
      "surface": "unpaved"
    }
  },
  {
    "type": "way",
    "id": 25283190,
    "nodes": [
      275422235,
      4189033801,
      925134412,
      275422231,
      275422373,
      275421950,
      9669926069,
      275422221,
      275422210,
      11035935142,
      3686248349,
      3899282025,
      8992177611,
      8990285957,
      275422195
    ],
    "tags": {
      "highway": "residential",
      "int_name": "Čyhunačnaja vulica",
      "maxspeed": "60",
      "name": "Чыгуначная вуліца",
      "name:be": "Чыгуначная вуліца",
      "name:pl": "ulica Zaliznyczna",
      "name:ru": "Железнодорожная улица",
      "name:uk": "Залізнична вулиця",
      "sidewalk": "both",
      "surface": "asphalt"
    }
  },
  {
    "type": "way",
    "id": 25283420,
    "nodes": [
      275421890,
      3225282614,
      3225282611,
      8986237108,
      9599197021,
      4179345489,
      9599191511,
      10928636200,
      4018447781,
      10928636201,
      9599197050,
      3843415817,
      8992177663,
      8992177616,
      10550591703,
      8992177653,
      8992177644,
      275423494
    ],
    "tags": {
      "highway": "residential",
      "int_name": "vulica Hurenkovaj",
      "maxspeed": "60",
      "maxspeed:practical": "40",
      "name": "вуліца Гурэнковай",
      "name:be": "вуліца Гурэнковай",
      "name:pl": "ulica Gurenkowej",
      "name:ru": "улица Гуренковой",
      "name:uk": "вулиця Гуренкової",
      "surface": "asphalt"
    }
  },
  {
    "type": "way",
    "id": 25283421,
    "nodes": [
      275421896,
      9705803581,
      4179345506,
      11212095490,
      11212095491,
      1320695092,
      4548050091,
      1320695089,
      11710854864,
      9599197243,
      9599197252,
      275423503
    ],
    "tags": {
      "highway": "tertiary",
      "int_name": "Centraĺnaja vulica",
      "lanes": "4",
      "lanes:backward": "2",
      "lanes:forward": "2",
      "maxspeed": "40",
      "maxspeed:practical": "60",
      "name": "Цэнтральная вуліца",
      "name:be": "Цэнтральная вуліца",
      "name:pl": "ulica Centralna",
      "name:ru": "Центральная улица",
      "name:uk": "Центральна вулиця",
      "surface": "asphalt",
      "turn:lanes:forward": "left;through|through;right"
    }
  },
  {
    "type": "way",
    "id": 40442311,
    "nodes": [
      489732838,
      8985450295,
      489732845,
      489732842,
      4222297178,
      489732841,
      489732839,
      4189389382,
      6676033125,
      8985450264,
      9407143280,
      4189389390,
      9407143278,
      8972353184,
      489732835
    ],
    "tags": {
      "highway": "service",
      "lanes": "2",
      "lanes:backward": "1",
      "lanes:forward": "1",
      "maxspeed": "60",
      "smoothness": "good",
      "surface": "asphalt"
    }
  },
  {
    "type": "way",
    "id": 40983552,
    "nodes": [
      4548050091,
      4548050097,
      3347927139,
      499470824,
      499470827,
      3347927147
    ],
    "tags": {
      "highway": "service",
      "living_street": "yes"
    }
  },
  {
    "type": "way",
    "id": 40983554,
    "nodes": [
      499470862,
      2480211797,
      499470867,
      499470874,
      499470880,
      2867719151,
      504520829,
      499470884,
      1278080833,
      499470890
    ],
    "tags": {
      "highway": "service",
      "living_street": "yes"
    }
  },
  {
    "type": "way",
    "id": 41267683,
    "nodes": [
      275423503,
      9599197250,
      9599197247,
      11212027151,
      2478230146,
      3351230502,
      3351230500,
      11212027149,
      514770429,
      2478230149,
      3294761147,
      8421702361,
      499470890,
      3612863702,
      11277476209,
      8985448272,
      275423485,
      8985448267,
      3226282365,
      8972353183,
      489732835,
      8972353153,
      503478654,
      8990285814,
      4264226993,
      3710144903,
      8990285806,
      9407143150,
      443443197,
      3710144894,
      8990282108,
      443442972,
      275423505,
      443446247,
      8990285989,
      443446248,
      9407143151,
      10928711341,
      11786957550,
      11786957490,
      4188815095,
      3843415795,
      4260355487
    ],
    "tags": {
      "highway": "secondary",
      "int_name": "vulica Rakasoŭskaha",
      "lanes": "4",
      "maxspeed": "40",
      "maxspeed:practical": "60",
      "name": "вуліца Ракасоўскага",
      "name:be": "вуліца Ракасоўскага",
      "name:pl": "ulica Rokossowskiego",
      "name:ru": "улица Рокоссовского",
      "name:uk": "вулиця Рокосовського",
      "ref": "Н219",
      "surface": "asphalt"
    }
  },
  {
    "type": "way",
    "id": 41268277,
    "nodes": [
      499470867,
      504520829
    ],
    "tags": {
      "access": "yes",
      "emergency": "designated",
      "highway": "service",
      "service": "emergency_access",
      "vehicle": "no"
    }
  },
  {
    "type": "way",
    "id": 41469089,
    "nodes": [
      4193479032,
      8992177640,
      4193479037,
      507376005,
      8992177558,
      507376013
    ],
    "tags": {
      "highway": "service"
    }
  },
  {
    "type": "way",
    "id": 41769207,
    "nodes": [
      489732839,
      514770324,
      9413524658,
      514770327,
      514770330,
      514770333,
      514770336,
      489732842
    ],
    "tags": {
      "highway": "service"
    }
  },
  {
    "type": "way",
    "id": 41769210,
    "nodes": [
      514770429,
      4548050127,
      8985487015,
      8985487009,
      514770431
    ],
    "tags": {
      "highway": "service"
    }
  },
  {
    "type": "way",
    "id": 41769213,
    "nodes": [
      514770493,
      8985450303,
      4018447760,
      9413524695,
      514770508,
      514770515
    ],
    "tags": {
      "highway": "service",
      "smoothness": "intermediate",
      "surface": "asphalt"
    }
  },
  {
    "type": "way",
    "id": 47988402,
    "nodes": [
      275421863,
      9413527328,
      8992177536,
      4018447747,
      9413527227,
      9413527204,
      4222297167,
      9413527331,
      4222297172,
      9599197049,
      2417171845,
      514770493,
      9413527352,
      9413527133,
      8992177629,
      275423494
    ],
    "tags": {
      "bus_bay": "both",
      "highway": "residential",
      "int_name": "Studenckaja vulica",
      "lanes": "2",
      "lanes:backward": "1",
      "lanes:forward": "1",
      "lit": "yes",
      "maxspeed": "60",
      "maxspeed:practical": "40",
      "name": "Студэнцкая вуліца",
      "name:be": "Студэнцкая вуліца",
      "name:pl": "ulica Studencka",
      "name:ru": "Студенческая улица",
      "name:uk": "Студентська вулиця",
      "oneway": "no",
      "sidewalk": "separate",
      "smoothness": "good",
      "surface": "asphalt"
    }
  },
  {
    "type": "way",
    "id": 73334885,
    "nodes": [
      275422197,
      4186883021,
      3955464892,
      9954475324,
      10967591617,
      1277038427,
      4548049983,
      275421940,
      275422190,
      9942211208,
      4211201052,
      8990285969,
      4199299208,
      275422194,
      9942211189,
      1781262077
    ],
    "tags": {
      "highway": "secondary",
      "int_name": "vulica Karla Marksa",
      "lanes": "3",
      "maxspeed": "40",
      "maxspeed:practical": "60",
      "name": "вуліца Карла Маркса",
      "name:be": "вуліца Карла Маркса",
      "name:pl": "ulica Karola Marksa",
      "name:ru": "улица Карла Маркса",
      "name:uk": "вулиця Карла Маркса",
      "oneway": "yes",
      "surface": "asphalt"
    }
  },
  {
    "type": "way",
    "id": 112452881,
    "nodes": [
      2478280627,
      8985448262,
      9970533964,
      1278080833,
      8985515156,
      9413552315,
      8985515172,
      2480212277,
      8985515165,
      9413552314,
      8985515171,
      8985448260,
      8985448261
    ],
    "tags": {
      "bicycle": "yes",
      "footway": "sidewalk",
      "highway": "footway",
      "smoothness": "good",
      "surface": "asphalt",
      "wheelchair": "yes"
    }
  },
  {
    "type": "way",
    "id": 166671952,
    "nodes": [
      1781262015,
      7681187562,
      1781262034,
      1781262036,
      1781262038,
      9942211288,
      1781262051,
      3255628926,
      9942211293,
      4199299236,
      9942211214,
      1781262077
    ],
    "tags": {
      "highway": "service",
      "maxspeed": "5"
    }
  },
  {
    "type": "way",
    "id": 166671953,
    "nodes": [
      1781262051,
      9942211295,
      1781262011,
      1781261987,
      3899280852,
      1781261985,
      1781262003,
      1781262008,
      1781262022,
      9942211296,
      3255628926
    ],
    "tags": {
      "highway": "service",
      "maxspeed": "5"
    }
  },
  {
    "type": "way",
    "id": 233323328,
    "nodes": [
      2417171835,
      4222297164,
      9413524657,
      2417171836,
      9413524656,
      2417171842,
      9413527349,
      8992177553,
      2417171845
    ],
    "tags": {
      "highway": "service"
    }
  },
  {
    "type": "way",
    "id": 240054354,
    "nodes": [
      2478230146,
      2478265993,
      9599197259,
      11710876797,
      10928642409,
      2478230151,
      10928642416,
      2478230147,
      2478230148,
      11515810065,
      11515810064,
      11515810063
    ],
    "tags": {
      "highway": "service"
    }
  },
  {
    "type": "way",
    "id": 240054355,
    "nodes": [
      2478230149,
      2480212277,
      8985515124,
      8985515137,
      8985515214,
      4018447800,
      4018447799,
      8985515132,
      10012930095,
      10012930090,
      10012930087,
      10928642415,
      10012930097,
      2478230150,
      11515810063,
      2478230151
    ],
    "tags": {
      "highway": "service"
    }
  },
  {
    "type": "way",
    "id": 240058335,
    "nodes": [
      2478230147,
      10928644026,
      2478280519,
      2478280522,
      4193480427,
      10654369709,
      4193480432,
      4193480435,
      4193480439
    ],
    "tags": {
      "highway": "service"
    }
  },
  {
    "type": "way",
    "id": 240058340,
    "nodes": [
      2478280576,
      2478280578,
      2478280582,
      2478280588,
      9599197260,
      9705803550,
      4018011625,
      4548050093,
      4548050091
    ],
    "tags": {
      "highway": "service"
    }
  },
  {
    "type": "way",
    "id": 240058344,
    "nodes": [
      2478280627,
      9970533967,
      2480211797,
      3927677192,
      2478280630,
      10012930195,
      8992177648,
      8992177652,
      10550591702,
      4548049814,
      10928636199,
      4548049815,
      2478280636,
      9599197020,
      2478280633
    ],
    "tags": {
      "bicycle": "yes",
      "footway": "sidewalk",
      "highway": "footway",
      "smoothness": "good",
      "wheelchair": "yes"
    }
  },
  {
    "type": "way",
    "id": 316417712,
    "nodes": [
      3225270861,
      8972353171,
      3226282365
    ],
    "tags": {
      "highway": "service"
    }
  },
  {
    "type": "way",
    "id": 316434898,
    "nodes": [
      4548050086,
      8985364303,
      4548050093,
      9705803554,
      4604280431,
      4548050094,
      9705803548,
      9705803546,
      9705803526,
      9705803580,
      9705803544,
      9705803577,
      9705803571,
      9705803574,
      4548049820,
      8992177668,
      3927677195,
      9705803557,
      9705803562,
      10011840440,
      8992177667,
      8992177666,
      4548049808
    ],
    "tags": {
      "footway": "sidewalk",
      "highway": "footway"
    }
  },
  {
    "type": "way",
    "id": 316435036,
    "nodes": [
      2478280639,
      3225514861,
      3225514862,
      11515810065
    ],
    "tags": {
      "highway": "path"
    }
  },
  {
    "type": "way",
    "id": 322220262,
    "nodes": [
      3289926408,
      3927677192,
      3351223692,
      4018447777,
      3289926416
    ],
    "tags": {
      "highway": "service"
    }
  },
  {
    "type": "way",
    "id": 322700274,
    "nodes": [
      3294761147,
      4548050126,
      4193479079,
      9413552302,
      9413552298,
      3294761153
    ],
    "tags": {
      "highway": "service",
      "lanes": "2",
      "lanes:backward": "1",
      "lanes:forward": "1",
      "maxspeed": "10",
      "sidewalk": "both",
      "smoothness": "intermediate",
      "surface": "asphalt"
    }
  },
  {
    "type": "way",
    "id": 322900273,
    "nodes": [
      3296886955,
      8992177572,
      3296886960,
      3296886958
    ],
    "tags": {
      "highway": "service"
    }
  },
  {
    "type": "way",
    "id": 328305775,
    "nodes": [
      3351230502,
      4548050129,
      4177195587,
      10860487538,
      8985486998,
      8985486996,
      8985487000,
      3351230501,
      8985364189
    ],
    "tags": {
      "highway": "service"
    }
  },
  {
    "type": "way",
    "id": 328305776,
    "nodes": [
      3351230494,
      3351230499,
      11515810062,
      4202875041,
      4202875039,
      4202875052,
      4202875051
    ],
    "tags": {
      "highway": "service",
      "living_street": "yes"
    }
  },
  {
    "type": "way",
    "id": 328305778,
    "nodes": [
      499470874,
      3351230494,
      3351223692
    ],
    "tags": {
      "highway": "service",
      "living_street": "yes"
    }
  },
  {
    "type": "way",
    "id": 328305779,
    "nodes": [
      9530290617,
      9782000544,
      9413524689,
      9530290618,
      4179345200,
      11035929604,
      4222297131,
      3296886955,
      507375999,
      4222297141,
      8992177555,
      275421858,
      9413527405,
      3225549005,
      4179345229,
      275421862,
      4198271692,
      4198271695,
      275421863,
      3225297816,
      3226791905,
      4179342567,
      533830793,
      4193479049,
      10012930253,
      275421888
    ],
    "tags": {
      "highway": "tertiary",
      "int_name": "Internacyjanaĺnaja vulica",
      "lanes": "2",
      "lanes:backward": "1",
      "lanes:forward": "1",
      "lit": "yes",
      "maxspeed": "60",
      "name": "Інтэрнацыянальная вуліца",
      "name:be": "Інтэрнацыянальная вуліца",
      "name:ru": "Интернациональная улица",
      "name:uk": "Інтернаціональна вулиця",
      "smoothness": "good",
      "surface": "asphalt",
      "turn:lanes:backward": "through;right",
      "turn:lanes:forward": "left;through"
    }
  },
  {
    "type": "way",
    "id": 389599387,
    "nodes": [
      275421909,
      275421904,
      4189633739,
      4191582497,
      504520523,
      504520327,
      11017678063,
      9162238663,
      3347927150,
      10905351837,
      3347927137,
      499470814,
      9599197241,
      9599197251,
      275423503
    ],
    "tags": {
      "highway": "secondary",
      "int_name": "vulica Rakasoŭskaha",
      "lanes": "2",
      "maxspeed": "60",
      "maxspeed:practical": "60",
      "name": "вуліца Ракасоўскага",
      "name:be": "вуліца Ракасоўскага",
      "name:pl": "ulica Rokossowskiego",
      "name:ru": "улица Рокоссовского",
      "name:uk": "вулиця Рокосовського",
      "ref": "Н219",
      "surface": "asphalt"
    }
  },
  {
    "type": "way",
    "id": 399065299,
    "nodes": [
      9705803520,
      9705803555,
      4018011625,
      4018011623
    ],
    "tags": {
      "highway": "service",
      "service": "parking_aisle"
    }
  },
  {
    "type": "way",
    "id": 399104691,
    "nodes": [
      11514295932,
      4018447759,
      9599197054,
      8992177618,
      8992177613,
      4018447760
    ],
    "tags": {
      "highway": "service"
    }
  },
  {
    "type": "way",
    "id": 399104692,
    "nodes": [
      4018447806,
      4018447803
    ],
    "tags": {
      "highway": "service"
    }
  },
  {
    "type": "way",
    "id": 399104693,
    "nodes": [
      4018447799,
      10012930069,
      4018447797,
      10012930074
    ],
    "tags": {
      "highway": "service",
      "surface": "asphalt"
    }
  },
  {
    "type": "way",
    "id": 399104698,
    "nodes": [
      4018447808,
      4018447804,
      4018447802
    ],
    "tags": {
      "highway": "service"
    }
  },
  {
    "type": "way",
    "id": 399104705,
    "nodes": [
      4018447777,
      4018447778,
      4018447783,
      11515810062
    ],
    "tags": {
      "highway": "service"
    }
  },
  {
    "type": "way",
    "id": 399104715,
    "nodes": [
      4018447800,
      4018447803,
      4018447805,
      4018447807,
      4018447804
    ],
    "tags": {
      "highway": "service"
    }
  },
  {
    "type": "way",
    "id": 417098737,
    "nodes": [
      4177196089,
      10860487537,
      4177196103,
      4177189477
    ],
    "tags": {
      "highway": "service",
      "smoothness": "intermediate",
      "surface": "asphalt"
    }
  },
  {
    "type": "way",
    "id": 417098771,
    "nodes": [
      4177196193,
      4548050132,
      9599197214,
      4177189467,
      4177196090,
      8985364160,
      4177196089,
      4177195587
    ],
    "tags": {
      "highway": "service"
    }
  },
  {
    "type": "way",
    "id": 417376318,
    "nodes": [
      4179345200,
      9413524690,
      8992177522,
      4179345211,
      8992177521
    ],
    "tags": {
      "highway": "service"
    }
  },
  {
    "type": "way",
    "id": 418500912,
    "nodes": [
      4189033703,
      275422192,
      11295415385,
      275422210
    ],
    "tags": {
      "highway": "residential",
      "int_name": "Aharodnaja vulica",
      "lanes": "2",
      "lanes:backward": "1",
      "lanes:forward": "1",
      "maxspeed": "60",
      "name": "Агародная вуліца",
      "name:be": "Агародная вуліца",
      "name:pl": "ulica Ogrodowa",
      "name:ru": "Огородная улица",
      "name:uk": "Огородна вулиця",
      "smoothness": "intermediate",
      "surface": "asphalt"
    }
  },
  {
    "type": "way",
    "id": 418553643,
    "nodes": [
      4189389382,
      9407142283,
      4189389368,
      4189389353,
      4189389345,
      9407142286,
      9407142290
    ],
    "tags": {
      "highway": "service",
      "lanes": "2",
      "lanes:backward": "1",
      "lanes:forward": "1",
      "lit": "yes",
      "maxspeed": "5",
      "sidewalk": "both",
      "smoothness": "good",
      "surface": "asphalt"
    }
  },
  {
    "type": "way",
    "id": 419236350,
    "nodes": [
      10873185764,
      4193479079,
      4193479076
    ],
    "tags": {
      "highway": "service"
    }
  },
  {
    "type": "way",
    "id": 419236351,
    "nodes": [
      4193479030,
      8992177640
    ],
    "tags": {
      "highway": "service"
    }
  },
  {
    "type": "way",
    "id": 419236360,
    "nodes": [
      4193479035,
      4193479037
    ],
    "tags": {
      "highway": "service"
    }
  },
  {
    "type": "way",
    "id": 419236364,
    "nodes": [
      4193480432,
      10654369735,
      4193480429,
      2478280557
    ],
    "tags": {
      "highway": "service"
    }
  },
  {
    "type": "way",
    "id": 419236367,
    "nodes": [
      4018447654,
      8992144008,
      8992177591,
      9407221924,
      4193479030,
      4193479031,
      4193479035
    ],
    "tags": {
      "highway": "service"
    }
  },
  {
    "type": "way",
    "id": 419943914,
    "nodes": [
      1781262008,
      4199298956
    ],
    "tags": {
      "highway": "service"
    }
  },
  {
    "type": "way",
    "id": 419943924,
    "nodes": [
      4199299236,
      9942211297,
      4199298956,
      4199298930,
      4199298919,
      4199298917,
      4199298902,
      4199298918,
      4199298930
    ],
    "tags": {
      "highway": "service",
      "maxspeed": "5"
    }
  },
  {
    "type": "way",
    "id": 421347232,
    "nodes": [
      4211201052,
      4548049971,
      10012997604,
      4259907604,
      4211201057,
      4211201047
    ],
    "tags": {
      "highway": "service"
    }
  },
  {
    "type": "way",
    "id": 422477843,
    "nodes": [
      4222297164,
      4222297163
    ],
    "tags": {
      "highway": "service"
    }
  },
  {
    "type": "way",
    "id": 422477845,
    "nodes": [
      4222297178,
      4222297179
    ],
    "tags": {
      "highway": "service"
    }
  },
  {
    "type": "way",
    "id": 422477846,
    "nodes": [
      4222297131,
      8992177571,
      4222297144,
      4223660315
    ],
    "tags": {
      "highway": "service"
    }
  },
  {
    "type": "way",
    "id": 422477847,
    "nodes": [
      4222297172,
      8992177554,
      4222297168
    ],
    "tags": {
      "highway": "service"
    }
  },
  {
    "type": "way",
    "id": 422477848,
    "nodes": [
      4222297167,
      8985450297,
      4222297166,
      4222297165,
      9413527386,
      9413527385,
      9413527384,
      9413527383,
      9413527382
    ],
    "tags": {
      "access": "destination",
      "disabled": "destination",
      "emergency": "yes",
      "highway": "service",
      "lanes": "2",
      "lanes:backward": "1",
      "lanes:forward": "1",
      "maxspeed": "5",
      "smoothness": "excellent",
      "surface": "paving_stones",
      "vehicle": "destination"
    }
  },
  {
    "type": "way",
    "id": 426722954,
    "nodes": [
      4259907604,
      4259907605,
      4259907610
    ],
    "tags": {
      "highway": "service"
    }
  },
  {
    "type": "way",
    "id": 427801382,
    "nodes": [
      275423494,
      9413527364,
      8992177627,
      3289926408,
      489732838,
      499470862,
      8972353170,
      275423485
    ],
    "tags": {
      "highway": "residential",
      "int_name": "Studenckaja vulica",
      "lanes": "2",
      "lanes:backward": "1",
      "lanes:forward": "1",
      "lit": "yes",
      "maxspeed": "60",
      "maxspeed:practical": "40",
      "name": "Студэнцкая вуліца",
      "name:be": "Студэнцкая вуліца",
      "name:pl": "ulica Studencka",
      "name:ru": "Студенческая улица",
      "name:uk": "Студентська вулиця",
      "oneway": "no",
      "sidewalk": "both",
      "smoothness": "excellent",
      "surface": "asphalt"
    }
  },
  {
    "type": "way",
    "id": 458869659,
    "nodes": [
      8985450304,
      9413524692,
      9413527134,
      8992177662,
      9599197074,
      9599197073,
      11542464160,
      4548049811,
      9599197017,
      4548049810,
      10011840327
    ],
    "tags": {
      "bicycle": "yes",
      "footway": "sidewalk",
      "highway": "footway",
      "lit": "yes",
      "smoothness": "good",
      "surface": "asphalt",
      "wheelchair": "yes"
    }
  },
  {
    "type": "way",
    "id": 458869707,
    "nodes": [
      4548049998,
      9942211188,
      11295415386,
      4548049972,
      4548049973,
      9942211203,
      8990285972,
      4548049971
    ],
    "tags": {
      "bicycle": "yes",
      "footway": "sidewalk",
      "highway": "footway",
      "smoothness": "excellent",
      "surface": "paving_stones",
      "wheelchair": "yes"
    }
  },
  {
    "type": "way",
    "id": 458869708,
    "nodes": [
      9942211206,
      4199299208,
      4548049973
    ],
    "tags": {
      "bicycle": "yes",
      "footway": "crossing",
      "highway": "footway",
      "smoothness": "excellent",
      "surface": "asphalt",
      "wheelchair": "yes"
    }
  },
  {
    "type": "way",
    "id": 458869713,
    "nodes": [
      9954475325,
      4548049984,
      10967591618,
      4548049792,
      10967565473,
      4548049985,
      10967565477,
      7681187577,
      4548049986,
      7681187570,
      9942211209,
      9942211210,
      9942211211,
      4548049974
    ],
    "tags": {
      "bicycle": "yes",
      "footway": "sidewalk",
      "highway": "footway",
      "smoothness": "excellent",
      "surface": "paving_stones",
      "wheelchair": "yes"
    }
  },
  {
    "type": "way",
    "id": 458869716,
    "nodes": [
      9942211348,
      9942211294,
      9942211349,
      8989617437,
      4548050001,
      4548049798,
      9942211338,
      7681187563
    ],
    "tags": {
      "bicycle": "yes",
      "footway": "sidewalk",
      "highway": "footway",
      "smoothness": "excellent",
      "surface": "paving_stones",
      "wheelchair": "yes"
    }
  },
  {
    "type": "way",
    "id": 458869756,
    "nodes": [
      9599197238,
      9599197225,
      4548049392,
      10905351851,
      10905351852,
      10905351828,
      8985364323,
      4548050085,
      10905351841,
      9162150521,
      11211948501,
      11211948499,
      11211948503,
      4548050084,
      4548050083,
      4189633740,
      10054130109
    ],
    "tags": {
      "bicycle": "yes",
      "footway": "sidewalk",
      "highway": "footway",
      "lit": "yes",
      "smoothness": "good",
      "surface": "asphalt",
      "wheelchair": "yes"
    }
  },
  {
    "type": "way",
    "id": 458869759,
    "nodes": [
      4548050095,
      9705803582,
      11542464159,
      4548050092,
      4548050097,
      4548050096
    ],
    "tags": {
      "bicycle": "yes",
      "footway": "sidewalk",
      "highway": "footway",
      "lit": "yes",
      "smoothness": "good",
      "surface": "asphalt",
      "wheelchair": "yes"
    }
  },
  {
    "type": "way",
    "id": 458869769,
    "nodes": [
      4548050143,
      4548050130,
      4548050129,
      4548050128,
      11212027150,
      4548050127,
      8985448233,
      4548050126,
      5401424617,
      4548050125
    ],
    "tags": {
      "bicycle": "yes",
      "footway": "sidewalk",
      "highway": "footway",
      "lit": "yes",
      "smoothness": "good",
      "surface": "asphalt",
      "wheelchair": "yes"
    }
  },
  {
    "type": "way",
    "id": 458869770,
    "nodes": [
      9646066728,
      8943765331,
      9599197217,
      10860473172,
      8985364149,
      8985364150,
      4548050132,
      4548050143
    ],
    "tags": {
      "bicycle": "yes",
      "footway": "sidewalk",
      "highway": "footway",
      "lit": "yes",
      "smoothness": "good",
      "surface": "asphalt",
      "wheelchair": "yes"
    }
  },
  {
    "type": "way",
    "id": 458869774,
    "nodes": [
      8985364300,
      9599197257,
      9599197242,
      4548050096,
      4199868766,
      9599197194,
      9599197193,
      9599197192,
      9599197191,
      4548050079,
      10905351838
    ],
    "tags": {
      "bicycle": "yes",
      "foot": "yes",
      "footway": "sidewalk",
      "highway": "footway",
      "lit": "yes",
      "smoothness": "intermediate",
      "surface": "asphalt"
    }
  },
  {
    "type": "way",
    "id": 560106143,
    "nodes": [
      5401424617,
      4193479076
    ],
    "tags": {
      "highway": "footway"
    }
  },
  {
    "type": "way",
    "id": 710052718,
    "nodes": [
      6676033125,
      8985450289,
      8985450284,
      8985450285,
      8985450259,
      8985450258
    ],
    "tags": {
      "highway": "service"
    }
  },
  {
    "type": "way",
    "id": 710052719,
    "nodes": [
      489732845,
      10012930170,
      6676033129,
      6676033131,
      6676033127
    ],
    "tags": {
      "highway": "service"
    }
  },
  {
    "type": "way",
    "id": 906945798,
    "nodes": [
      8421702361,
      9413552315,
      8985515157,
      8421702363,
      8421702364,
      10012930037
    ],
    "tags": {
      "highway": "service"
    }
  },
  {
    "type": "way",
    "id": 970860315,
    "nodes": [
      4548050144,
      8943765356
    ],
    "tags": {
      "bicycle": "yes",
      "footway": "sidewalk",
      "highway": "footway",
      "lit": "yes",
      "smoothness": "good",
      "surface": "asphalt",
      "wheelchair": "yes"
    }
  },
  {
    "type": "way",
    "id": 970860319,
    "nodes": [
      8985364271,
      9599197255,
      9599197248,
      4548050143
    ],
    "tags": {
      "bicycle": "yes",
      "footway": "sidewalk",
      "highway": "footway",
      "lit": "yes",
      "smoothness": "good",
      "surface": "asphalt",
      "wheelchair": "yes"
    }
  },
  {
    "type": "way",
    "id": 970860323,
    "nodes": [
      4548050144,
      9599197238,
      8985364275
    ],
    "tags": {
      "bicycle": "yes",
      "footway": "sidewalk",
      "highway": "footway",
      "lit": "yes",
      "smoothness": "good",
      "surface": "asphalt",
      "wheelchair": "yes"
    }
  },
  {
    "type": "way",
    "id": 970870503,
    "nodes": [
      4548050128,
      3351230500,
      8985448259
    ],
    "tags": {
      "crossing": "marked",
      "crossing:markings": "yes",
      "footway": "crossing",
      "highway": "footway",
      "lit": "yes",
      "smoothness": "intermediate",
      "surface": "asphalt"
    }
  },
  {
    "type": "way",
    "id": 970870504,
    "nodes": [
      8985448259,
      8985448260
    ],
    "tags": {
      "footway": "sidewalk",
      "highway": "footway",
      "lit": "yes",
      "smoothness": "very_bad",
      "surface": "sett"
    }
  },
  {
    "type": "way",
    "id": 970870538,
    "nodes": [
      8985450258,
      8985450268,
      6676033129
    ],
    "tags": {
      "bicycle": "yes",
      "footway": "sidewalk",
      "highway": "footway",
      "smoothness": "good",
      "surface": "asphalt"
    }
  },
  {
    "type": "way",
    "id": 970870539,
    "nodes": [
      8985450259,
      8985450286,
      8985450287,
      6676033131
    ],
    "tags": {
      "bicycle": "yes",
      "footway": "sidewalk",
      "highway": "footway",
      "smoothness": "good",
      "surface": "asphalt"
    }
  },
  {
    "type": "way",
    "id": 970870541,
    "nodes": [
      8985450264,
      8985450288,
      8985450283,
      3225270861,
      8985450282,
      8985450266,
      8985450275,
      8985450265
    ],
    "tags": {
      "bicycle": "yes",
      "footway": "sidewalk",
      "highway": "footway",
      "smoothness": "good",
      "surface": "asphalt"
    }
  },
  {
    "type": "way",
    "id": 970870542,
    "nodes": [
      8985450266,
      8985450267,
      8985450268
    ],
    "tags": {
      "bicycle": "yes",
      "footway": "sidewalk",
      "highway": "footway",
      "smoothness": "good",
      "surface": "asphalt"
    }
  },
  {
    "type": "way",
    "id": 970870547,
    "nodes": [
      8985450282,
      8985450267
    ],
    "tags": {
      "bicycle": "yes",
      "footway": "sidewalk",
      "highway": "footway",
      "smoothness": "good",
      "surface": "asphalt"
    }
  },
  {
    "type": "way",
    "id": 970870548,
    "nodes": [
      8985450283,
      8985450284
    ],
    "tags": {
      "bicycle": "yes",
      "footway": "sidewalk",
      "highway": "footway",
      "smoothness": "good",
      "surface": "asphalt"
    }
  },
  {
    "type": "way",
    "id": 970870549,
    "nodes": [
      8985450285,
      8985450286
    ],
    "tags": {
      "bicycle": "yes",
      "footway": "sidewalk",
      "highway": "footway",
      "smoothness": "good",
      "surface": "asphalt"
    }
  },
  {
    "type": "way",
    "id": 970870550,
    "nodes": [
      8985450287,
      6676033129
    ],
    "tags": {
      "bicycle": "yes",
      "footway": "sidewalk",
      "highway": "footway",
      "smoothness": "good",
      "surface": "asphalt"
    }
  },
  {
    "type": "way",
    "id": 970870551,
    "nodes": [
      8972353165,
      8985450265,
      8985450295,
      8985450291,
      8992177626,
      8985450292,
      8992177631,
      8985450293,
      9413527132,
      9413527356,
      8985450294
    ],
    "tags": {
      "bicycle": "yes",
      "footway": "sidewalk",
      "highway": "footway",
      "lit": "yes",
      "smoothness": "good",
      "surface": "asphalt",
      "wheelchair": "yes"
    }
  },
  {
    "type": "way",
    "id": 970870552,
    "nodes": [
      8985450296,
      10928636148,
      8985450297,
      9413527155,
      9413527226,
      8985450298
    ],
    "tags": {
      "bicycle": "yes",
      "footway": "sidewalk",
      "highway": "footway",
      "smoothness": "good",
      "surface": "asphalt",
      "wheelchair": "yes"
    }
  },
  {
    "type": "way",
    "id": 970870554,
    "nodes": [
      3225282612,
      9413527326,
      9413524697,
      8992177636,
      10928636149,
      8992177637,
      8985450302,
      8992177632,
      8985450303,
      9413527353,
      9413524696,
      8985450304
    ],
    "tags": {
      "bicycle": "yes",
      "footway": "sidewalk",
      "highway": "footway",
      "lit": "yes",
      "smoothness": "good",
      "surface": "asphalt",
      "wheelchair": "yes"
    }
  },
  {
    "type": "way",
    "id": 970876699,
    "nodes": [
      8985486989,
      8985486990,
      8985486991,
      514770431
    ],
    "tags": {
      "highway": "service"
    }
  },
  {
    "type": "way",
    "id": 970876700,
    "nodes": [
      514770431,
      8985486992
    ],
    "tags": {
      "highway": "service"
    }
  },
  {
    "type": "way",
    "id": 970876701,
    "nodes": [
      8985486993,
      8985486994,
      8985486995,
      8985487013,
      8985486996
    ],
    "tags": {
      "highway": "service"
    }
  },
  {
    "type": "way",
    "id": 970876702,
    "nodes": [
      8985486997,
      8985486995
    ],
    "tags": {
      "highway": "service"
    }
  },
  {
    "type": "way",
    "id": 970876703,
    "nodes": [
      8985486998,
      8985487014,
      8985486999,
      8985486992
    ],
    "tags": {
      "highway": "service"
    }
  },
  {
    "type": "way",
    "id": 970876706,
    "nodes": [
      8985487004,
      8985487005,
      8985487006,
      8985486993
    ],
    "tags": {
      "highway": "service"
    }
  },
  {
    "type": "way",
    "id": 970876708,
    "nodes": [
      8985486989,
      8985487008,
      8985487011,
      8985487009
    ],
    "tags": {
      "highway": "service"
    }
  },
  {
    "type": "way",
    "id": 970876709,
    "nodes": [
      8985486991,
      8985487011
    ],
    "tags": {
      "highway": "service",
      "surface": "asphalt"
    }
  },
  {
    "type": "way",
    "id": 970876711,
    "nodes": [
      8985515124,
      8985515125,
      8985515173,
      8985515126,
      8985515127,
      8985515133,
      8985515128,
      8985515129,
      8985515130,
      8985515131
    ],
    "tags": {
      "highway": "service",
      "maxspeed": "60",
      "oneway": "yes",
      "surface": "asphalt"
    }
  },
  {
    "type": "way",
    "id": 970876712,
    "nodes": [
      8985515134,
      8985515135,
      8985515136,
      8985515174,
      8985515137
    ],
    "tags": {
      "highway": "service",
      "oneway": "yes"
    }
  },
  {
    "type": "way",
    "id": 970876713,
    "nodes": [
      8985515131,
      8985515138,
      8985515139,
      8985515140,
      8985515141,
      8985515142,
      8985515143,
      8985515144,
      8985515134
    ],
    "tags": {
      "highway": "service",
      "oneway": "yes"
    }
  },
  {
    "type": "way",
    "id": 970876716,
    "nodes": [
      8985515156,
      9413554395
    ],
    "tags": {
      "footway": "sidewalk",
      "highway": "footway"
    }
  },
  {
    "type": "way",
    "id": 970876717,
    "nodes": [
      8985515156,
      8985515157,
      8985515159,
      8985515158,
      8985515139
    ],
    "tags": {
      "highway": "path"
    }
  },
  {
    "type": "way",
    "id": 970876718,
    "nodes": [
      8985515159,
      8985515160,
      8985515161
    ],
    "tags": {
      "highway": "path"
    }
  },
  {
    "type": "way",
    "id": 970876719,
    "nodes": [
      8985515161,
      8985515162,
      8985515163,
      8985515214,
      8985515164
    ],
    "tags": {
      "footway": "sidewalk",
      "highway": "footway"
    }
  },
  {
    "type": "way",
    "id": 970876720,
    "nodes": [
      8985515165,
      8985515169,
      8985515164,
      8985515166,
      8985515167,
      8985515168
    ],
    "tags": {
      "footway": "sidewalk",
      "highway": "footway"
    }
  },
  {
    "type": "way",
    "id": 970876721,
    "nodes": [
      8985515169,
      8985515168,
      8985515170,
      8985515171
    ],
    "tags": {
      "footway": "sidewalk",
      "highway": "footway"
    }
  },
  {
    "type": "way",
    "id": 970876722,
    "nodes": [
      8985515172,
      8985515173,
      8985515174,
      8985515163
    ],
    "tags": {
      "footway": "sidewalk",
      "highway": "footway"
    }
  },
  {
    "type": "way",
    "id": 971316157,
    "nodes": [
      4548050000,
      3899282022,
      4548049999
    ],
    "tags": {
      "bicycle": "yes",
      "footway": "crossing",
      "highway": "footway",
      "smoothness": "excellent",
      "surface": "asphalt",
      "wheelchair": "yes"
    }
  },
  {
    "type": "way",
    "id": 971373839,
    "nodes": [
      4188815102,
      8990285745,
      8990285757,
      8990285746,
      8990285762,
      8990285747
    ],
    "tags": {
      "highway": "service"
    }
  },
  {
    "type": "way",
    "id": 971373844,
    "nodes": [
      8990285762,
      8990285763,
      8990285764,
      8990285765,
      8990285766
    ],
    "tags": {
      "highway": "service"
    }
  },
  {
    "type": "way",
    "id": 971373853,
    "nodes": [
      8990285786,
      8990285789,
      8990285790
    ],
    "tags": {
      "highway": "service"
    }
  },
  {
    "type": "way",
    "id": 971373906,
    "nodes": [
      8990285955,
      3899282023,
      4548049998
    ],
    "tags": {
      "bicycle": "yes",
      "footway": "crossing",
      "highway": "footway",
      "smoothness": "excellent",
      "surface": "asphalt",
      "wheelchair": "yes"
    }
  },
  {
    "type": "way",
    "id": 971373907,
    "nodes": [
      4548049999,
      8990285955
    ],
    "tags": {
      "footway": "sidewalk",
      "highway": "footway"
    }
  },
  {
    "type": "way",
    "id": 971373908,
    "nodes": [
      8990285957,
      8992177604,
      4548049998
    ],
    "tags": {
      "footway": "sidewalk",
      "highway": "footway"
    }
  },
  {
    "type": "way",
    "id": 971373912,
    "nodes": [
      8990285969,
      8990285972,
      8990285970,
      8990285971
    ],
    "tags": {
      "highway": "service"
    }
  },
  {
    "type": "way",
    "id": 971556962,
    "nodes": [
      4222297141,
      8992177547,
      8992177527,
      8992177528,
      8992177529
    ],
    "tags": {
      "highway": "service"
    }
  },
  {
    "type": "way",
    "id": 971556964,
    "nodes": [
      8992177532,
      8992177548,
      9407221917,
      8992177533
    ],
    "tags": {
      "footway": "sidewalk",
      "highway": "footway"
    }
  },
  {
    "type": "way",
    "id": 971556967,
    "nodes": [
      4548050004,
      8992177538,
      9782000543,
      8992177539
    ],
    "tags": {
      "bicycle": "yes",
      "footway": "sidewalk",
      "highway": "footway",
      "smoothness": "excellent",
      "surface": "asphalt",
      "wheelchair": "yes"
    }
  },
  {
    "type": "way",
    "id": 971556968,
    "nodes": [
      8992177539,
      9413524690,
      11035958505,
      8992177541
    ],
    "tags": {
      "footway": "sidewalk",
      "highway": "footway"
    }
  },
  {
    "type": "way",
    "id": 971556969,
    "nodes": [
      8992177542,
      8992177543
    ],
    "tags": {
      "footway": "sidewalk",
      "highway": "footway"
    }
  },
  {
    "type": "way",
    "id": 971556970,
    "nodes": [
      8992177544,
      8992177545
    ],
    "tags": {
      "footway": "sidewalk",
      "highway": "footway"
    }
  },
  {
    "type": "way",
    "id": 971556971,
    "nodes": [
      8992177545,
      8992177546,
      8992177532
    ],
    "tags": {
      "crossing": "marked",
      "footway": "crossing",
      "highway": "footway"
    }
  },
  {
    "type": "way",
    "id": 971556972,
    "nodes": [
      8992177533,
      8992177547,
      8992177639,
      8992177534
    ],
    "tags": {
      "crossing": "marked",
      "footway": "crossing",
      "highway": "footway"
    }
  },
  {
    "type": "way",
    "id": 971556973,
    "nodes": [
      8992177548,
      8992177549,
      8992177550
    ],
    "tags": {
      "footway": "sidewalk",
      "highway": "footway"
    }
  },
  {
    "type": "way",
    "id": 971556975,
    "nodes": [
      8992177555,
      8992177639,
      8992177556,
      8992177561,
      8992177557,
      8992177558
    ],
    "tags": {
      "highway": "service"
    }
  },
  {
    "type": "way",
    "id": 971556976,
    "nodes": [
      507376013,
      8992177559,
      8992177560,
      8992177561
    ],
    "tags": {
      "highway": "service"
    }
  },
  {
    "type": "way",
    "id": 971556983,
    "nodes": [
      8992177541,
      8992177571,
      8992177542
    ],
    "tags": {
      "crossing": "marked",
      "footway": "crossing",
      "highway": "footway"
    }
  },
  {
    "type": "way",
    "id": 971556984,
    "nodes": [
      8992177543,
      8992177572,
      8992177544
    ],
    "tags": {
      "crossing": "marked",
      "footway": "crossing",
      "highway": "footway"
    }
  },
  {
    "type": "way",
    "id": 971556985,
    "nodes": [
      8992177576,
      3296886958
    ],
    "tags": {
      "highway": "service"
    }
  },
  {
    "type": "way",
    "id": 971556988,
    "nodes": [
      3296886960,
      8992177582
    ],
    "tags": {
      "highway": "service"
    }
  },
  {
    "type": "way",
    "id": 971556990,
    "nodes": [
      4018447661,
      8992177589,
      8992177590,
      8992177591
    ],
    "tags": {
      "footway": "sidewalk",
      "highway": "footway"
    }
  },
  {
    "type": "way",
    "id": 971556993,
    "nodes": [
      8992177604,
      8992177605
    ],
    "tags": {
      "footway": "sidewalk",
      "highway": "footway"
    }
  },
  {
    "type": "way",
    "id": 971556994,
    "nodes": [
      8992177605,
      8992177611,
      8992177610,
      8992177606,
      8992177607,
      11035935140,
      9782000553,
      8992177609,
      8992177612,
      925134679
    ],
    "tags": {
      "highway": "path"
    }
  },
  {
    "type": "way",
    "id": 971556995,
    "nodes": [
      8992177613,
      8992177620,
      9413527138,
      9599197059,
      9413527137,
      9599197087,
      9599197086,
      8992177615,
      9413527135,
      9413527134,
      8992177616
    ],
    "tags": {
      "highway": "service",
      "lanes": "1",
      "maxspeed": "60",
      "sidewalk": "both",
      "smoothness": "intermediate",
      "surface": "asphalt"
    }
  },
  {
    "type": "way",
    "id": 971556997,
    "nodes": [
      8992177621,
      8992177623,
      8992177622
    ],
    "tags": {
      "highway": "service",
      "smoothness": "intermediate",
      "surface": "asphalt"
    }
  },
  {
    "type": "way",
    "id": 971556998,
    "nodes": [
      8992177623,
      514770508
    ],
    "tags": {
      "highway": "service",
      "smoothness": "intermediate",
      "surface": "asphalt"
    }
  },
  {
    "type": "way",
    "id": 971556999,
    "nodes": [
      2478280630,
      8992177624
    ],
    "tags": {
      "footway": "sidewalk",
      "highway": "footway"
    }
  },
  {
    "type": "way",
    "id": 971557000,
    "nodes": [
      8992177625,
      8992177626
    ],
    "tags": {
      "footway": "sidewalk",
      "highway": "footway"
    }
  },
  {
    "type": "way",
    "id": 971557001,
    "nodes": [
      8992177624,
      8992177627,
      8992177625
    ],
    "tags": {
      "crossing": "marked",
      "crossing:markings": "yes",
      "footway": "crossing",
      "highway": "footway"
    }
  },
  {
    "type": "way",
    "id": 971557005,
    "nodes": [
      8992177632,
      8992177633,
      9599197055,
      8992177634,
      8992177635,
      8992177636
    ],
    "tags": {
      "bicycle": "yes",
      "footway": "sidewalk",
      "highway": "footway",
      "lit": "yes",
      "smoothness": "good",
      "surface": "asphalt",
      "wheelchair": "yes"
    }
  },
  {
    "type": "way",
    "id": 971557007,
    "nodes": [
      507375999,
      8992177546,
      4018447654,
      9407221918,
      9407221919,
      9407221920,
      8992144007,
      8992177642,
      4018447667
    ],
    "tags": {
      "highway": "service"
    }
  },
  {
    "type": "way",
    "id": 971557008,
    "nodes": [
      4193479032,
      4018447667
    ],
    "tags": {
      "highway": "service"
    }
  },
  {
    "type": "way",
    "id": 971557009,
    "nodes": [
      8992177641,
      8992177642,
      8992177550
    ],
    "tags": {
      "crossing": "marked",
      "footway": "crossing",
      "highway": "footway"
    }
  },
  {
    "type": "way",
    "id": 971557010,
    "nodes": [
      8992177591,
      8992177641
    ],
    "tags": {
      "footway": "sidewalk",
      "highway": "footway"
    }
  },
  {
    "type": "way",
    "id": 971557011,
    "nodes": [
      2478280630,
      8992177646
    ],
    "tags": {
      "footway": "sidewalk",
      "highway": "footway"
    }
  },
  {
    "type": "way",
    "id": 971557012,
    "nodes": [
      8992177646,
      8992177647,
      8992177648
    ],
    "tags": {
      "footway": "sidewalk",
      "highway": "footway"
    }
  },
  {
    "type": "way",
    "id": 971557014,
    "nodes": [
      8992177651,
      8992177652,
      8992177653
    ],
    "tags": {
      "highway": "service"
    }
  },
  {
    "type": "way",
    "id": 1005382863,
    "nodes": [
      275422195,
      3899282022,
      9942211366,
      443437369
    ],
    "tags": {
      "highway": "secondary",
      "int_name": "Čyhunačnaja vulica",
      "lanes": "2",
      "maxspeed": "40",
      "maxspeed:practical": "60",
      "name": "Чыгуначная вуліца",
      "name:be": "Чыгуначная вуліца",
      "name:pl": "ulica Zaliznyczna",
      "name:ru": "Железнодорожная улица",
      "name:uk": "Залізнична вулиця",
      "oneway": "yes",
      "surface": "asphalt",
      "turn:lanes": "right|right"
    }
  },
  {
    "type": "way",
    "id": 1019957149,
    "nodes": [
      9407142286,
      9407142285,
      9407142284
    ],
    "tags": {
      "highway": "service",
      "lanes": "2",
      "lanes:backward": "1",
      "lanes:forward": "1",
      "lit": "yes",
      "maxspeed": "5",
      "sidewalk": "both",
      "smoothness": "good",
      "surface": "asphalt"
    }
  },
  {
    "type": "way",
    "id": 1019957155,
    "nodes": [
      9407143155,
      9407143154
    ],
    "tags": {
      "highway": "service",
      "lanes": "2",
      "lanes:backward": "1",
      "lanes:forward": "1",
      "lit": "yes",
      "maxspeed": "5",
      "sidewalk": "both",
      "smoothness": "excellent",
      "surface": "asphalt"
    }
  },
  {
    "type": "way",
    "id": 1019957156,
    "nodes": [
      9407143158,
      9407143157,
      9407143156
    ],
    "tags": {
      "highway": "service",
      "lanes": "2",
      "lanes:backward": "1",
      "lanes:forward": "1",
      "lit": "yes",
      "maxspeed": "5",
      "sidewalk": "both",
      "smoothness": "excellent",
      "surface": "asphalt"
    }
  },
  {
    "type": "way",
    "id": 1019957157,
    "nodes": [
      9407143169,
      9407143163,
      9407143155,
      9407143162,
      9407143161,
      9407143160,
      9407143156,
      9407143159
    ],
    "tags": {
      "highway": "service",
      "lanes": "2",
      "lanes:backward": "1",
      "lanes:forward": "1",
      "lit": "yes",
      "maxspeed": "5",
      "sidewalk": "both",
      "smoothness": "excellent",
      "surface": "asphalt"
    }
  },
  {
    "type": "way",
    "id": 1019957158,
    "nodes": [
      4189389390,
      9407143172,
      9407143158,
      9407143171,
      9407143159,
      9407143170,
      9407143169,
      9407143168,
      9407143167,
      9407143166,
      9407143165,
      9407143164
    ],
    "tags": {
      "highway": "service",
      "lanes": "2",
      "lanes:backward": "1",
      "lanes:forward": "1",
      "lit": "yes",
      "maxspeed": "5",
      "sidewalk": "both",
      "smoothness": "excellent",
      "surface": "asphalt"
    }
  },
  {
    "type": "way",
    "id": 1019957167,
    "nodes": [
      4264226971,
      9407143206,
      9413527445,
      9407143207
    ],
    "tags": {
      "highway": "service",
      "lanes": "2",
      "lanes:backward": "1",
      "lanes:forward": "1",
      "maxspeed": "10",
      "sidewalk": "both",
      "smoothness": "intermediate",
      "surface": "asphalt"
    }
  },
  {
    "type": "way",
    "id": 1020634634,
    "nodes": [
      9413524655,
      9413524656
    ],
    "tags": {
      "bicycle": "yes",
      "footway": "sidewalk",
      "highway": "footway",
      "smoothness": "good",
      "surface": "asphalt"
    }
  },
  {
    "type": "way",
    "id": 1020634635,
    "nodes": [
      9413524658,
      9413524655,
      9413524657
    ],
    "tags": {
      "bicycle": "yes",
      "footway": "sidewalk",
      "highway": "footway",
      "smoothness": "good",
      "surface": "asphalt"
    }
  },
  {
    "type": "way",
    "id": 1020634640,
    "nodes": [
      9413524685,
      9413524678,
      9413524677,
      9413524676,
      9413524675,
      9413524674,
      9413524688
    ],
    "tags": {
      "highway": "service",
      "lanes": "1",
      "maxspeed": "5",
      "smoothness": "intermediate",
      "surface": "unpaved"
    }
  },
  {
    "type": "way",
    "id": 1020634641,
    "nodes": [
      9413524681,
      9413524680,
      9413524679
    ],
    "tags": {
      "highway": "service",
      "lanes": "1",
      "maxspeed": "5",
      "smoothness": "intermediate",
      "surface": "unpaved"
    }
  },
  {
    "type": "way",
    "id": 1020634642,
    "nodes": [
      8990285786,
      9413524685,
      9413524684,
      9413524683,
      9413524681,
      9413524682
    ],
    "tags": {
      "highway": "service",
      "lanes": "1",
      "maxspeed": "5",
      "smoothness": "intermediate",
      "surface": "unpaved"
    }
  },
  {
    "type": "way",
    "id": 1020634643,
    "nodes": [
      9413524689,
      8992177539,
      8990285773,
      9413524688,
      9413524687,
      9413524686,
      8990285786
    ],
    "tags": {
      "highway": "service",
      "lanes": "1",
      "maxspeed": "5",
      "smoothness": "intermediate",
      "surface": "unpaved"
    }
  },
  {
    "type": "way",
    "id": 1020634645,
    "nodes": [
      9413524696,
      9413527362
    ],
    "tags": {
      "bicycle": "yes",
      "footway": "sidewalk",
      "highway": "footway",
      "lit": "yes",
      "smoothness": "good",
      "surface": "asphalt",
      "wheelchair": "yes"
    }
  },
  {
    "type": "way",
    "id": 1020634646,
    "nodes": [
      8985450293,
      9413527363
    ],
    "tags": {
      "bicycle": "yes",
      "footway": "sidewalk",
      "highway": "footway",
      "lit": "yes",
      "smoothness": "good",
      "surface": "asphalt",
      "wheelchair": "yes"
    }
  },
  {
    "type": "way",
    "id": 1020634657,
    "nodes": [
      9413527133,
      9413527132,
      9413527131,
      9413527130,
      9413527129,
      9413527128
    ],
    "tags": {
      "highway": "service",
      "lanes": "1",
      "maxspeed": "60",
      "smoothness": "intermediate",
      "surface": "asphalt"
    }
  },
  {
    "type": "way",
    "id": 1020634658,
    "nodes": [
      8985450304,
      9413527140,
      9413524695,
      9413527139,
      9413524694,
      9413524693,
      9413524692
    ],
    "tags": {
      "bicycle": "yes",
      "footway": "sidewalk",
      "highway": "footway",
      "smoothness": "intermediate",
      "surface": "asphalt",
      "wheelchair": "yes"
    }
  },
  {
    "type": "way",
    "id": 1020634660,
    "nodes": [
      9413527158,
      9413527157,
      9413527156,
      9413527155
    ],
    "tags": {
      "bicycle": "yes",
      "footway": "sidewalk",
      "highway": "footway",
      "smoothness": "good",
      "surface": "paving_stones",
      "wheelchair": "yes"
    }
  },
  {
    "type": "way",
    "id": 1020634671,
    "nodes": [
      9413527227,
      9413527226,
      9413527225,
      9413527224,
      9413527223,
      9413527222
    ],
    "tags": {
      "highway": "service",
      "lanes": "1",
      "lit": "yes",
      "maxspeed": "5",
      "sidewalk": "no",
      "smoothness": "excellent",
      "surface": "paving_stones"
    }
  },
  {
    "type": "way",
    "id": 1020634691,
    "nodes": [
      8985450294,
      8992177553,
      9413527351
    ],
    "tags": {
      "bicycle": "yes",
      "footway": "crossing",
      "highway": "footway",
      "lit": "yes",
      "smoothness": "intermediate",
      "surface": "asphalt",
      "wheelchair": "yes"
    }
  },
  {
    "type": "way",
    "id": 1020634692,
    "nodes": [
      9413527350,
      8992177554,
      8985450296
    ],
    "tags": {
      "bicycle": "yes",
      "footway": "crossing",
      "highway": "footway",
      "lit": "yes",
      "smoothness": "intermediate",
      "surface": "asphalt",
      "wheelchair": "yes"
    }
  },
  {
    "type": "way",
    "id": 1020634693,
    "nodes": [
      9413527351,
      9413527350
    ],
    "tags": {
      "bicycle": "yes",
      "footway": "sidewalk",
      "highway": "footway",
      "smoothness": "good",
      "surface": "asphalt",
      "wheelchair": "yes"
    }
  },
  {
    "type": "way",
    "id": 1020634694,
    "nodes": [
      9413527355,
      9413527352,
      9413527354
    ],
    "tags": {
      "bicycle": "yes",
      "footway": "crossing",
      "highway": "footway",
      "lit": "yes",
      "smoothness": "good",
      "surface": "asphalt",
      "wheelchair": "yes"
    }
  },
  {
    "type": "way",
    "id": 1020634695,
    "nodes": [
      9413527354,
      9413527353
    ],
    "tags": {
      "bicycle": "yes",
      "footway": "sidewalk",
      "highway": "footway",
      "lit": "yes",
      "smoothness": "intermediate",
      "surface": "asphalt",
      "wheelchair": "yes"
    }
  },
  {
    "type": "way",
    "id": 1020634696,
    "nodes": [
      9413527356,
      9413527355
    ],
    "tags": {
      "bicycle": "yes",
      "footway": "sidewalk",
      "highway": "footway",
      "lit": "yes",
      "smoothness": "intermediate",
      "surface": "asphalt",
      "wheelchair": "yes"
    }
  },
  {
    "type": "way",
    "id": 1020634697,
    "nodes": [
      9413527363,
      8992177629,
      9413527362
    ],
    "tags": {
      "bicycle": "yes",
      "footway": "crossing",
      "highway": "footway",
      "lit": "yes",
      "smoothness": "excellent",
      "surface": "asphalt",
      "wheelchair": "yes"
    }
  },
  {
    "type": "way",
    "id": 1020638808,
    "nodes": [
      9413552302,
      11578613569,
      9413552301
    ],
    "tags": {
      "highway": "service",
      "lanes": "2",
      "lanes:backward": "1",
      "lanes:forward": "1",
      "maxspeed": "10",
      "sidewalk": "both",
      "smoothness": "intermediate",
      "surface": "asphalt"
    }
  },
  {
    "type": "way",
    "id": 1020638809,
    "nodes": [
      9413552298,
      9413552303,
      10860558442
    ],
    "tags": {
      "highway": "service",
      "lanes": "2",
      "lanes:backward": "1",
      "lanes:forward": "1",
      "maxspeed": "10",
      "sidewalk": "both",
      "smoothness": "intermediate",
      "surface": "asphalt"
    }
  },
  {
    "type": "way",
    "id": 1034541862,
    "nodes": [
      1781262077,
      3899282023,
      275422195
    ],
    "tags": {
      "highway": "secondary",
      "int_name": "vulica Karla Marksa",
      "lanes": "2",
      "maxspeed": "40",
      "maxspeed:practical": "60",
      "name": "вуліца Карла Маркса",
      "name:be": "вуліца Карла Маркса",
      "name:pl": "ulica Karola Marksa",
      "name:ru": "улица Карла Маркса",
      "name:uk": "вулиця Карла Маркса",
      "oneway": "yes",
      "surface": "asphalt",
      "turn:lanes": "left|right"
    }
  },
  {
    "type": "way",
    "id": 1042866738,
    "nodes": [
      9599197215,
      10860487570,
      9599197214,
      4548050130
    ],
    "tags": {
      "bicycle": "yes",
      "footway": "sidewalk",
      "highway": "footway",
      "smoothness": "intermediate",
      "surface": "asphalt",
      "wheelchair": "yes"
    }
  },
  {
    "type": "way",
    "id": 1042866742,
    "nodes": [
      4548050144,
      925134566,
      925134447,
      9162238664,
      9599197223,
      9599197222,
      9162150264
    ],
    "tags": {
      "bicycle": "yes",
      "footway": "sidewalk",
      "highway": "footway",
      "lit": "yes",
      "smoothness": "good",
      "surface": "asphalt",
      "wheelchair": "yes"
    }
  },
  {
    "type": "way",
    "id": 1042866743,
    "nodes": [
      9599197225,
      9599197224,
      9599197174,
      9599197223,
      9599197219,
      9162150263
    ],
    "tags": {
      "bicycle": "yes",
      "footway": "sidewalk",
      "highway": "footway",
      "smoothness": "good",
      "surface": "asphalt",
      "wheelchair": "yes"
    }
  },
  {
    "type": "way",
    "id": 1042866744,
    "nodes": [
      275423503,
      9599197236,
      9599197253,
      4177196193,
      8985364256,
      275423507,
      8985364173,
      499471015,
      8943765342,
      275423493
    ],
    "tags": {
      "highway": "secondary",
      "int_name": "Centraĺnaja vulica",
      "lanes": "4",
      "lanes:backward": "2",
      "lanes:forward": "2",
      "lit": "yes",
      "maxspeed": "60",
      "maxspeed:practical": "60",
      "name": "Цэнтральная вуліца",
      "name:be": "Цэнтральная вуліца",
      "name:pl": "ulica Centralna",
      "name:ru": "Центральная улица",
      "name:uk": "Центральна вулиця",
      "sidewalk": "separate",
      "smoothness": "good",
      "surface": "asphalt",
      "turn:lanes:backward": "through|",
      "turn:lanes:forward": "left;through|through;right"
    }
  },
  {
    "type": "way",
    "id": 1042866747,
    "nodes": [
      9599197242,
      9599197241,
      9599197240,
      8985364275
    ],
    "tags": {
      "highway": "cycleway",
      "smoothness": "good",
      "surface": "asphalt"
    }
  },
  {
    "type": "way",
    "id": 1042866748,
    "nodes": [
      9599197244,
      9599197243,
      9599197239,
      9599197242
    ],
    "tags": {
      "highway": "cycleway",
      "smoothness": "good",
      "surface": "asphalt"
    }
  },
  {
    "type": "way",
    "id": 1042866749,
    "nodes": [
      9599197238,
      9599197237,
      9599197236,
      9599197235,
      8985364271
    ],
    "tags": {
      "highway": "cycleway",
      "smoothness": "good",
      "surface": "asphalt"
    }
  },
  {
    "type": "way",
    "id": 1042866750,
    "nodes": [
      9599197248,
      9599197247,
      9599197246,
      9599197245
    ],
    "tags": {
      "highway": "cycleway",
      "smoothness": "good",
      "surface": "asphalt"
    }
  },
  {
    "type": "way",
    "id": 1042866751,
    "nodes": [
      9599197254,
      9599197250,
      9599197249
    ],
    "tags": {
      "bicycle": "yes",
      "footway": "crossing",
      "highway": "footway",
      "smoothness": "good",
      "surface": "asphalt",
      "wheelchair": "yes"
    }
  },
  {
    "type": "way",
    "id": 1042866752,
    "nodes": [
      9599197256,
      9599197251,
      8985364275
    ],
    "tags": {
      "bicycle": "yes",
      "footway": "crossing",
      "highway": "footway",
      "smoothness": "good",
      "surface": "asphalt",
      "wheelchair": "yes"
    }
  },
  {
    "type": "way",
    "id": 1042866753,
    "nodes": [
      8985364273,
      9599197252,
      8985364300
    ],
    "tags": {
      "bicycle": "yes",
      "footway": "crossing",
      "highway": "footway",
      "smoothness": "good",
      "surface": "asphalt",
      "wheelchair": "yes"
    }
  },
  {
    "type": "way",
    "id": 1042866754,
    "nodes": [
      8985364271,
      9599197253,
      8943765356
    ],
    "tags": {
      "bicycle": "yes",
      "footway": "crossing",
      "highway": "footway",
      "smoothness": "good",
      "surface": "asphalt",
      "wheelchair": "yes"
    }
  },
  {
    "type": "way",
    "id": 1042866755,
    "nodes": [
      9599197255,
      9599197254
    ],
    "tags": {
      "bicycle": "yes",
      "footway": "sidewalk",
      "highway": "footway",
      "lit": "yes",
      "smoothness": "good",
      "surface": "asphalt",
      "wheelchair": "yes"
    }
  },
  {
    "type": "way",
    "id": 1042866756,
    "nodes": [
      9599197257,
      9599197256
    ],
    "tags": {
      "bicycle": "yes",
      "footway": "sidewalk",
      "highway": "footway",
      "smoothness": "good",
      "surface": "asphalt",
      "wheelchair": "yes"
    }
  },
  {
    "type": "way",
    "id": 1056287358,
    "nodes": [
      9705803547,
      9705803549,
      9705803550,
      10928642418,
      9705803551,
      9705803584,
      9705803589
    ],
    "tags": {
      "highway": "footway",
      "surface": "paving_stones"
    }
  },
  {
    "type": "way",
    "id": 1056287359,
    "nodes": [
      9705803554,
      9705803555,
      9705803549,
      9705803588
    ],
    "tags": {
      "highway": "footway"
    }
  },
  {
    "type": "way",
    "id": 1056287372,
    "nodes": [
      9705803583,
      9705803585,
      9705803584,
      9705803586,
      9705803587,
      10928642419,
      9599197260,
      9705803588
    ],
    "tags": {
      "bicycle": "yes",
      "footway": "sidewalk",
      "highway": "footway",
      "smoothness": "excellent",
      "surface": "paving_stones"
    }
  },
  {
    "type": "way",
    "id": 1056287373,
    "nodes": [
      9705803586,
      9705803589
    ],
    "tags": {
      "highway": "footway"
    }
  },
  {
    "type": "way",
    "id": 1065152112,
    "nodes": [
      9669926069,
      9782000560,
      271037618,
      9782000559,
      9782000558,
      9782000557,
      9782000556,
      9782000555,
      9782000554,
      9782000553,
      9782000552,
      9782000551,
      507375999
    ],
    "tags": {
      "highway": "path"
    }
  },
  {
    "type": "way",
    "id": 1085049034,
    "nodes": [
      9942211189,
      9942211188,
      9942211187,
      9942211186,
      9942211185
    ],
    "tags": {
      "highway": "service"
    }
  },
  {
    "type": "way",
    "id": 1085049038,
    "nodes": [
      9942211204,
      9942211203
    ],
    "tags": {
      "bicycle": "yes",
      "footway": "sidewalk",
      "highway": "footway",
      "smoothness": "excellent",
      "surface": "paving_stones",
      "wheelchair": "yes"
    }
  },
  {
    "type": "way",
    "id": 1085049039,
    "nodes": [
      11295415374,
      11295415375,
      11295415376,
      11295415377,
      11295415378,
      9942211205,
      9942211204,
      4548049973
    ],
    "tags": {
      "bicycle": "yes",
      "footway": "sidewalk",
      "highway": "footway",
      "smoothness": "excellent",
      "surface": "paving_stones",
      "wheelchair": "yes"
    }
  },
  {
    "type": "way",
    "id": 1085049040,
    "nodes": [
      4548049974,
      9942211206
    ],
    "tags": {
      "bicycle": "yes",
      "footway": "sidewalk",
      "highway": "footway",
      "smoothness": "excellent",
      "surface": "paving_stones",
      "wheelchair": "yes"
    }
  },
  {
    "type": "way",
    "id": 1085049044,
    "nodes": [
      9942211347,
      9942211214,
      9942211348
    ],
    "tags": {
      "bicycle": "yes",
      "footway": "crossing",
      "highway": "footway",
      "smoothness": "excellent",
      "surface": "asphalt",
      "wheelchair": "yes"
    }
  },
  {
    "type": "way",
    "id": 1085049056,
    "nodes": [
      9942211294,
      9942211293,
      9942211292
    ],
    "tags": {
      "bicycle": "yes",
      "footway": "crossing",
      "highway": "footway",
      "smoothness": "excellent",
      "surface": "asphalt",
      "wheelchair": "yes"
    }
  },
  {
    "type": "way",
    "id": 1085049065,
    "nodes": [
      9942211342,
      9942211341
    ],
    "tags": {
      "bicycle": "yes",
      "footway": "sidewalk",
      "highway": "footway",
      "smoothness": "excellent",
      "surface": "paving_stones",
      "wheelchair": "yes"
    }
  },
  {
    "type": "way",
    "id": 1085049069,
    "nodes": [
      9407221934,
      9942211295,
      9942211296,
      9942211292,
      9942211297,
      9942211298,
      9942211347,
      4548049974
    ],
    "tags": {
      "bicycle": "yes",
      "footway": "sidewalk",
      "highway": "footway",
      "smoothness": "excellent",
      "surface": "paving_stones",
      "wheelchair": "yes"
    }
  },
  {
    "type": "way",
    "id": 1085049070,
    "nodes": [
      9942211348,
      9942211216,
      9942211341,
      4548049999,
      9942211342,
      9942211343,
      4548050001
    ],
    "tags": {
      "bicycle": "yes",
      "footway": "sidewalk",
      "highway": "footway",
      "smoothness": "excellent",
      "surface": "paving_stones",
      "wheelchair": "yes"
    }
  },
  {
    "type": "way",
    "id": 1085049071,
    "nodes": [
      1781261977,
      9407221934,
      9942211289,
      9407221935,
      3899280842
    ],
    "tags": {
      "footway": "sidewalk",
      "highway": "footway"
    }
  },
  {
    "type": "way",
    "id": 1088230148,
    "nodes": [
      9970533964,
      9970533963
    ],
    "tags": {
      "bicycle": "yes",
      "footway": "sidewalk",
      "highway": "footway",
      "smoothness": "good",
      "wheelchair": "yes"
    }
  },
  {
    "type": "way",
    "id": 1088230149,
    "nodes": [
      1278080790,
      8985448262,
      9970533965
    ],
    "tags": {
      "bicycle": "yes",
      "footway": "sidewalk",
      "highway": "footway",
      "smoothness": "good",
      "wheelchair": "yes"
    }
  },
  {
    "type": "way",
    "id": 1088230150,
    "nodes": [
      9970533967,
      9970533965,
      9970533963,
      499470884
    ],
    "tags": {
      "bicycle": "yes",
      "footway": "sidewalk",
      "highway": "footway",
      "smoothness": "good",
      "wheelchair": "yes"
    }
  },
  {
    "type": "way",
    "id": 1093318295,
    "nodes": [
      10012930091,
      10012930059,
      10012930058,
      10012930075
    ],
    "tags": {
      "highway": "path"
    }
  },
  {
    "type": "way",
    "id": 1093318296,
    "nodes": [
      10012930066,
      10012930062,
      10012930061,
      10012930060,
      4202875041
    ],
    "tags": {
      "highway": "path"
    }
  },
  {
    "type": "way",
    "id": 1093318297,
    "nodes": [
      10012930068,
      10012930067,
      10012930066,
      10012930065,
      10012930064,
      10012930063
    ],
    "tags": {
      "bicycle": "yes",
      "footway": "sidewalk",
      "highway": "footway",
      "smoothness": "good"
    }
  },
  {
    "type": "way",
    "id": 1093318299,
    "nodes": [
      10012930080,
      10012930079,
      10012930078,
      10012930077,
      10012930076,
      10012930088,
      10012930075
    ],
    "tags": {
      "bicycle": "yes",
      "footway": "sidewalk",
      "highway": "footway",
      "smoothness": "good",
      "surface": "paving_stones"
    }
  },
  {
    "type": "way",
    "id": 1093318301,
    "nodes": [
      10012930087,
      10012930079,
      10012930086,
      10012930085
    ],
    "tags": {
      "highway": "service"
    }
  },
  {
    "type": "way",
    "id": 1093318302,
    "nodes": [
      10012930089,
      10012930088
    ],
    "tags": {
      "bicycle": "yes",
      "footway": "sidewalk",
      "highway": "footway",
      "smoothness": "good",
      "surface": "paving_stones"
    }
  },
  {
    "type": "way",
    "id": 1093318303,
    "nodes": [
      10012930069,
      10012930068,
      10012930091,
      10012930089,
      10012930080,
      10012930090
    ],
    "tags": {
      "bicycle": "yes",
      "footway": "sidewalk",
      "highway": "footway",
      "smoothness": "good",
      "surface": "paving_stones"
    }
  },
  {
    "type": "way",
    "id": 1093318304,
    "nodes": [
      10012930094,
      10012930093,
      10012930092
    ],
    "tags": {
      "highway": "service"
    }
  },
  {
    "type": "way",
    "id": 1093318305,
    "nodes": [
      10012930096,
      10012930092,
      10012930095
    ],
    "tags": {
      "highway": "service"
    }
  },
  {
    "type": "way",
    "id": 1093318311,
    "nodes": [
      499470880,
      10012930063,
      10012930119,
      3351230499
    ],
    "tags": {
      "highway": "service"
    }
  },
  {
    "type": "way",
    "id": 1093318323,
    "nodes": [
      8985450304,
      10012930196
    ],
    "tags": {
      "bicycle": "yes",
      "footway": "sidewalk",
      "highway": "footway",
      "lit": "yes",
      "smoothness": "good",
      "surface": "asphalt",
      "wheelchair": "yes"
    }
  },
  {
    "type": "way",
    "id": 1093318324,
    "nodes": [
      10012930195,
      10012930197
    ],
    "tags": {
      "bicycle": "yes",
      "footway": "sidewalk",
      "highway": "footway",
      "smoothness": "good",
      "wheelchair": "yes"
    }
  },
  {
    "type": "way",
    "id": 1093318325,
    "nodes": [
      10012930197,
      8992177644,
      10012930196
    ],
    "tags": {
      "bicycle": "yes",
      "footway": "crossing",
      "highway": "footway",
      "lit": "yes",
      "smoothness": "excellent",
      "surface": "asphalt",
      "wheelchair": "yes"
    }
  },
  {
    "type": "way",
    "id": 1131691038,
    "nodes": [
      10550591703,
      10550591702,
      10550591701,
      10550591700
    ],
    "tags": {
      "highway": "service"
    }
  },
  {
    "type": "way",
    "id": 1167752981,
    "nodes": [
      3612863702,
      4548050125,
      3927677194
    ],
    "tags": {
      "highway": "service",
      "lanes": "1",
      "maxspeed": "60",
      "sidewalk": "both",
      "smoothness": "good",
      "surface": "unpaved"
    }
  },
  {
    "type": "way",
    "id": 1167757214,
    "nodes": [
      10860487537,
      10860487536,
      10860487535,
      4177189477
    ],
    "tags": {
      "highway": "service",
      "smoothness": "intermediate",
      "surface": "asphalt"
    }
  },
  {
    "type": "way",
    "id": 1167757215,
    "nodes": [
      10860487539,
      4177196089
    ],
    "tags": {
      "bicycle": "yes",
      "footway": "sidewalk",
      "highway": "footway",
      "smoothness": "intermediate",
      "surface": "asphalt",
      "wheelchair": "yes"
    }
  },
  {
    "type": "way",
    "id": 1167757218,
    "nodes": [
      10860487570,
      10860487569,
      10860487567,
      10860487568,
      10860487542,
      10860487541,
      10860487540,
      10860487539,
      10860487538
    ],
    "tags": {
      "bicycle": "yes",
      "footway": "sidewalk",
      "highway": "footway",
      "smoothness": "intermediate",
      "surface": "asphalt",
      "wheelchair": "yes"
    }
  },
  {
    "type": "way",
    "id": 1169294764,
    "nodes": [
      11578613569,
      10873185765,
      10873185766,
      10873185764
    ],
    "tags": {
      "bicycle": "yes",
      "footway": "sidewalk",
      "highway": "footway",
      "lit": "yes",
      "smoothness": "good",
      "surface": "asphalt",
      "wheelchair": "yes"
    }
  },
  {
    "type": "way",
    "id": 1169301241,
    "nodes": [
      8985486993,
      10873248503,
      10873248502,
      10873248504,
      10860558442
    ],
    "tags": {
      "highway": "footway"
    }
  },
  {
    "type": "way",
    "id": 1176202860,
    "nodes": [
      9413527331,
      8780799317,
      10928636148
    ],
    "tags": {
      "bicycle": "yes",
      "footway": "sidewalk",
      "highway": "footway",
      "lit": "yes",
      "smoothness": "good",
      "surface": "asphalt",
      "wheelchair": "yes"
    }
  },
  {
    "type": "way",
    "id": 1176202877,
    "nodes": [
      10928642407,
      8985448261
    ],
    "tags": {
      "bicycle": "yes",
      "footway": "sidewalk",
      "highway": "footway",
      "smoothness": "excellent",
      "surface": "paving_stones"
    }
  },
  {
    "type": "way",
    "id": 1176202878,
    "nodes": [
      10928642413,
      10928642412,
      10928642411,
      10928642410,
      10928642407,
      10928642409,
      10928642408
    ],
    "tags": {
      "bicycle": "yes",
      "footway": "sidewalk",
      "highway": "footway",
      "smoothness": "excellent",
      "surface": "paving_stones"
    }
  },
  {
    "type": "way",
    "id": 1176202879,
    "nodes": [
      10928642415,
      10928642413,
      10928642414
    ],
    "tags": {
      "highway": "service"
    }
  },
  {
    "type": "way",
    "id": 1176202881,
    "nodes": [
      10928642417,
      10928642429,
      10928642416
    ],
    "tags": {
      "bicycle": "yes",
      "footway": "sidewalk",
      "highway": "footway",
      "smoothness": "excellent",
      "surface": "paving_stones"
    }
  },
  {
    "type": "way",
    "id": 1176202882,
    "nodes": [
      10928642420,
      10928642419,
      10928642418
    ],
    "tags": {
      "bicycle": "yes",
      "footway": "sidewalk",
      "highway": "footway",
      "smoothness": "excellent",
      "surface": "paving_stones"
    }
  },
  {
    "type": "way",
    "id": 1176202883,
    "nodes": [
      10928642424,
      10928642421,
      10928642422
    ],
    "tags": {
      "bicycle": "yes",
      "footway": "sidewalk",
      "highway": "footway",
      "smoothness": "excellent",
      "surface": "paving_stones"
    }
  },
  {
    "type": "way",
    "id": 1176202884,
    "nodes": [
      10928642425,
      10928642420,
      10928642422,
      10928642426
    ],
    "tags": {
      "bicycle": "yes",
      "footway": "sidewalk",
      "highway": "footway",
      "smoothness": "excellent",
      "surface": "paving_stones"
    }
  },
  {
    "type": "way",
    "id": 1176202885,
    "nodes": [
      9705803587,
      10928642425,
      10928642424,
      10928642423
    ],
    "tags": {
      "bicycle": "yes",
      "footway": "sidewalk",
      "highway": "footway",
      "smoothness": "excellent",
      "surface": "paving_stones"
    }
  },
  {
    "type": "way",
    "id": 1176202886,
    "nodes": [
      10928642421,
      10928642439,
      10928642426,
      10928642427
    ],
    "tags": {
      "bicycle": "yes",
      "footway": "sidewalk",
      "highway": "footway",
      "smoothness": "excellent",
      "surface": "paving_stones"
    }
  },
  {
    "type": "way",
    "id": 1176202887,
    "nodes": [
      10928642436,
      11710854850,
      11212027159,
      10928642428
    ],
    "tags": {
      "bicycle": "yes",
      "footway": "sidewalk",
      "highway": "footway",
      "smoothness": "excellent",
      "surface": "paving_stones"
    }
  },
  {
    "type": "way",
    "id": 1176202888,
    "nodes": [
      10928642435,
      10928642434,
      10928642417,
      10928642433,
      10928642432,
      10928642431,
      10928642430,
      10928642429,
      10928642408,
      10928642436
    ],
    "tags": {
      "bicycle": "yes",
      "footway": "sidewalk",
      "highway": "footway",
      "smoothness": "excellent",
      "surface": "paving_stones"
    }
  },
  {
    "type": "way",
    "id": 1176202889,
    "nodes": [
      10928642427,
      10928642439,
      10928642423,
      10928642438,
      10928642437,
      10928642435,
      10928642436
    ],
    "tags": {
      "bicycle": "yes",
      "footway": "sidewalk",
      "highway": "footway",
      "smoothness": "excellent",
      "surface": "paving_stones"
    }
  },
  {
    "type": "way",
    "id": 1188486171,
    "nodes": [
      9530290619,
      11035935137,
      11035929603
    ],
    "tags": {
      "bicycle": "yes",
      "footway": "sidewalk",
      "highway": "footway",
      "smoothness": "excellent",
      "surface": "asphalt",
      "wheelchair": "yes"
    }
  },
  {
    "type": "way",
    "id": 1188486172,
    "nodes": [
      9530290619,
      9530290618
    ],
    "tags": {
      "footway": "link",
      "highway": "footway",
      "public_transport": "entrance_pass"
    }
  },
  {
    "type": "way",
    "id": 1188486173,
    "nodes": [
      11035958505,
      11035929604,
      11035929603
    ],
    "tags": {
      "bicycle": "yes",
      "footway": "crossing",
      "highway": "footway",
      "smoothness": "excellent",
      "surface": "asphalt",
      "wheelchair": "yes"
    }
  },
  {
    "type": "way",
    "id": 1188486388,
    "nodes": [
      11035935142,
      11035935141,
      11035935140,
      11035935139,
      11035935138,
      11035935137
    ],
    "tags": {
      "highway": "path",
      "surface": "unpaved"
    }
  },
  {
    "type": "way",
    "id": 1210241858,
    "nodes": [
      11212027150,
      11212027149
    ],
    "tags": {
      "footway": "link",
      "highway": "footway",
      "public_transport": "entrance_pass"
    }
  },
  {
    "type": "way",
    "id": 1210241859,
    "nodes": [
      8985364283,
      11212027151
    ],
    "tags": {
      "footway": "link",
      "highway": "footway",
      "public_transport": "entrance_pass"
    }
  },
  {
    "type": "way",
    "id": 1210241862,
    "nodes": [
      11212027159,
      11710854865,
      9599197245,
      9599197244
    ],
    "tags": {
      "highway": "cycleway"
    }
  },
  {
    "type": "way",
    "id": 1217107473,
    "nodes": [
      1278080790,
      11277476209
    ],
    "tags": {
      "footway": "link",
      "highway": "footway",
      "public_transport": "entrance_pass"
    }
  },
  {
    "type": "way",
    "id": 1217107474,
    "nodes": [
      8985448261,
      2478265993,
      10928642428,
      8985364283,
      9599197246,
      9599197249,
      8985364273,
      9599197244,
      11212027158,
      9705803553,
      11710854851,
      9705803583,
      4548050086
    ],
    "tags": {
      "bicycle": "yes",
      "foot": "designated",
      "footway": "sidewalk",
      "highway": "footway",
      "lit": "yes",
      "segregated": "yes",
      "smoothness": "good",
      "surface": "paving_stones",
      "wheelchair": "yes"
    }
  },
  {
    "type": "way",
    "id": 1218987716,
    "nodes": [
      11295415384,
      11295415383,
      11295415382,
      11295415381,
      11295415380,
      11295415379
    ],
    "tags": {
      "highway": "service"
    }
  },
  {
    "type": "way",
    "id": 1218987717,
    "nodes": [
      11295415386,
      11295415383,
      11295415385
    ],
    "tags": {
      "bicycle": "yes",
      "footway": "sidewalk",
      "highway": "footway",
      "smoothness": "excellent",
      "surface": "paving_stones",
      "wheelchair": "yes"
    }
  },
  {
    "type": "way",
    "id": 1242252412,
    "nodes": [
      9705803554,
      1320695092,
      11543453814
    ],
    "tags": {
      "footway": "crossing",
      "highway": "footway"
    }
  },
  {
    "type": "way",
    "id": 1259648011,
    "nodes": [
      11710854854,
      11212027158
    ],
    "tags": {
      "bicycle": "yes",
      "foot": "designated",
      "footway": "sidewalk",
      "footway:surface": "paving_stones",
      "highway": "footway",
      "lit": "yes",
      "segregated": "yes",
      "smoothness": "good",
      "surface": "paving_stones",
      "wheelchair": "yes"
    }
  },
  {
    "type": "way",
    "id": 1259648014,
    "nodes": [
      11710876799,
      11710854855,
      11710854854,
      11710854853,
      9705803589
    ],
    "tags": {
      "bicycle": "yes",
      "foot": "designated",
      "footway": "sidewalk",
      "highway": "footway",
      "lit": "yes",
      "segregated": "yes",
      "smoothness": "good",
      "surface": "paving_stones",
      "wheelchair": "yes"
    }
  },
  {
    "type": "way",
    "id": 1259648015,
    "nodes": [
      11710854857,
      11710854856,
      11710854858
    ],
    "tags": {
      "highway": "service"
    }
  },
  {
    "type": "way",
    "id": 1259648016,
    "nodes": [
      11710854858,
      11710854859,
      11710854860,
      11710854857,
      11212027171,
      11710854853,
      11710854861
    ],
    "tags": {
      "highway": "service"
    }
  },
  {
    "type": "way",
    "id": 1259648017,
    "nodes": [
      11710854864,
      11710854851,
      11710854863,
      11710854861,
      11710854862
    ],
    "tags": {
      "highway": "service"
    }
  },
  {
    "type": "way",
    "id": 1259648019,
    "nodes": [
      11710876796,
      11710876795,
      11710876794,
      11710876799
    ],
    "tags": {
      "highway": "service",
      "smoothness": "good",
      "surface": "paving_stones"
    }
  },
  {
    "type": "way",
    "id": 1259648020,
    "nodes": [
      11710876799,
      11710876798,
      11710876795,
      11710854850,
      11710876797
    ],
    "tags": {
      "highway": "service",
      "smoothness": "good",
      "surface": "paving_stones"
    }
  },
  {
    "type": "node",
    "id": 271037618,
    "lat": 52.1278647,
    "lon": 26.1185298,
    "tags": {
      "railway": "crossing"
    }
  },
  {
    "type": "node",
    "id": 275421858,
    "lat": 52.1292493,
    "lon": 26.1197140
  },
  {
    "type": "node",
    "id": 275421862,
    "lat": 52.1294490,
    "lon": 26.1197897
  },
  {
    "type": "node",
    "id": 275421863,
    "lat": 52.1299337,
    "lon": 26.1193375
  },
  {
    "type": "node",
    "id": 275421888,
    "lat": 52.1322074,
    "lon": 26.1254746
  },
  {
    "type": "node",
    "id": 275421890,
    "lat": 52.1347231,
    "lon": 26.1232498
  },
  {
    "type": "node",
    "id": 275421896,
    "lat": 52.1385353,
    "lon": 26.1197043
  },
  {
    "type": "node",
    "id": 275421904,
    "lat": 52.1417176,
    "lon": 26.1170024
  },
  {
    "type": "node",
    "id": 275421909,
    "lat": 52.1429441,
    "lon": 26.1175412
  },
  {
    "type": "node",
    "id": 275421940,
    "lat": 52.1232998,
    "lon": 26.1179103
  },
  {
    "type": "node",
    "id": 275421950,
    "lat": 52.1277896,
    "lon": 26.1186316
  },
  {
    "type": "node",
    "id": 275422190,
    "lat": 52.1243023,
    "lon": 26.1163401
  },
  {
    "type": "node",
    "id": 275422192,
    "lat": 52.1259669,
    "lon": 26.1169018
  },
  {
    "type": "node",
    "id": 275422194,
    "lat": 52.1251851,
    "lon": 26.1149672
  },
  {
    "type": "node",
    "id": 275422195,
    "lat": 52.1261945,
    "lon": 26.1134447
  },
  {
    "type": "node",
    "id": 275422197,
    "lat": 52.1222416,
    "lon": 26.1195488
  },
  {
    "type": "node",
    "id": 275422210,
    "lat": 52.1271226,
    "lon": 26.1161096
  },
  {
    "type": "node",
    "id": 275422220,
    "lat": 52.1227842,
    "lon": 26.1205389
  },
  {
    "type": "node",
    "id": 275422221,
    "lat": 52.1274412,
    "lon": 26.1172483
  },
  {
    "type": "node",
    "id": 275422231,
    "lat": 52.1282717,
    "lon": 26.1202492
  },
  {
    "type": "node",
    "id": 275422235,
    "lat": 52.1284558,
    "lon": 26.1213274
  },
  {
    "type": "node",
    "id": 275422373,
    "lat": 52.1280688,
    "lon": 26.1196495
  },
  {
    "type": "node",
    "id": 275423485,
    "lat": 52.1329690,
    "lon": 26.1128957,
    "tags": {
      "highway": "traffic_signals",
      "traffic_signals": "signal",
      "traffic_signals:direction": "both"
    }
  },
  {
    "type": "node",
    "id": 275423493,
    "lat": 52.1373216,
    "lon": 26.1076953,
    "tags": {
      "highway": "traffic_signals",
      "traffic_signals": "traffic_lights",
      "traffic_signals:direction": "both"
    }
  },
  {
    "type": "node",
    "id": 275423494,
    "lat": 52.1322943,
    "lon": 26.1168568
  },
  {
    "type": "node",
    "id": 275423503,
    "lat": 52.1381017,
    "lon": 26.1153076,
    "tags": {
      "highway": "traffic_signals",
      "traffic_signals": "signal",
      "traffic_signals:direction": "both"
    }
  },
  {
    "type": "node",
    "id": 275423505,
    "lat": 52.1287588,
    "lon": 26.1106553
  },
  {
    "type": "node",
    "id": 275423507,
    "lat": 52.1376138,
    "lon": 26.1105835
  },
  {
    "type": "node",
    "id": 443437369,
    "lat": 52.1258192,
    "lon": 26.1126012
  },
  {
    "type": "node",
    "id": 443442972,
    "lat": 52.1289525,
    "lon": 26.1106854
  },
  {
    "type": "node",
    "id": 443443197,
    "lat": 52.1294962,
    "lon": 26.1109086
  },
  {
    "type": "node",
    "id": 443446247,
    "lat": 52.1285746,
    "lon": 26.1106282
  },
  {
    "type": "node",
    "id": 443446248,
    "lat": 52.1283672,
    "lon": 26.1106515
  },
  {
    "type": "node",
    "id": 489732835,
    "lat": 52.1316766,
    "lon": 26.1122378
  },
  {
    "type": "node",
    "id": 489732838,
    "lat": 52.1325048,
    "lon": 26.1154439
  },
  {
    "type": "node",
    "id": 489732839,
    "lat": 52.1311375,
    "lon": 26.1153346
  },
  {
    "type": "node",
    "id": 489732841,
    "lat": 52.1313479,
    "lon": 26.1157532
  },
  {
    "type": "node",
    "id": 489732842,
    "lat": 52.1320487,
    "lon": 26.1160794
  },
  {
    "type": "node",
    "id": 489732845,
    "lat": 52.1322223,
    "lon": 26.1152774
  },
  {
    "type": "node",
    "id": 499470814,
    "lat": 52.1384285,
    "lon": 26.1154847
  },
  {
    "type": "node",
    "id": 499470824,
    "lat": 52.1388364,
    "lon": 26.1178737
  },
  {
    "type": "node",
    "id": 499470827,
    "lat": 52.1389140,
    "lon": 26.1186578
  },
  {
    "type": "node",
    "id": 499470862,
    "lat": 52.1327602,
    "lon": 26.1140692
  },
  {
    "type": "node",
    "id": 499470867,
    "lat": 52.1331355,
    "lon": 26.1142642
  },
  {
    "type": "node",
    "id": 499470874,
    "lat": 52.1329965,
    "lon": 26.1150743
  },
  {
    "type": "node",
    "id": 499470880,
    "lat": 52.1337905,
    "lon": 26.1154318
  },
  {
    "type": "node",
    "id": 499470884,
    "lat": 52.1337276,
    "lon": 26.1142328
  },
  {
    "type": "node",
    "id": 499470890,
    "lat": 52.1338916,
    "lon": 26.1133504
  },
  {
    "type": "node",
    "id": 499471015,
    "lat": 52.1374325,
    "lon": 26.1086247
  },
  {
    "type": "node",
    "id": 503478654,
    "lat": 52.1305411,
    "lon": 26.1113652
  },
  {
    "type": "node",
    "id": 504520327,
    "lat": 52.1408571,
    "lon": 26.1165940
  },
  {
    "type": "node",
    "id": 504520523,
    "lat": 52.1413660,
    "lon": 26.1168306
  },
  {
    "type": "node",
    "id": 504520829,
    "lat": 52.1337359,
    "lon": 26.1145469
  },
  {
    "type": "node",
    "id": 507375999,
    "lat": 52.1284962,
    "lon": 26.1178501
  },
  {
    "type": "node",
    "id": 507376005,
    "lat": 52.1297788,
    "lon": 26.1167554
  },
  {
    "type": "node",
    "id": 507376013,
    "lat": 52.1300959,
    "lon": 26.1175679
  },
  {
    "type": "node",
    "id": 514770324,
    "lat": 52.1310072,
    "lon": 26.1161966
  },
  {
    "type": "node",
    "id": 514770327,
    "lat": 52.1310674,
    "lon": 26.1163609
  },
  {
    "type": "node",
    "id": 514770330,
    "lat": 52.1315282,
    "lon": 26.1166337
  },
  {
    "type": "node",
    "id": 514770333,
    "lat": 52.1317003,
    "lon": 26.1164825
  },
  {
    "type": "node",
    "id": 514770336,
    "lat": 52.1319705,
    "lon": 26.1165261
  },
  {
    "type": "node",
    "id": 514770429,
    "lat": 52.1360687,
    "lon": 26.1143551
  },
  {
    "type": "node",
    "id": 514770431,
    "lat": 52.1362489,
    "lon": 26.1136235
  },
  {
    "type": "node",
    "id": 514770493,
    "lat": 52.1316917,
    "lon": 26.1174898
  },
  {
    "type": "node",
    "id": 514770508,
    "lat": 52.1321062,
    "lon": 26.1185807
  },
  {
    "type": "node",
    "id": 514770515,
    "lat": 52.1322293,
    "lon": 26.1189511,
    "tags": {
      "noexit": "yes"
    }
  },
  {
    "type": "node",
    "id": 533830793,
    "lat": 52.1320765,
    "lon": 26.1251988
  },
  {
    "type": "node",
    "id": 925134412,
    "lat": 52.1284114,
    "lon": 26.1206691
  },
  {
    "type": "node",
    "id": 925134447,
    "lat": 52.1378311,
    "lon": 26.1112834
  },
  {
    "type": "node",
    "id": 925134566,
    "lat": 52.1379918,
    "lon": 26.1129599,
    "tags": {
      "bench": "yes",
      "bin": "yes",
      "bus": "yes",
      "departures_board": "timetable",
      "highway": "bus_stop",
      "lit": "yes",
      "name": "Педагагічны каледж",
      "name:be": "Педагагічны каледж",
      "name:ru": "Педагогический колледж",
      "name:uk": "Педагогічний коледж",
      "operator": "Пинский автобусный парк",
      "public_transport": "platform",
      "shelter": "yes",
      "tactile_paving": "no",
      "wheelchair": "yes"
    }
  },
  {
    "type": "node",
    "id": 925134679,
    "lat": 52.1291912,
    "lon": 26.1198939
  },
  {
    "type": "node",
    "id": 1277038427,
    "lat": 52.1231846,
    "lon": 26.1180845,
    "tags": {
      "traffic_calming": "bump"
    }
  },
  {
    "type": "node",
    "id": 1278080790,
    "lat": 52.1334032,
    "lon": 26.1132461,
    "tags": {
      "bench": "yes",
      "bin": "yes",
      "bus": "yes",
      "check_date": "2023-10-10",
      "departures_board": "timetable",
      "highway": "bus_stop",
      "lit": "yes",
      "name": "Медыцынскі каледж",
      "name:be": "Медыцынскі каледж",
      "name:ru": "Медицинский колледж",
      "name:uk": "Медичний коледж",
      "operator": "ОАО \"Пинский автобусный парк\"",
      "public_transport": "platform",
      "shelter": "yes",
      "surface": "paved",
      "survey:date": "2023-10-10",
      "tactile_paving": "no",
      "wheelchair": "yes"
    }
  },
  {
    "type": "node",
    "id": 1278080833,
    "lat": 52.1338731,
    "lon": 26.1135197
  },
  {
    "type": "node",
    "id": 1320695089,
    "lat": 52.1382979,
    "lon": 26.1174325,
    "tags": {
      "traffic_calming": "bump"
    }
  },
  {
    "type": "node",
    "id": 1320695092,
    "lat": 52.1383500,
    "lon": 26.1180019,
    "tags": {
      "crossing": "uncontrolled",
      "highway": "crossing",
      "traffic_calming": "bump"
    }
  },
  {
    "type": "node",
    "id": 1781261977,
    "lat": 52.1243454,
    "lon": 26.1140352
  },
  {
    "type": "node",
    "id": 1781261985,
    "lat": 52.1245017,
    "lon": 26.1140844
  },
  {
    "type": "node",
    "id": 1781261987,
    "lat": 52.1245343,
    "lon": 26.1139502
  },
  {
    "type": "node",
    "id": 1781262003,
    "lat": 52.1245505,
    "lon": 26.1141771
  },
  {
    "type": "node",
    "id": 1781262008,
    "lat": 52.1246222,
    "lon": 26.1142278
  },
  {
    "type": "node",
    "id": 1781262011,
    "lat": 52.1246590,
    "lon": 26.1137901
  },
  {
    "type": "node",
    "id": 1781262015,
    "lat": 52.1247016,
    "lon": 26.1119066
  },
  {
    "type": "node",
    "id": 1781262022,
    "lat": 52.1247485,
    "lon": 26.1140535
  },
  {
    "type": "node",
    "id": 1781262034,
    "lat": 52.1248094,
    "lon": 26.1121059
  },
  {
    "type": "node",
    "id": 1781262036,
    "lat": 52.1249050,
    "lon": 26.1122838
  },
  {
    "type": "node",
    "id": 1781262038,
    "lat": 52.1250139,
    "lon": 26.1124759
  },
  {
    "type": "node",
    "id": 1781262051,
    "lat": 52.1252326,
    "lon": 26.1129558
  },
  {
    "type": "node",
    "id": 1781262077,
    "lat": 52.1257301,
    "lon": 26.1141155
  },
  {
    "type": "node",
    "id": 2417171835,
    "lat": 52.1302585,
    "lon": 26.1168532
  },
  {
    "type": "node",
    "id": 2417171836,
    "lat": 52.1311431,
    "lon": 26.1172897
  },
  {
    "type": "node",
    "id": 2417171842,
    "lat": 52.1312182,
    "lon": 26.1172384
  },
  {
    "type": "node",
    "id": 2417171845,
    "lat": 52.1316251,
    "lon": 26.1175504
  },
  {
    "type": "node",
    "id": 2478230146,
    "lat": 52.1368280,
    "lon": 26.1147286
  },
  {
    "type": "node",
    "id": 2478230147,
    "lat": 52.1362049,
    "lon": 26.1184900
  },
  {
    "type": "node",
    "id": 2478230148,
    "lat": 52.1355353,
    "lon": 26.1181936
  },
  {
    "type": "node",
    "id": 2478230149,
    "lat": 52.1356838,
    "lon": 26.1141533
  },
  {
    "type": "node",
    "id": 2478230150,
    "lat": 52.1352081,
    "lon": 26.1171897
  },
  {
    "type": "node",
    "id": 2478230151,
    "lat": 52.1363438,
    "lon": 26.1177226
  },
  {
    "type": "node",
    "id": 2478265993,
    "lat": 52.1367933,
    "lon": 26.1148548
  },
  {
    "type": "node",
    "id": 2478280519,
    "lat": 52.1363173,
    "lon": 26.1186554
  },
  {
    "type": "node",
    "id": 2478280522,
    "lat": 52.1366646,
    "lon": 26.1183913
  },
  {
    "type": "node",
    "id": 2478280557,
    "lat": 52.1364356,
    "lon": 26.1189641
  },
  {
    "type": "node",
    "id": 2478280576,
    "lat": 52.1369369,
    "lon": 26.1190544
  },
  {
    "type": "node",
    "id": 2478280578,
    "lat": 52.1371125,
    "lon": 26.1194839
  },
  {
    "type": "node",
    "id": 2478280582,
    "lat": 52.1377776,
    "lon": 26.1187947
  },
  {
    "type": "node",
    "id": 2478280588,
    "lat": 52.1377521,
    "lon": 26.1181358
  },
  {
    "type": "node",
    "id": 2478280627,
    "lat": 52.1330467,
    "lon": 26.1131109
  },
  {
    "type": "node",
    "id": 2478280630,
    "lat": 52.1323982,
    "lon": 26.1166218
  },
  {
    "type": "node",
    "id": 2478280633,
    "lat": 52.1342360,
    "lon": 26.1215808,
    "tags": {
      "crossing": "unmarked",
      "crossing:markings": "no",
      "highway": "crossing"
    }
  },
  {
    "type": "node",
    "id": 2478280636,
    "lat": 52.1337698,
    "lon": 26.1203246
  },
  {
    "type": "node",
    "id": 2478280639,
    "lat": 52.1351359,
    "lon": 26.1189798
  },
  {
    "type": "node",
    "id": 2480211797,
    "lat": 52.1328641,
    "lon": 26.1141246
  },
  {
    "type": "node",
    "id": 2480212277,
    "lat": 52.1356561,
    "lon": 26.1143441
  },
  {
    "type": "node",
    "id": 2867719151,
    "lat": 52.1338503,
    "lon": 26.1151087
  },
  {
    "type": "node",
    "id": 3222255805,
    "lat": 52.1236089,
    "lon": 26.1184295
  },
  {
    "type": "node",
    "id": 3225270861,
    "lat": 52.1321537,
    "lon": 26.1133562
  },
  {
    "type": "node",
    "id": 3225282611,
    "lat": 52.1342451,
    "lon": 26.1220091
  },
  {
    "type": "node",
    "id": 3225282612,
    "lat": 52.1300230,
    "lon": 26.1194235
  },
  {
    "type": "node",
    "id": 3225282614,
    "lat": 52.1346385,
    "lon": 26.1229901,
    "tags": {
      "crossing": "uncontrolled",
      "highway": "crossing"
    }
  },
  {
    "type": "node",
    "id": 3225297816,
    "lat": 52.1306972,
    "lon": 26.1214338
  },
  {
    "type": "node",
    "id": 3225514861,
    "lat": 52.1353674,
    "lon": 26.1187709
  },
  {
    "type": "node",
    "id": 3225514862,
    "lat": 52.1353276,
    "lon": 26.1182711
  },
  {
    "type": "node",
    "id": 3225549005,
    "lat": 52.1293154,
    "lon": 26.1197891
  },
  {
    "type": "node",
    "id": 3226282365,
    "lat": 52.1322784,
    "lon": 26.1125499
  },
  {
    "type": "node",
    "id": 3226791905,
    "lat": 52.1313546,
    "lon": 26.1232125
  },
  {
    "type": "node",
    "id": 3255628926,
    "lat": 52.1253211,
    "lon": 26.1131928
  },
  {
    "type": "node",
    "id": 3289926408,
    "lat": 52.1323875,
    "lon": 26.1161206
  },
  {
    "type": "node",
    "id": 3289926416,
    "lat": 52.1332339,
    "lon": 26.1165221
  },
  {
    "type": "node",
    "id": 3294761147,
    "lat": 52.1350375,
    "lon": 26.1138767
  },
  {
    "type": "node",
    "id": 3294761153,
    "lat": 52.1351936,
    "lon": 26.1130970
  },
  {
    "type": "node",
    "id": 3294765535,
    "lat": 52.1241519,
    "lon": 26.1195619
  },
  {
    "type": "node",
    "id": 3296886955,
    "lat": 52.1282722,
    "lon": 26.1173225
  },
  {
    "type": "node",
    "id": 3296886958,
    "lat": 52.1288245,
    "lon": 26.1166880
  },
  {
    "type": "node",
    "id": 3296886960,
    "lat": 52.1286284,
    "lon": 26.1168860
  },
  {
    "type": "node",
    "id": 3347927137,
    "lat": 52.1387345,
    "lon": 26.1156214
  },
  {
    "type": "node",
    "id": 3347927139,
    "lat": 52.1386970,
    "lon": 26.1178227
  },
  {
    "type": "node",
    "id": 3347927147,
    "lat": 52.1391908,
    "lon": 26.1185756
  },
  {
    "type": "node",
    "id": 3347927150,
    "lat": 52.1395985,
    "lon": 26.1160141
  },
  {
    "type": "node",
    "id": 3351223692,
    "lat": 52.1327512,
    "lon": 26.1163044
  },
  {
    "type": "node",
    "id": 3351230494,
    "lat": 52.1328982,
    "lon": 26.1155694
  },
  {
    "type": "node",
    "id": 3351230499,
    "lat": 52.1336814,
    "lon": 26.1159908
  },
  {
    "type": "node",
    "id": 3351230500,
    "lat": 52.1364450,
    "lon": 26.1145473,
    "tags": {
      "crossing": "marked",
      "crossing:island": "no",
      "crossing:markings": "yes",
      "highway": "crossing"
    }
  },
  {
    "type": "node",
    "id": 3351230501,
    "lat": 52.1364005,
    "lon": 26.1126754
  },
  {
    "type": "node",
    "id": 3351230502,
    "lat": 52.1366038,
    "lon": 26.1146186
  },
  {
    "type": "node",
    "id": 3612863702,
    "lat": 52.1338216,
    "lon": 26.1133159
  },
  {
    "type": "node",
    "id": 3686248349,
    "lat": 52.1265342,
    "lon": 26.1143200
  },
  {
    "type": "node",
    "id": 3710144894,
    "lat": 52.1293919,
    "lon": 26.1108574
  },
  {
    "type": "node",
    "id": 3710144903,
    "lat": 52.1299645,
    "lon": 26.1111057
  },
  {
    "type": "node",
    "id": 3843415795,
    "lat": 52.1273198,
    "lon": 26.1113489,
    "tags": {
      "crossing": "marked",
      "crossing:markings": "yes",
      "highway": "crossing"
    }
  },
  {
    "type": "node",
    "id": 3843415817,
    "lat": 52.1332663,
    "lon": 26.1194399,
    "tags": {
      "bicycle": "yes",
      "crossing": "uncontrolled",
      "crossing:island": "no",
      "highway": "crossing",
      "kerb": "flush",
      "supervised": "no",
      "tactile_paving": "no"
    }
  },
  {
    "type": "node",
    "id": 3899280842,
    "lat": 52.1240106,
    "lon": 26.1134683
  },
  {
    "type": "node",
    "id": 3899280852,
    "lat": 52.1244956,
    "lon": 26.1140246
  },
  {
    "type": "node",
    "id": 3899282022,
    "lat": 52.1261152,
    "lon": 26.1132871,
    "tags": {
      "bicycle": "yes",
      "button_operated": "no",
      "crossing": "uncontrolled",
      "crossing:island": "no",
      "highway": "crossing",
      "kerb": "flush",
      "supervised": "no",
      "tactile_paving": "yes",
      "traffic_signals:sound": "no"
    }
  },
  {
    "type": "node",
    "id": 3899282023,
    "lat": 52.1261257,
    "lon": 26.1135233,
    "tags": {
      "bicycle": "yes",
      "button_operated": "no",
      "crossing": "uncontrolled",
      "crossing:island": "no",
      "highway": "crossing",
      "kerb": "flush",
      "supervised": "no",
      "tactile_paving": "yes",
      "traffic_signals:sound": "no"
    }
  },
  {
    "type": "node",
    "id": 3899282025,
    "lat": 52.1263532,
    "lon": 26.1138480
  },
  {
    "type": "node",
    "id": 3927677192,
    "lat": 52.1324720,
    "lon": 26.1161660
  },
  {
    "type": "node",
    "id": 3927677194,
    "lat": 52.1340159,
    "lon": 26.1121905
  },
  {
    "type": "node",
    "id": 3927677195,
    "lat": 52.1354691,
    "lon": 26.1219945
  },
  {
    "type": "node",
    "id": 3955464892,
    "lat": 52.1224759,
    "lon": 26.1192071
  },
  {
    "type": "node",
    "id": 4018011623,
    "lat": 52.1380755,
    "lon": 26.1173115,
    "tags": {
      "noexit": "yes"
    }
  },
  {
    "type": "node",
    "id": 4018011625,
    "lat": 52.1381355,
    "lon": 26.1179910
  },
  {
    "type": "node",
    "id": 4018447654,
    "lat": 52.1285863,
    "lon": 26.1177979
  },
  {
    "type": "node",
    "id": 4018447661,
    "lat": 52.1288793,
    "lon": 26.1168656,
    "tags": {
      "entrance": "yes"
    }
  },
  {
    "type": "node",
    "id": 4018447667,
    "lat": 52.1289921,
    "lon": 26.1174819
  },
  {
    "type": "node",
    "id": 4018447747,
    "lat": 52.1304191,
    "lon": 26.1188472
  },
  {
    "type": "node",
    "id": 4018447759,
    "lat": 52.1306506,
    "lon": 26.1194623
  },
  {
    "type": "node",
    "id": 4018447760,
    "lat": 52.1319205,
    "lon": 26.1181623
  },
  {
    "type": "node",
    "id": 4018447777,
    "lat": 52.1331038,
    "lon": 26.1164634
  },
  {
    "type": "node",
    "id": 4018447778,
    "lat": 52.1331565,
    "lon": 26.1162544
  },
  {
    "type": "node",
    "id": 4018447781,
    "lat": 52.1336037,
    "lon": 26.1203562
  },
  {
    "type": "node",
    "id": 4018447783,
    "lat": 52.1336817,
    "lon": 26.1165240
  },
  {
    "type": "node",
    "id": 4018447797,
    "lat": 52.1347979,
    "lon": 26.1156053
  },
  {
    "type": "node",
    "id": 4018447799,
    "lat": 52.1353753,
    "lon": 26.1158969
  },
  {
    "type": "node",
    "id": 4018447800,
    "lat": 52.1354474,
    "lon": 26.1155520
  },
  {
    "type": "node",
    "id": 4018447802,
    "lat": 52.1357545,
    "lon": 26.1160237,
    "tags": {
      "noexit": "yes"
    }
  },
  {
    "type": "node",
    "id": 4018447803,
    "lat": 52.1357319,
    "lon": 26.1157403
  },
  {
    "type": "node",
    "id": 4018447804,
    "lat": 52.1358763,
    "lon": 26.1160693
  },
  {
    "type": "node",
    "id": 4018447805,
    "lat": 52.1358878,
    "lon": 26.1157823
  },
  {
    "type": "node",
    "id": 4018447806,
    "lat": 52.1359081,
    "lon": 26.1148803,
    "tags": {
      "noexit": "yes"
    }
  },
  {
    "type": "node",
    "id": 4018447807,
    "lat": 52.1359092,
    "lon": 26.1158896
  },
  {
    "type": "node",
    "id": 4018447808,
    "lat": 52.1360475,
    "lon": 26.1161417,
    "tags": {
      "noexit": "yes"
    }
  },
  {
    "type": "node",
    "id": 4177189467,
    "lat": 52.1373690,
    "lon": 26.1128825
  },
  {
    "type": "node",
    "id": 4177189477,
    "lat": 52.1375372,
    "lon": 26.1139977
  },
  {
    "type": "node",
    "id": 4177195587,
    "lat": 52.1365816,
    "lon": 26.1140482
  },
  {
    "type": "node",
    "id": 4177196089,
    "lat": 52.1367221,
    "lon": 26.1136733
  },
  {
    "type": "node",
    "id": 4177196090,
    "lat": 52.1367742,
    "lon": 26.1130778
  },
  {
    "type": "node",
    "id": 4177196103,
    "lat": 52.1371223,
    "lon": 26.1140862
  },
  {
    "type": "node",
    "id": 4177196193,
    "lat": 52.1378262,
    "lon": 26.1127537
  },
  {
    "type": "node",
    "id": 4179342567,
    "lat": 52.1315951,
    "lon": 26.1239123
  },
  {
    "type": "node",
    "id": 4179345200,
    "lat": 52.1276841,
    "lon": 26.1158368
  },
  {
    "type": "node",
    "id": 4179345211,
    "lat": 52.1287381,
    "lon": 26.1149908
  },
  {
    "type": "node",
    "id": 4179345229,
    "lat": 52.1293774,
    "lon": 26.1198006
  },
  {
    "type": "node",
    "id": 4179345489,
    "lat": 52.1338867,
    "lon": 26.1210853
  },
  {
    "type": "node",
    "id": 4179345506,
    "lat": 52.1384829,
    "lon": 26.1192361
  },
  {
    "type": "node",
    "id": 4186883021,
    "lat": 52.1223086,
    "lon": 26.1194389,
    "tags": {
      "bicycle": "yes",
      "crossing": "uncontrolled",
      "crossing:island": "no",
      "highway": "crossing",
      "kerb": "flush",
      "supervised": "no",
      "tactile_paving": "yes"
    }
  },
  {
    "type": "node",
    "id": 4188815095,
    "lat": 52.1274227,
    "lon": 26.1112679
  },
  {
    "type": "node",
    "id": 4188815102,
    "lat": 52.1275309,
    "lon": 26.1117351
  },
  {
    "type": "node",
    "id": 4189033703,
    "lat": 52.1255322,
    "lon": 26.1171699
  },
  {
    "type": "node",
    "id": 4189033801,
    "lat": 52.1284580,
    "lon": 26.1210689
  },
  {
    "type": "node",
    "id": 4189389345,
    "lat": 52.1305365,
    "lon": 26.1156359
  },
  {
    "type": "node",
    "id": 4189389353,
    "lat": 52.1307835,
    "lon": 26.1152255
  },
  {
    "type": "node",
    "id": 4189389368,
    "lat": 52.1309761,
    "lon": 26.1149439
  },
  {
    "type": "node",
    "id": 4189389382,
    "lat": 52.1312252,
    "lon": 26.1147617
  },
  {
    "type": "node",
    "id": 4189389390,
    "lat": 52.1315863,
    "lon": 26.1126677
  },
  {
    "type": "node",
    "id": 4189633739,
    "lat": 52.1416293,
    "lon": 26.1169548
  },
  {
    "type": "node",
    "id": 4189633740,
    "lat": 52.1416946,
    "lon": 26.1167778
  },
  {
    "type": "node",
    "id": 4191582497,
    "lat": 52.1415838,
    "lon": 26.1169490,
    "tags": {
      "highway": "crossing"
    }
  },
  {
    "type": "node",
    "id": 4193479030,
    "lat": 52.1291025,
    "lon": 26.1170911
  },
  {
    "type": "node",
    "id": 4193479031,
    "lat": 52.1291058,
    "lon": 26.1169312
  },
  {
    "type": "node",
    "id": 4193479032,
    "lat": 52.1290999,
    "lon": 26.1173807
  },
  {
    "type": "node",
    "id": 4193479035,
    "lat": 52.1293540,
    "lon": 26.1166422
  },
  {
    "type": "node",
    "id": 4193479037,
    "lat": 52.1294980,
    "lon": 26.1169318
  },
  {
    "type": "node",
    "id": 4193479049,
    "lat": 52.1321536,
    "lon": 26.1253958
  },
  {
    "type": "node",
    "id": 4193479076,
    "lat": 52.1346973,
    "lon": 26.1134210
  },
  {
    "type": "node",
    "id": 4193479079,
    "lat": 52.1350936,
    "lon": 26.1135967
  },
  {
    "type": "node",
    "id": 4193480427,
    "lat": 52.1367453,
    "lon": 26.1179929
  },
  {
    "type": "node",
    "id": 4193480429,
    "lat": 52.1368219,
    "lon": 26.1186097
  },
  {
    "type": "node",
    "id": 4193480432,
    "lat": 52.1368599,
    "lon": 26.1181495
  },
  {
    "type": "node",
    "id": 4193480435,
    "lat": 52.1369231,
    "lon": 26.1182195
  },
  {
    "type": "node",
    "id": 4193480439,
    "lat": 52.1374187,
    "lon": 26.1184716,
    "tags": {
      "noexit": "yes"
    }
  },
  {
    "type": "node",
    "id": 4198271692,
    "lat": 52.1295195,
    "lon": 26.1197350
  },
  {
    "type": "node",
    "id": 4198271695,
    "lat": 52.1296695,
    "lon": 26.1195892
  },
  {
    "type": "node",
    "id": 4199298902,
    "lat": 52.1241036,
    "lon": 26.1145897
  },
  {
    "type": "node",
    "id": 4199298917,
    "lat": 52.1242501,
    "lon": 26.1149303
  },
  {
    "type": "node",
    "id": 4199298918,
    "lat": 52.1242814,
    "lon": 26.1143376
  },
  {
    "type": "node",
    "id": 4199298919,
    "lat": 52.1242982,
    "lon": 26.1148692
  },
  {
    "type": "node",
    "id": 4199298930,
    "lat": 52.1244554,
    "lon": 26.1146688
  },
  {
    "type": "node",
    "id": 4199298956,
    "lat": 52.1247303,
    "lon": 26.1144081
  },
  {
    "type": "node",
    "id": 4199299208,
    "lat": 52.1251113,
    "lon": 26.1150668,
    "tags": {
      "crossing": "uncontrolled",
      "highway": "crossing",
      "kerb": "yes",
      "supervised": "no",
      "tactile_paving": "yes"
    }
  },
  {
    "type": "node",
    "id": 4199299236,
    "lat": 52.1254034,
    "lon": 26.1133871
  },
  {
    "type": "node",
    "id": 4199868766,
    "lat": 52.1387155,
    "lon": 26.1157636
  },
  {
    "type": "node",
    "id": 4202875039,
    "lat": 52.1340076,
    "lon": 26.1169869
  },
  {
    "type": "node",
    "id": 4202875041,
    "lat": 52.1341294,
    "lon": 26.1162010
  },
  {
    "type": "node",
    "id": 4202875051,
    "lat": 52.1346349,
    "lon": 26.1175689,
    "tags": {
      "noexit": "yes"
    }
  },
  {
    "type": "node",
    "id": 4202875052,
    "lat": 52.1346843,
    "lon": 26.1173114
  },
  {
    "type": "node",
    "id": 4211201047,
    "lat": 52.1244335,
    "lon": 26.1170631
  },
  {
    "type": "node",
    "id": 4211201052,
    "lat": 52.1245387,
    "lon": 26.1159947
  },
  {
    "type": "node",
    "id": 4211201057,
    "lat": 52.1248592,
    "lon": 26.1165744
  },
  {
    "type": "node",
    "id": 4222297131,
    "lat": 52.1279541,
    "lon": 26.1165203
  },
  {
    "type": "node",
    "id": 4222297141,
    "lat": 52.1287909,
    "lon": 26.1185886
  },
  {
    "type": "node",
    "id": 4222297144,
    "lat": 52.1284290,
    "lon": 26.1160477,
    "tags": {
      "barrier": "gate"
    }
  },
  {
    "type": "node",
    "id": 4222297163,
    "lat": 52.1303111,
    "lon": 26.1172746
  },
  {
    "type": "node",
    "id": 4222297164,
    "lat": 52.1303661,
    "lon": 26.1169583
  },
  {
    "type": "node",
    "id": 4222297165,
    "lat": 52.1305642,
    "lon": 26.1177278
  },
  {
    "type": "node",
    "id": 4222297166,
    "lat": 52.1307508,
    "lon": 26.1182061,
    "tags": {
      "access": "destination",
      "barrier": "gate",
      "bicycle": "destination",
      "carriage": "destination",
      "foot": "yes",
      "material": "metal",
      "mofa": "yes",
      "moped": "yes",
      "motorcar": "yes",
      "motorcycle": "yes",
      "vehicle": "destination",
      "wheelchair": "yes"
    }
  },
  {
    "type": "node",
    "id": 4222297167,
    "lat": 52.1308349,
    "lon": 26.1184096
  },
  {
    "type": "node",
    "id": 4222297168,
    "lat": 52.1311518,
    "lon": 26.1177374
  },
  {
    "type": "node",
    "id": 4222297172,
    "lat": 52.1312869,
    "lon": 26.1179188
  },
  {
    "type": "node",
    "id": 4222297178,
    "lat": 52.1318710,
    "lon": 26.1159967
  },
  {
    "type": "node",
    "id": 4222297179,
    "lat": 52.1319075,
    "lon": 26.1157636
  },
  {
    "type": "node",
    "id": 4223660315,
    "lat": 52.1288864,
    "lon": 26.1155649
  },
  {
    "type": "node",
    "id": 4259907604,
    "lat": 52.1246901,
    "lon": 26.1162807
  },
  {
    "type": "node",
    "id": 4259907605,
    "lat": 52.1248108,
    "lon": 26.1161325
  },
  {
    "type": "node",
    "id": 4259907610,
    "lat": 52.1250281,
    "lon": 26.1164409,
    "tags": {
      "noexit": "yes"
    }
  },
  {
    "type": "node",
    "id": 4260355487,
    "lat": 52.1270889,
    "lon": 26.1115398
  },
  {
    "type": "node",
    "id": 4264226971,
    "lat": 52.1298664,
    "lon": 26.1119815
  },
  {
    "type": "node",
    "id": 4264226993,
    "lat": 52.1302359,
    "lon": 26.1112132
  },
  {
    "type": "node",
    "id": 4548049392,
    "lat": 52.1384460,
    "lon": 26.1152704
  },
  {
    "type": "node",
    "id": 4548049792,
    "lat": 52.1231858,
    "lon": 26.1179116
  },
  {
    "type": "node",
    "id": 4548049798,
    "lat": 52.1253367,
    "lon": 26.1116678
  },
  {
    "type": "node",
    "id": 4548049808,
    "lat": 52.1347091,
    "lon": 26.1228806
  },
  {
    "type": "node",
    "id": 4548049810,
    "lat": 52.1341403,
    "lon": 26.1221154
  },
  {
    "type": "node",
    "id": 4548049811,
    "lat": 52.1337906,
    "lon": 26.1212154
  },
  {
    "type": "node",
    "id": 4548049814,
    "lat": 52.1333936,
    "lon": 26.1193284
  },
  {
    "type": "node",
    "id": 4548049815,
    "lat": 52.1337242,
    "lon": 26.1202318
  },
  {
    "type": "node",
    "id": 4548049820,
    "lat": 52.1361676,
    "lon": 26.1215060
  },
  {
    "type": "node",
    "id": 4548049971,
    "lat": 52.1245746,
    "lon": 26.1160723
  },
  {
    "type": "node",
    "id": 4548049972,
    "lat": 52.1252329,
    "lon": 26.1150611
  },
  {
    "type": "node",
    "id": 4548049973,
    "lat": 52.1251533,
    "lon": 26.1151434
  },
  {
    "type": "node",
    "id": 4548049974,
    "lat": 52.1250373,
    "lon": 26.1149290
  },
  {
    "type": "node",
    "id": 4548049981,
    "lat": 52.1233382,
    "lon": 26.1179776
  },
  {
    "type": "node",
    "id": 4548049983,
    "lat": 52.1232396,
    "lon": 26.1180013,
    "tags": {
      "crossing": "marked",
      "crossing:markings": "yes",
      "highway": "crossing"
    }
  },
  {
    "type": "node",
    "id": 4548049984,
    "lat": 52.1224304,
    "lon": 26.1191322
  },
  {
    "type": "node",
    "id": 4548049985,
    "lat": 52.1232561,
    "lon": 26.1178356
  },
  {
    "type": "node",
    "id": 4548049986,
    "lat": 52.1242708,
    "lon": 26.1162672
  },
  {
    "type": "node",
    "id": 4548049998,
    "lat": 52.1261745,
    "lon": 26.1136000
  },
  {
    "type": "node",
    "id": 4548049999,
    "lat": 52.1260543,
    "lon": 26.1133970
  },
  {
    "type": "node",
    "id": 4548050000,
    "lat": 52.1261814,
    "lon": 26.1132012
  },
  {
    "type": "node",
    "id": 4548050001,
    "lat": 52.1254360,
    "lon": 26.1119535
  },
  {
    "type": "node",
    "id": 4548050004,
    "lat": 52.1263993,
    "lon": 26.1123087
  },
  {
    "type": "node",
    "id": 4548050079,
    "lat": 52.1394922,
    "lon": 26.1161033
  },
  {
    "type": "node",
    "id": 4548050083,
    "lat": 52.1416119,
    "lon": 26.1167545
  },
  {
    "type": "node",
    "id": 4548050084,
    "lat": 52.1408476,
    "lon": 26.1163771
  },
  {
    "type": "node",
    "id": 4548050085,
    "lat": 52.1396277,
    "lon": 26.1158092
  },
  {
    "type": "node",
    "id": 4548050086,
    "lat": 52.1382248,
    "lon": 26.1175786
  },
  {
    "type": "node",
    "id": 4548050091,
    "lat": 52.1383391,
    "lon": 26.1178956
  },
  {
    "type": "node",
    "id": 4548050092,
    "lat": 52.1385402,
    "lon": 26.1179259
  },
  {
    "type": "node",
    "id": 4548050093,
    "lat": 52.1382344,
    "lon": 26.1179550
  },
  {
    "type": "node",
    "id": 4548050094,
    "lat": 52.1383478,
    "lon": 26.1194710
  },
  {
    "type": "node",
    "id": 4548050095,
    "lat": 52.1387138,
    "lon": 26.1195599
  },
  {
    "type": "node",
    "id": 4548050096,
    "lat": 52.1383371,
    "lon": 26.1155999
  },
  {
    "type": "node",
    "id": 4548050097,
    "lat": 52.1385341,
    "lon": 26.1178592
  },
  {
    "type": "node",
    "id": 4548050125,
    "lat": 52.1338488,
    "lon": 26.1131607
  },
  {
    "type": "node",
    "id": 4548050126,
    "lat": 52.1350681,
    "lon": 26.1137393
  },
  {
    "type": "node",
    "id": 4548050127,
    "lat": 52.1360900,
    "lon": 26.1141959
  },
  {
    "type": "node",
    "id": 4548050128,
    "lat": 52.1364556,
    "lon": 26.1143777
  },
  {
    "type": "node",
    "id": 4548050129,
    "lat": 52.1366175,
    "lon": 26.1143937
  },
  {
    "type": "node",
    "id": 4548050130,
    "lat": 52.1377356,
    "lon": 26.1149443
  },
  {
    "type": "node",
    "id": 4548050132,
    "lat": 52.1376190,
    "lon": 26.1128094
  },
  {
    "type": "node",
    "id": 4548050143,
    "lat": 52.1378351,
    "lon": 26.1149814
  },
  {
    "type": "node",
    "id": 4548050144,
    "lat": 52.1382107,
    "lon": 26.1151481
  },
  {
    "type": "node",
    "id": 4604280431,
    "lat": 52.1382792,
    "lon": 26.1185889,
    "tags": {
      "bench": "yes",
      "bin": "yes",
      "bus": "yes",
      "check_date": "2023-09-23",
      "covered": "yes",
      "departures_board": "timetable",
      "highway": "bus_stop",
      "name": "Сярэдняя школа №8",
      "name:be": "Сярэдняя школа №8",
      "name:ru": "Средняя школа №8",
      "name:uk": "Середня школа №8",
      "public_transport": "platform",
      "shelter": "yes",
      "surface": "asphalt",
      "survey:date": "2023-09-23",
      "tactile_paving": "no",
      "wheelchair": "yes"
    }
  },
  {
    "type": "node",
    "id": 5401424617,
    "lat": 52.1346692,
    "lon": 26.1135442
  },
  {
    "type": "node",
    "id": 6676033125,
    "lat": 52.1314624,
    "lon": 26.1136118
  },
  {
    "type": "node",
    "id": 6676033127,
    "lat": 52.1314191,
    "lon": 26.1148670
  },
  {
    "type": "node",
    "id": 6676033129,
    "lat": 52.1320234,
    "lon": 26.1151677
  },
  {
    "type": "node",
    "id": 6676033131,
    "lat": 52.1317706,
    "lon": 26.1150413
  },
  {
    "type": "node",
    "id": 7681187562,
    "lat": 52.1247511,
    "lon": 26.1120097
  },
  {
    "type": "node",
    "id": 7681187563,
    "lat": 52.1251642,
    "lon": 26.1113678
  },
  {
    "type": "node",
    "id": 7681187570,
    "lat": 52.1243087,
    "lon": 26.1161864
  },
  {
    "type": "node",
    "id": 7681187577,
    "lat": 52.1242361,
    "lon": 26.1163209
  },
  {
    "type": "node",
    "id": 8421702361,
    "lat": 52.1349852,
    "lon": 26.1138507
  },
  {
    "type": "node",
    "id": 8421702363,
    "lat": 52.1348794,
    "lon": 26.1144632,
    "tags": {
      "barrier": "gate"
    }
  },
  {
    "type": "node",
    "id": 8421702364,
    "lat": 52.1347258,
    "lon": 26.1152709
  },
  {
    "type": "node",
    "id": 8780799317,
    "lat": 52.1310200,
    "lon": 26.1180972,
    "tags": {
      "bench": "yes",
      "bin": "yes",
      "bus": "yes",
      "departures_board": "timetable",
      "description": "\"Автобусная остановка. Номера автобусов 2, 12, 12А, 29, 32.\" POI name: Ул. Студенческая POI types: highway-bus_stop OSM data version: 2020-09-19T23:20:21Z #mapsme",
      "highway": "bus_stop",
      "lit": "yes",
      "name": "вуліца Студэнцкая",
      "name:be": "вуліца Студэнцкая",
      "name:ru": "улица Студенческая",
      "name:uk": "Вулиця Студентська",
      "operator": "Пінскі аўтобусны парк",
      "public_transport": "platform",
      "shelter": "yes",
      "source": "local knowledge",
      "tactile_paving": "no",
      "wheelchair": "yes"
    }
  },
  {
    "type": "node",
    "id": 8943765331,
    "lat": 52.1371412,
    "lon": 26.1078814
  },
  {
    "type": "node",
    "id": 8943765342,
    "lat": 52.1373395,
    "lon": 26.1078302,
    "tags": {
      "bicycle": "yes",
      "button_operated": "no",
      "crossing": "traffic_signals",
      "crossing:island": "no",
      "highway": "crossing",
      "kerb": "flush",
      "supervised": "no",
      "tactile_paving": "no",
      "traffic_signals:sound": "no"
    }
  },
  {
    "type": "node",
    "id": 8943765356,
    "lat": 52.1381432,
    "lon": 26.1151347
  },
  {
    "type": "node",
    "id": 8972353153,
    "lat": 52.1308051,
    "lon": 26.1115630
  },
  {
    "type": "node",
    "id": 8972353165,
    "lat": 52.1328795,
    "lon": 26.1130554
  },
  {
    "type": "node",
    "id": 8972353170,
    "lat": 52.1329457,
    "lon": 26.1130729,
    "tags": {
      "bicycle": "yes",
      "crossing": "traffic_signals",
      "highway": "crossing",
      "kerb": "yes",
      "supervised": "no",
      "tactile_paving": "no"
    }
  },
  {
    "type": "node",
    "id": 8972353171,
    "lat": 52.1322474,
    "lon": 26.1127366,
    "tags": {
      "crossing": "uncontrolled",
      "highway": "crossing"
    }
  },
  {
    "type": "node",
    "id": 8972353183,
    "lat": 52.1318176,
    "lon": 26.1123129,
    "tags": {
      "crossing": "marked",
      "crossing:markings": "yes",
      "highway": "crossing"
    }
  },
  {
    "type": "node",
    "id": 8972353184,
    "lat": 52.1316360,
    "lon": 26.1124081,
    "tags": {
      "bicycle": "yes",
      "crossing": "uncontrolled",
      "highway": "crossing",
      "kerb": "flush",
      "supervised": "no",
      "tactile_paving": "yes"
    }
  },
  {
    "type": "node",
    "id": 8985364149,
    "lat": 52.1373893,
    "lon": 26.1105762,
    "tags": {
      "highway": "crossing"
    }
  },
  {
    "type": "node",
    "id": 8985364150,
    "lat": 52.1375634,
    "lon": 26.1122631
  },
  {
    "type": "node",
    "id": 8985364160,
    "lat": 52.1367220,
    "lon": 26.1134499
  },
  {
    "type": "node",
    "id": 8985364173,
    "lat": 52.1376081,
    "lon": 26.1105035
  },
  {
    "type": "node",
    "id": 8985364189,
    "lat": 52.1362407,
    "lon": 26.1125632
  },
  {
    "type": "node",
    "id": 8985364256,
    "lat": 52.1376896,
    "lon": 26.1113321,
    "tags": {
      "crossing": "marked",
      "crossing:markings": "yes",
      "highway": "crossing"
    }
  },
  {
    "type": "node",
    "id": 8985364271,
    "lat": 52.1379643,
    "lon": 26.1150380
  },
  {
    "type": "node",
    "id": 8985364273,
    "lat": 52.1380185,
    "lon": 26.1154682
  },
  {
    "type": "node",
    "id": 8985364275,
    "lat": 52.1382323,
    "lon": 26.1153027
  },
  {
    "type": "node",
    "id": 8985364283,
    "lat": 52.1369872,
    "lon": 26.1149818,
    "tags": {
      "bench": "yes",
      "bin": "yes",
      "bus": "yes",
      "check_date": "2023-09-23",
      "departures_board": "timetable",
      "highway": "bus_stop",
      "name": "Навучальная база",
      "name:be": "Навучальная база",
      "name:ru": "Учебная база",
      "operator": "ОАО \"Пинский автобусный парк\"",
      "public_transport": "platform",
      "shelter": "yes",
      "surface": "asphalt",
      "survey:date": "2023-09-23",
      "tactile_paving": "yes"
    }
  },
  {
    "type": "node",
    "id": 8985364300,
    "lat": 52.1382116,
    "lon": 26.1155509
  },
  {
    "type": "node",
    "id": 8985364303,
    "lat": 52.1382495,
    "lon": 26.1178210
  },
  {
    "type": "node",
    "id": 8985364323,
    "lat": 52.1395514,
    "lon": 26.1157799
  },
  {
    "type": "node",
    "id": 8985448233,
    "lat": 52.1357331,
    "lon": 26.1140361
  },
  {
    "type": "node",
    "id": 8985448259,
    "lat": 52.1364346,
    "lon": 26.1146256,
    "tags": {
      "barrier": "kerb",
      "kerb": "raised"
    }
  },
  {
    "type": "node",
    "id": 8985448260,
    "lat": 52.1364166,
    "lon": 26.1147635
  },
  {
    "type": "node",
    "id": 8985448261,
    "lat": 52.1367597,
    "lon": 26.1148980
  },
  {
    "type": "node",
    "id": 8985448262,
    "lat": 52.1334006,
    "lon": 26.1132724
  },
  {
    "type": "node",
    "id": 8985448267,
    "lat": 52.1328751,
    "lon": 26.1128454,
    "tags": {
      "bicycle": "yes",
      "crossing": "traffic_signals",
      "highway": "crossing",
      "kerb": "yes",
      "supervised": "no",
      "tactile_paving": "no"
    }
  },
  {
    "type": "node",
    "id": 8985448272,
    "lat": 52.1330733,
    "lon": 26.1129543,
    "tags": {
      "bicycle": "yes",
      "crossing": "traffic_signals",
      "highway": "crossing",
      "kerb": "yes",
      "supervised": "no",
      "tactile_paving": "no"
    }
  },
  {
    "type": "node",
    "id": 8985450258,
    "lat": 52.1322433,
    "lon": 26.1139969
  },
  {
    "type": "node",
    "id": 8985450259,
    "lat": 52.1319646,
    "lon": 26.1138596
  },
  {
    "type": "node",
    "id": 8985450264,
    "lat": 52.1315705,
    "lon": 26.1130391
  },
  {
    "type": "node",
    "id": 8985450265,
    "lat": 52.1327591,
    "lon": 26.1136666
  },
  {
    "type": "node",
    "id": 8985450266,
    "lat": 52.1327078,
    "lon": 26.1136378
  },
  {
    "type": "node",
    "id": 8985450267,
    "lat": 52.1323444,
    "lon": 26.1140146
  },
  {
    "type": "node",
    "id": 8985450268,
    "lat": 52.1321941,
    "lon": 26.1142300
  },
  {
    "type": "node",
    "id": 8985450275,
    "lat": 52.1327401,
    "lon": 26.1136559
  },
  {
    "type": "node",
    "id": 8985450282,
    "lat": 52.1324454,
    "lon": 26.1134907
  },
  {
    "type": "node",
    "id": 8985450283,
    "lat": 52.1318481,
    "lon": 26.1131984
  },
  {
    "type": "node",
    "id": 8985450284,
    "lat": 52.1317541,
    "lon": 26.1137556
  },
  {
    "type": "node",
    "id": 8985450285,
    "lat": 52.1318264,
    "lon": 26.1137913
  },
  {
    "type": "node",
    "id": 8985450286,
    "lat": 52.1319028,
    "lon": 26.1142358
  },
  {
    "type": "node",
    "id": 8985450287,
    "lat": 52.1318517,
    "lon": 26.1145470
  },
  {
    "type": "node",
    "id": 8985450288,
    "lat": 52.1316069,
    "lon": 26.1130626,
    "tags": {
      "barrier": "gate"
    }
  },
  {
    "type": "node",
    "id": 8985450289,
    "lat": 52.1314964,
    "lon": 26.1136285,
    "tags": {
      "barrier": "gate"
    }
  },
  {
    "type": "node",
    "id": 8985450291,
    "lat": 52.1324136,
    "lon": 26.1155968
  },
  {
    "type": "node",
    "id": 8985450292,
    "lat": 52.1322422,
    "lon": 26.1166564
  },
  {
    "type": "node",
    "id": 8985450293,
    "lat": 52.1321577,
    "lon": 26.1168686
  },
  {
    "type": "node",
    "id": 8985450294,
    "lat": 52.1315851,
    "lon": 26.1174240
  },
  {
    "type": "node",
    "id": 8985450295,
    "lat": 52.1324427,
    "lon": 26.1154071,
    "tags": {
      "highway": "crossing"
    }
  },
  {
    "type": "node",
    "id": 8985450296,
    "lat": 52.1311336,
    "lon": 26.1179066
  },
  {
    "type": "node",
    "id": 8985450297,
    "lat": 52.1307779,
    "lon": 26.1182784
  },
  {
    "type": "node",
    "id": 8985450298,
    "lat": 52.1303531,
    "lon": 26.1187386
  },
  {
    "type": "node",
    "id": 8985450302,
    "lat": 52.1315567,
    "lon": 26.1178630
  },
  {
    "type": "node",
    "id": 8985450303,
    "lat": 52.1317462,
    "lon": 26.1176749,
    "tags": {
      "highway": "crossing"
    }
  },
  {
    "type": "node",
    "id": 8985450304,
    "lat": 52.1322778,
    "lon": 26.1171204
  },
  {
    "type": "node",
    "id": 8985486989,
    "lat": 52.1359903,
    "lon": 26.1134660
  },
  {
    "type": "node",
    "id": 8985486990,
    "lat": 52.1361057,
    "lon": 26.1134492
  },
  {
    "type": "node",
    "id": 8985486991,
    "lat": 52.1361059,
    "lon": 26.1134784
  },
  {
    "type": "node",
    "id": 8985486992,
    "lat": 52.1364275,
    "lon": 26.1137909
  },
  {
    "type": "node",
    "id": 8985486993,
    "lat": 52.1359956,
    "lon": 26.1132308
  },
  {
    "type": "node",
    "id": 8985486994,
    "lat": 52.1361628,
    "lon": 26.1133380
  },
  {
    "type": "node",
    "id": 8985486995,
    "lat": 52.1363786,
    "lon": 26.1134049
  },
  {
    "type": "node",
    "id": 8985486996,
    "lat": 52.1365076,
    "lon": 26.1134691
  },
  {
    "type": "node",
    "id": 8985486997,
    "lat": 52.1363483,
    "lon": 26.1131542
  },
  {
    "type": "node",
    "id": 8985486998,
    "lat": 52.1365371,
    "lon": 26.1137111
  },
  {
    "type": "node",
    "id": 8985486999,
    "lat": 52.1364463,
    "lon": 26.1137205
  },
  {
    "type": "node",
    "id": 8985487000,
    "lat": 52.1364270,
    "lon": 26.1129562
  },
  {
    "type": "node",
    "id": 8985487004,
    "lat": 52.1359987,
    "lon": 26.1128932
  },
  {
    "type": "node",
    "id": 8985487005,
    "lat": 52.1360302,
    "lon": 26.1129384
  },
  {
    "type": "node",
    "id": 8985487006,
    "lat": 52.1360168,
    "lon": 26.1130521
  },
  {
    "type": "node",
    "id": 8985487008,
    "lat": 52.1359429,
    "lon": 26.1138725
  },
  {
    "type": "node",
    "id": 8985487009,
    "lat": 52.1361674,
    "lon": 26.1139171
  },
  {
    "type": "node",
    "id": 8985487011,
    "lat": 52.1360561,
    "lon": 26.1139208
  },
  {
    "type": "node",
    "id": 8985487013,
    "lat": 52.1364605,
    "lon": 26.1134866,
    "tags": {
      "barrier": "gate"
    }
  },
  {
    "type": "node",
    "id": 8985487014,
    "lat": 52.1364824,
    "lon": 26.1137064,
    "tags": {
      "barrier": "gate"
    }
  },
  {
    "type": "node",
    "id": 8985487015,
    "lat": 52.1361371,
    "lon": 26.1140372,
    "tags": {
      "barrier": "gate"
    }
  },
  {
    "type": "node",
    "id": 8985515124,
    "lat": 52.1355727,
    "lon": 26.1148278
  },
  {
    "type": "node",
    "id": 8985515125,
    "lat": 52.1355231,
    "lon": 26.1148895
  },
  {
    "type": "node",
    "id": 8985515126,
    "lat": 52.1354836,
    "lon": 26.1149110
  },
  {
    "type": "node",
    "id": 8985515127,
    "lat": 52.1354375,
    "lon": 26.1149110
  },
  {
    "type": "node",
    "id": 8985515128,
    "lat": 52.1353947,
    "lon": 26.1148788
  },
  {
    "type": "node",
    "id": 8985515129,
    "lat": 52.1353766,
    "lon": 26.1148251
  },
  {
    "type": "node",
    "id": 8985515130,
    "lat": 52.1353684,
    "lon": 26.1147366
  },
  {
    "type": "node",
    "id": 8985515131,
    "lat": 52.1353552,
    "lon": 26.1146722
  },
  {
    "type": "node",
    "id": 8985515132,
    "lat": 52.1354222,
    "lon": 26.1160608
  },
  {
    "type": "node",
    "id": 8985515133,
    "lat": 52.1354140,
    "lon": 26.1148933
  },
  {
    "type": "node",
    "id": 8985515134,
    "lat": 52.1353750,
    "lon": 26.1149378
  },
  {
    "type": "node",
    "id": 8985515135,
    "lat": 52.1354293,
    "lon": 26.1149673
  },
  {
    "type": "node",
    "id": 8985515136,
    "lat": 52.1354754,
    "lon": 26.1149914
  },
  {
    "type": "node",
    "id": 8985515137,
    "lat": 52.1355389,
    "lon": 26.1150233
  },
  {
    "type": "node",
    "id": 8985515138,
    "lat": 52.1351741,
    "lon": 26.1145784
  },
  {
    "type": "node",
    "id": 8985515139,
    "lat": 52.1351412,
    "lon": 26.1145998
  },
  {
    "type": "node",
    "id": 8985515140,
    "lat": 52.1351181,
    "lon": 26.1146669
  },
  {
    "type": "node",
    "id": 8985515141,
    "lat": 52.1350951,
    "lon": 26.1147661
  },
  {
    "type": "node",
    "id": 8985515142,
    "lat": 52.1350918,
    "lon": 26.1148439
  },
  {
    "type": "node",
    "id": 8985515143,
    "lat": 52.1351165,
    "lon": 26.1149083
  },
  {
    "type": "node",
    "id": 8985515144,
    "lat": 52.1352811,
    "lon": 26.1149861
  },
  {
    "type": "node",
    "id": 8985515156,
    "lat": 52.1344957,
    "lon": 26.1138481
  },
  {
    "type": "node",
    "id": 8985515157,
    "lat": 52.1348801,
    "lon": 26.1144362
  },
  {
    "type": "node",
    "id": 8985515158,
    "lat": 52.1351041,
    "lon": 26.1145426
  },
  {
    "type": "node",
    "id": 8985515159,
    "lat": 52.1349418,
    "lon": 26.1144799
  },
  {
    "type": "node",
    "id": 8985515160,
    "lat": 52.1350235,
    "lon": 26.1146673
  },
  {
    "type": "node",
    "id": 8985515161,
    "lat": 52.1349906,
    "lon": 26.1148873
  },
  {
    "type": "node",
    "id": 8985515162,
    "lat": 52.1353906,
    "lon": 26.1151340
  },
  {
    "type": "node",
    "id": 8985515163,
    "lat": 52.1354730,
    "lon": 26.1150777
  },
  {
    "type": "node",
    "id": 8985515164,
    "lat": 52.1355487,
    "lon": 26.1151153
  },
  {
    "type": "node",
    "id": 8985515165,
    "lat": 52.1356850,
    "lon": 26.1143579
  },
  {
    "type": "node",
    "id": 8985515166,
    "lat": 52.1354845,
    "lon": 26.1154961
  },
  {
    "type": "node",
    "id": 8985515167,
    "lat": 52.1357133,
    "lon": 26.1156088
  },
  {
    "type": "node",
    "id": 8985515168,
    "lat": 52.1358862,
    "lon": 26.1147089
  },
  {
    "type": "node",
    "id": 8985515169,
    "lat": 52.1356581,
    "lon": 26.1145720
  },
  {
    "type": "node",
    "id": 8985515170,
    "lat": 52.1359932,
    "lon": 26.1147599
  },
  {
    "type": "node",
    "id": 8985515171,
    "lat": 52.1361088,
    "lon": 26.1146333
  },
  {
    "type": "node",
    "id": 8985515172,
    "lat": 52.1355994,
    "lon": 26.1143112
  },
  {
    "type": "node",
    "id": 8985515173,
    "lat": 52.1355021,
    "lon": 26.1149009,
    "tags": {
      "highway": "crossing"
    }
  },
  {
    "type": "node",
    "id": 8985515174,
    "lat": 52.1354863,
    "lon": 26.1149969,
    "tags": {
      "highway": "crossing"
    }
  },
  {
    "type": "node",
    "id": 8985515214,
    "lat": 52.1355250,
    "lon": 26.1151035,
    "tags": {
      "highway": "crossing"
    }
  },
  {
    "type": "node",
    "id": 8986237108,
    "lat": 52.1341277,
    "lon": 26.1216924
  },
  {
    "type": "node",
    "id": 8989617437,
    "lat": 52.1250761,
    "lon": 26.1124933
  },
  {
    "type": "node",
    "id": 8990282108,
    "lat": 52.1290331,
    "lon": 26.1107197
  },
  {
    "type": "node",
    "id": 8990285745,
    "lat": 52.1273345,
    "lon": 26.1126909
  },
  {
    "type": "node",
    "id": 8990285746,
    "lat": 52.1275247,
    "lon": 26.1132526
  },
  {
    "type": "node",
    "id": 8990285747,
    "lat": 52.1280284,
    "lon": 26.1128168
  },
  {
    "type": "node",
    "id": 8990285757,
    "lat": 52.1274819,
    "lon": 26.1132066
  },
  {
    "type": "node",
    "id": 8990285762,
    "lat": 52.1275731,
    "lon": 26.1132108
  },
  {
    "type": "node",
    "id": 8990285763,
    "lat": 52.1277615,
    "lon": 26.1137145
  },
  {
    "type": "node",
    "id": 8990285764,
    "lat": 52.1277057,
    "lon": 26.1138836
  },
  {
    "type": "node",
    "id": 8990285765,
    "lat": 52.1280488,
    "lon": 26.1148666
  },
  {
    "type": "node",
    "id": 8990285766,
    "lat": 52.1277247,
    "lon": 26.1151949
  },
  {
    "type": "node",
    "id": 8990285773,
    "lat": 52.1277317,
    "lon": 26.1156099,
    "tags": {
      "barrier": "gate"
    }
  },
  {
    "type": "node",
    "id": 8990285786,
    "lat": 52.1291651,
    "lon": 26.1139744
  },
  {
    "type": "node",
    "id": 8990285789,
    "lat": 52.1292719,
    "lon": 26.1139860
  },
  {
    "type": "node",
    "id": 8990285790,
    "lat": 52.1293465,
    "lon": 26.1142768
  },
  {
    "type": "node",
    "id": 8990285806,
    "lat": 52.1296830,
    "lon": 26.1109826
  },
  {
    "type": "node",
    "id": 8990285814,
    "lat": 52.1303125,
    "lon": 26.1112461
  },
  {
    "type": "node",
    "id": 8990285955,
    "lat": 52.1260841,
    "lon": 26.1134580
  },
  {
    "type": "node",
    "id": 8990285957,
    "lat": 52.1262290,
    "lon": 26.1135288
  },
  {
    "type": "node",
    "id": 8990285969,
    "lat": 52.1248045,
    "lon": 26.1155784
  },
  {
    "type": "node",
    "id": 8990285970,
    "lat": 52.1248662,
    "lon": 26.1156743,
    "tags": {
      "barrier": "gate"
    }
  },
  {
    "type": "node",
    "id": 8990285971,
    "lat": 52.1252048,
    "lon": 26.1161628,
    "tags": {
      "noexit": "yes"
    }
  },
  {
    "type": "node",
    "id": 8990285972,
    "lat": 52.1248438,
    "lon": 26.1156443,
    "tags": {
      "highway": "crossing"
    }
  },
  {
    "type": "node",
    "id": 8990285989,
    "lat": 52.1284795,
    "lon": 26.1106244,
    "tags": {
      "hazard": "turn"
    }
  },
  {
    "type": "node",
    "id": 8992144007,
    "lat": 52.1288724,
    "lon": 26.1176509
  },
  {
    "type": "node",
    "id": 8992144008,
    "lat": 52.1287347,
    "lon": 26.1175242
  },
  {
    "type": "node",
    "id": 8992177521,
    "lat": 52.1288362,
    "lon": 26.1152418
  },
  {
    "type": "node",
    "id": 8992177522,
    "lat": 52.1282043,
    "lon": 26.1155083,
    "tags": {
      "barrier": "gate"
    }
  },
  {
    "type": "node",
    "id": 8992177527,
    "lat": 52.1288733,
    "lon": 26.1184303
  },
  {
    "type": "node",
    "id": 8992177528,
    "lat": 52.1290413,
    "lon": 26.1182521
  },
  {
    "type": "node",
    "id": 8992177529,
    "lat": 52.1289693,
    "lon": 26.1180349,
    "tags": {
      "noexit": "yes"
    }
  },
  {
    "type": "node",
    "id": 8992177532,
    "lat": 52.1286212,
    "lon": 26.1180484
  },
  {
    "type": "node",
    "id": 8992177533,
    "lat": 52.1287995,
    "lon": 26.1184087
  },
  {
    "type": "node",
    "id": 8992177534,
    "lat": 52.1289487,
    "lon": 26.1187053
  },
  {
    "type": "node",
    "id": 8992177536,
    "lat": 52.1303988,
    "lon": 26.1188681
  },
  {
    "type": "node",
    "id": 8992177538,
    "lat": 52.1264385,
    "lon": 26.1123985
  },
  {
    "type": "node",
    "id": 8992177539,
    "lat": 52.1276540,
    "lon": 26.1156102
  },
  {
    "type": "node",
    "id": 8992177541,
    "lat": 52.1279808,
    "lon": 26.1164246
  },
  {
    "type": "node",
    "id": 8992177542,
    "lat": 52.1280335,
    "lon": 26.1165699
  },
  {
    "type": "node",
    "id": 8992177543,
    "lat": 52.1282790,
    "lon": 26.1171943
  },
  {
    "type": "node",
    "id": 8992177544,
    "lat": 52.1283690,
    "lon": 26.1173941
  },
  {
    "type": "node",
    "id": 8992177545,
    "lat": 52.1284810,
    "lon": 26.1176632
  },
  {
    "type": "node",
    "id": 8992177546,
    "lat": 52.1285371,
    "lon": 26.1178178,
    "tags": {
      "crossing": "marked",
      "highway": "crossing"
    }
  },
  {
    "type": "node",
    "id": 8992177547,
    "lat": 52.1288444,
    "lon": 26.1184858,
    "tags": {
      "crossing": "marked",
      "highway": "crossing"
    }
  },
  {
    "type": "node",
    "id": 8992177548,
    "lat": 52.1286823,
    "lon": 26.1181946
  },
  {
    "type": "node",
    "id": 8992177549,
    "lat": 52.1290469,
    "lon": 26.1177328
  },
  {
    "type": "node",
    "id": 8992177550,
    "lat": 52.1290175,
    "lon": 26.1176565
  },
  {
    "type": "node",
    "id": 8992177553,
    "lat": 52.1315569,
    "lon": 26.1174481,
    "tags": {
      "bicycle": "yes",
      "crossing": "uncontrolled",
      "highway": "crossing",
      "kerb": "yes",
      "supervised": "no",
      "tactile_paving": "no"
    }
  },
  {
    "type": "node",
    "id": 8992177554,
    "lat": 52.1312212,
    "lon": 26.1178222,
    "tags": {
      "crossing": "marked",
      "crossing:markings": "yes",
      "highway": "crossing"
    }
  },
  {
    "type": "node",
    "id": 8992177555,
    "lat": 52.1288344,
    "lon": 26.1186899
  },
  {
    "type": "node",
    "id": 8992177556,
    "lat": 52.1289695,
    "lon": 26.1186123
  },
  {
    "type": "node",
    "id": 8992177557,
    "lat": 52.1292879,
    "lon": 26.1182015
  },
  {
    "type": "node",
    "id": 8992177558,
    "lat": 52.1300680,
    "lon": 26.1174963
  },
  {
    "type": "node",
    "id": 8992177559,
    "lat": 52.1300508,
    "lon": 26.1181580
  },
  {
    "type": "node",
    "id": 8992177560,
    "lat": 52.1292959,
    "lon": 26.1189054
  },
  {
    "type": "node",
    "id": 8992177561,
    "lat": 52.1291208,
    "lon": 26.1185430
  },
  {
    "type": "node",
    "id": 8992177571,
    "lat": 52.1280035,
    "lon": 26.1164785,
    "tags": {
      "crossing": "marked",
      "highway": "crossing"
    }
  },
  {
    "type": "node",
    "id": 8992177572,
    "lat": 52.1283159,
    "lon": 26.1172762,
    "tags": {
      "crossing": "marked",
      "highway": "crossing"
    }
  },
  {
    "type": "node",
    "id": 8992177576,
    "lat": 52.1295404,
    "lon": 26.1158970
  },
  {
    "type": "node",
    "id": 8992177582,
    "lat": 52.1284590,
    "lon": 26.1164671
  },
  {
    "type": "node",
    "id": 8992177589,
    "lat": 52.1287952,
    "lon": 26.1168475
  },
  {
    "type": "node",
    "id": 8992177590,
    "lat": 52.1287088,
    "lon": 26.1169464
  },
  {
    "type": "node",
    "id": 8992177591,
    "lat": 52.1288580,
    "lon": 26.1173585
  },
  {
    "type": "node",
    "id": 8992177604,
    "lat": 52.1261955,
    "lon": 26.1135710
  },
  {
    "type": "node",
    "id": 8992177605,
    "lat": 52.1262966,
    "lon": 26.1138197
  },
  {
    "type": "node",
    "id": 8992177606,
    "lat": 52.1265606,
    "lon": 26.1138889
  },
  {
    "type": "node",
    "id": 8992177607,
    "lat": 52.1266679,
    "lon": 26.1140479
  },
  {
    "type": "node",
    "id": 8992177609,
    "lat": 52.1288641,
    "lon": 26.1197776
  },
  {
    "type": "node",
    "id": 8992177610,
    "lat": 52.1264693,
    "lon": 26.1138090,
    "tags": {
      "crossing:barrier": "no",
      "railway": "crossing"
    }
  },
  {
    "type": "node",
    "id": 8992177611,
    "lat": 52.1263354,
    "lon": 26.1138028,
    "tags": {
      "highway": "crossing"
    }
  },
  {
    "type": "node",
    "id": 8992177612,
    "lat": 52.1289038,
    "lon": 26.1197452,
    "tags": {
      "railway": "crossing"
    }
  },
  {
    "type": "node",
    "id": 8992177613,
    "lat": 52.1317469,
    "lon": 26.1183581
  },
  {
    "type": "node",
    "id": 8992177615,
    "lat": 52.1323749,
    "lon": 26.1198179
  },
  {
    "type": "node",
    "id": 8992177616,
    "lat": 52.1331249,
    "lon": 26.1190435
  },
  {
    "type": "node",
    "id": 8992177618,
    "lat": 52.1312608,
    "lon": 26.1188581
  },
  {
    "type": "node",
    "id": 8992177620,
    "lat": 52.1319433,
    "lon": 26.1190196
  },
  {
    "type": "node",
    "id": 8992177621,
    "lat": 52.1323029,
    "lon": 26.1179679,
    "tags": {
      "noexit": "yes"
    }
  },
  {
    "type": "node",
    "id": 8992177622,
    "lat": 52.1326336,
    "lon": 26.1188581,
    "tags": {
      "noexit": "yes"
    }
  },
  {
    "type": "node",
    "id": 8992177623,
    "lat": 52.1324044,
    "lon": 26.1182810
  },
  {
    "type": "node",
    "id": 8992177624,
    "lat": 52.1323381,
    "lon": 26.1165539
  },
  {
    "type": "node",
    "id": 8992177625,
    "lat": 52.1322770,
    "lon": 26.1165207
  },
  {
    "type": "node",
    "id": 8992177626,
    "lat": 52.1322602,
    "lon": 26.1165123
  },
  {
    "type": "node",
    "id": 8992177627,
    "lat": 52.1323190,
    "lon": 26.1165435,
    "tags": {
      "crossing": "marked",
      "crossing:markings": "yes",
      "highway": "crossing"
    }
  },
  {
    "type": "node",
    "id": 8992177629,
    "lat": 52.1321929,
    "lon": 26.1169591,
    "tags": {
      "bicycle": "yes",
      "crossing": "uncontrolled",
      "highway": "crossing",
      "kerb": "yes",
      "supervised": "no",
      "tactile_paving": "no"
    }
  },
  {
    "type": "node",
    "id": 8992177631,
    "lat": 52.1321931,
    "lon": 26.1168015
  },
  {
    "type": "node",
    "id": 8992177632,
    "lat": 52.1317264,
    "lon": 26.1176905
  },
  {
    "type": "node",
    "id": 8992177633,
    "lat": 52.1318861,
    "lon": 26.1181431
  },
  {
    "type": "node",
    "id": 8992177634,
    "lat": 52.1307545,
    "lon": 26.1192841
  },
  {
    "type": "node",
    "id": 8992177635,
    "lat": 52.1306578,
    "lon": 26.1193871
  },
  {
    "type": "node",
    "id": 8992177636,
    "lat": 52.1304925,
    "lon": 26.1189437
  },
  {
    "type": "node",
    "id": 8992177637,
    "lat": 52.1308048,
    "lon": 26.1186315
  },
  {
    "type": "node",
    "id": 8992177639,
    "lat": 52.1289157,
    "lon": 26.1186084,
    "tags": {
      "crossing": "marked",
      "highway": "crossing"
    }
  },
  {
    "type": "node",
    "id": 8992177640,
    "lat": 52.1291807,
    "lon": 26.1172896
  },
  {
    "type": "node",
    "id": 8992177641,
    "lat": 52.1289516,
    "lon": 26.1174209
  },
  {
    "type": "node",
    "id": 8992177642,
    "lat": 52.1289915,
    "lon": 26.1175656,
    "tags": {
      "crossing": "marked",
      "highway": "crossing"
    }
  },
  {
    "type": "node",
    "id": 8992177644,
    "lat": 52.1323891,
    "lon": 26.1170662,
    "tags": {
      "bicycle": "yes",
      "crossing": "uncontrolled",
      "highway": "crossing",
      "kerb": "yes",
      "supervised": "no",
      "tactile_paving": "no"
    }
  },
  {
    "type": "node",
    "id": 8992177646,
    "lat": 52.1327929,
    "lon": 26.1167912
  },
  {
    "type": "node",
    "id": 8992177647,
    "lat": 52.1327110,
    "lon": 26.1172231
  },
  {
    "type": "node",
    "id": 8992177648,
    "lat": 52.1326468,
    "lon": 26.1172833
  },
  {
    "type": "node",
    "id": 8992177651,
    "lat": 52.1328666,
    "lon": 26.1170729,
    "tags": {
      "noexit": "yes"
    }
  },
  {
    "type": "node",
    "id": 8992177652,
    "lat": 52.1326690,
    "lon": 26.1173465
  },
  {
    "type": "node",
    "id": 8992177653,
    "lat": 52.1325467,
    "lon": 26.1174781
  },
  {
    "type": "node",
    "id": 8992177662,
    "lat": 52.1331633,
    "lon": 26.1195393
  },
  {
    "type": "node",
    "id": 8992177663,
    "lat": 52.1331932,
    "lon": 26.1192359,
    "tags": {
      "traffic_calming": "bump"
    }
  },
  {
    "type": "node",
    "id": 8992177666,
    "lat": 52.1346365,
    "lon": 26.1226809
  },
  {
    "type": "node",
    "id": 8992177667,
    "lat": 52.1348285,
    "lon": 26.1226481
  },
  {
    "type": "node",
    "id": 8992177668,
    "lat": 52.1355778,
    "lon": 26.1220822
  },
  {
    "type": "node",
    "id": 9162150263,
    "lat": 52.1378077,
    "lon": 26.1103856
  },
  {
    "type": "node",
    "id": 9162150264,
    "lat": 52.1384201,
    "lon": 26.1105466
  },
  {
    "type": "node",
    "id": 9162150521,
    "lat": 52.1399366,
    "lon": 26.1159604
  },
  {
    "type": "node",
    "id": 9162238663,
    "lat": 52.1399074,
    "lon": 26.1161548,
    "tags": {
      "crossing": "marked",
      "crossing:markings": "yes",
      "highway": "crossing"
    }
  },
  {
    "type": "node",
    "id": 9162238664,
    "lat": 52.1377891,
    "lon": 26.1107149
  },
  {
    "type": "node",
    "id": 9407142283,
    "lat": 52.1310694,
    "lon": 26.1148694,
    "tags": {
      "barrier": "gate"
    }
  },
  {
    "type": "node",
    "id": 9407142284,
    "lat": 52.1308768,
    "lon": 26.1162910
  },
  {
    "type": "node",
    "id": 9407142285,
    "lat": 52.1305376,
    "lon": 26.1161461
  },
  {
    "type": "node",
    "id": 9407142286,
    "lat": 52.1304464,
    "lon": 26.1157424
  },
  {
    "type": "node",
    "id": 9407142290,
    "lat": 52.1299597,
    "lon": 26.1163178
  },
  {
    "type": "node",
    "id": 9407143150,
    "lat": 52.1296337,
    "lon": 26.1109627
  },
  {
    "type": "node",
    "id": 9407143151,
    "lat": 52.1281608,
    "lon": 26.1107656
  },
  {
    "type": "node",
    "id": 9407143154,
    "lat": 52.1308340,
    "lon": 26.1142471
  },
  {
    "type": "node",
    "id": 9407143155,
    "lat": 52.1310001,
    "lon": 26.1141078
  },
  {
    "type": "node",
    "id": 9407143156,
    "lat": 52.1310499,
    "lon": 26.1135146
  },
  {
    "type": "node",
    "id": 9407143157,
    "lat": 52.1314069,
    "lon": 26.1132199
  },
  {
    "type": "node",
    "id": 9407143158,
    "lat": 52.1313964,
    "lon": 26.1129068
  },
  {
    "type": "node",
    "id": 9407143159,
    "lat": 52.1309831,
    "lon": 26.1132569
  },
  {
    "type": "node",
    "id": 9407143160,
    "lat": 52.1311962,
    "lon": 26.1140782
  },
  {
    "type": "node",
    "id": 9407143161,
    "lat": 52.1311435,
    "lon": 26.1143786
  },
  {
    "type": "node",
    "id": 9407143162,
    "lat": 52.1310776,
    "lon": 26.1144215
  },
  {
    "type": "node",
    "id": 9407143163,
    "lat": 52.1309377,
    "lon": 26.1138555
  },
  {
    "type": "node",
    "id": 9407143164,
    "lat": 52.1306561,
    "lon": 26.1150652
  },
  {
    "type": "node",
    "id": 9407143165,
    "lat": 52.1306051,
    "lon": 26.1148399
  },
  {
    "type": "node",
    "id": 9407143166,
    "lat": 52.1306528,
    "lon": 26.1147299
  },
  {
    "type": "node",
    "id": 9407143167,
    "lat": 52.1305129,
    "lon": 26.1142525
  },
  {
    "type": "node",
    "id": 9407143168,
    "lat": 52.1307319,
    "lon": 26.1140648
  },
  {
    "type": "node",
    "id": 9407143169,
    "lat": 52.1308076,
    "lon": 26.1138260
  },
  {
    "type": "node",
    "id": 9407143170,
    "lat": 52.1307006,
    "lon": 26.1134773
  },
  {
    "type": "node",
    "id": 9407143171,
    "lat": 52.1313263,
    "lon": 26.1129892
  },
  {
    "type": "node",
    "id": 9407143172,
    "lat": 52.1315205,
    "lon": 26.1127612,
    "tags": {
      "barrier": "gate"
    }
  },
  {
    "type": "node",
    "id": 9407143206,
    "lat": 52.1300940,
    "lon": 26.1127531
  },
  {
    "type": "node",
    "id": 9407143207,
    "lat": 52.1302494,
    "lon": 26.1132735
  },
  {
    "type": "node",
    "id": 9407143278,
    "lat": 52.1316111,
    "lon": 26.1125381
  },
  {
    "type": "node",
    "id": 9407143280,
    "lat": 52.1316243,
    "lon": 26.1127639
  },
  {
    "type": "node",
    "id": 9407221917,
    "lat": 52.1287387,
    "lon": 26.1182128
  },
  {
    "type": "node",
    "id": 9407221918,
    "lat": 52.1286622,
    "lon": 26.1177662
  },
  {
    "type": "node",
    "id": 9407221919,
    "lat": 52.1287404,
    "lon": 26.1177313
  },
  {
    "type": "node",
    "id": 9407221920,
    "lat": 52.1288137,
    "lon": 26.1176938
  },
  {
    "type": "node",
    "id": 9407221924,
    "lat": 52.1289618,
    "lon": 26.1172512
  },
  {
    "type": "node",
    "id": 9407221934,
    "lat": 52.1251351,
    "lon": 26.1128645
  },
  {
    "type": "node",
    "id": 9407221935,
    "lat": 52.1248213,
    "lon": 26.1122731
  },
  {
    "type": "node",
    "id": 9413524655,
    "lat": 52.1309141,
    "lon": 26.1168255
  },
  {
    "type": "node",
    "id": 9413524656,
    "lat": 52.1311843,
    "lon": 26.1172616
  },
  {
    "type": "node",
    "id": 9413524657,
    "lat": 52.1308476,
    "lon": 26.1171636
  },
  {
    "type": "node",
    "id": 9413524658,
    "lat": 52.1310169,
    "lon": 26.1162594
  },
  {
    "type": "node",
    "id": 9413524674,
    "lat": 52.1285272,
    "lon": 26.1146870
  },
  {
    "type": "node",
    "id": 9413524675,
    "lat": 52.1281781,
    "lon": 26.1135042
  },
  {
    "type": "node",
    "id": 9413524676,
    "lat": 52.1285963,
    "lon": 26.1131662
  },
  {
    "type": "node",
    "id": 9413524677,
    "lat": 52.1289289,
    "lon": 26.1130938
  },
  {
    "type": "node",
    "id": 9413524678,
    "lat": 52.1294179,
    "lon": 26.1127773
  },
  {
    "type": "node",
    "id": 9413524679,
    "lat": 52.1302346,
    "lon": 26.1153388
  },
  {
    "type": "node",
    "id": 9413524680,
    "lat": 52.1299761,
    "lon": 26.1144859
  },
  {
    "type": "node",
    "id": 9413524681,
    "lat": 52.1301385,
    "lon": 26.1142048
  },
  {
    "type": "node",
    "id": 9413524682,
    "lat": 52.1303532,
    "lon": 26.1149257
  },
  {
    "type": "node",
    "id": 9413524683,
    "lat": 52.1300288,
    "lon": 26.1138368
  },
  {
    "type": "node",
    "id": 9413524684,
    "lat": 52.1297341,
    "lon": 26.1138743
  },
  {
    "type": "node",
    "id": 9413524685,
    "lat": 52.1295727,
    "lon": 26.1133486
  },
  {
    "type": "node",
    "id": 9413524686,
    "lat": 52.1290672,
    "lon": 26.1141854
  },
  {
    "type": "node",
    "id": 9413524687,
    "lat": 52.1291578,
    "lon": 26.1144912
  },
  {
    "type": "node",
    "id": 9413524688,
    "lat": 52.1286045,
    "lon": 26.1149150
  },
  {
    "type": "node",
    "id": 9413524689,
    "lat": 52.1276082,
    "lon": 26.1156517
  },
  {
    "type": "node",
    "id": 9413524690,
    "lat": 52.1277285,
    "lon": 26.1158001
  },
  {
    "type": "node",
    "id": 9413524692,
    "lat": 52.1330191,
    "lon": 26.1191045
  },
  {
    "type": "node",
    "id": 9413524693,
    "lat": 52.1326574,
    "lon": 26.1194506
  },
  {
    "type": "node",
    "id": 9413524694,
    "lat": 52.1321635,
    "lon": 26.1194198
  },
  {
    "type": "node",
    "id": 9413524695,
    "lat": 52.1320227,
    "lon": 26.1183871
  },
  {
    "type": "node",
    "id": 9413524696,
    "lat": 52.1322528,
    "lon": 26.1171410
  },
  {
    "type": "node",
    "id": 9413524697,
    "lat": 52.1304668,
    "lon": 26.1189732
  },
  {
    "type": "node",
    "id": 9413527128,
    "lat": 52.1315732,
    "lon": 26.1169240
  },
  {
    "type": "node",
    "id": 9413527129,
    "lat": 52.1316095,
    "lon": 26.1169347
  },
  {
    "type": "node",
    "id": 9413527130,
    "lat": 52.1316449,
    "lon": 26.1169481
  },
  {
    "type": "node",
    "id": 9413527131,
    "lat": 52.1316967,
    "lon": 26.1169991
  },
  {
    "type": "node",
    "id": 9413527132,
    "lat": 52.1317727,
    "lon": 26.1172420
  },
  {
    "type": "node",
    "id": 9413527133,
    "lat": 52.1318247,
    "lon": 26.1173414
  },
  {
    "type": "node",
    "id": 9413527134,
    "lat": 52.1330287,
    "lon": 26.1191301
  },
  {
    "type": "node",
    "id": 9413527135,
    "lat": 52.1323784,
    "lon": 26.1197711
  },
  {
    "type": "node",
    "id": 9413527137,
    "lat": 52.1322590,
    "lon": 26.1197792
  },
  {
    "type": "node",
    "id": 9413527138,
    "lat": 52.1319840,
    "lon": 26.1190483
  },
  {
    "type": "node",
    "id": 9413527139,
    "lat": 52.1319239,
    "lon": 26.1188096
  },
  {
    "type": "node",
    "id": 9413527140,
    "lat": 52.1320367,
    "lon": 26.1183389
  },
  {
    "type": "node",
    "id": 9413527155,
    "lat": 52.1305873,
    "lon": 26.1184849
  },
  {
    "type": "node",
    "id": 9413527156,
    "lat": 52.1305643,
    "lon": 26.1184267
  },
  {
    "type": "node",
    "id": 9413527157,
    "lat": 52.1305252,
    "lon": 26.1184401
  },
  {
    "type": "node",
    "id": 9413527158,
    "lat": 52.1304796,
    "lon": 26.1183029,
    "tags": {
      "access": "yes",
      "door": "hinged",
      "entrance": "main",
      "wheelchair": "yes"
    }
  },
  {
    "type": "node",
    "id": 9413527204,
    "lat": 52.1306817,
    "lon": 26.1185689,
    "tags": {
      "bus": "yes",
      "name": "вуліца Студэнцкая",
      "name:be": "вуліца Студэнцкая",
      "name:ru": "улица Студенческая",
      "name:uk": "Вулиця Студентська",
      "operator": "Пинский автобусный парк",
      "public_transport": "stop_position"
    }
  },
  {
    "type": "node",
    "id": 9413527222,
    "lat": 52.1303021,
    "lon": 26.1181457
  },
  {
    "type": "node",
    "id": 9413527223,
    "lat": 52.1303449,
    "lon": 26.1182584
  },
  {
    "type": "node",
    "id": 9413527224,
    "lat": 52.1303392,
    "lon": 26.1183107
  },
  {
    "type": "node",
    "id": 9413527225,
    "lat": 52.1303772,
    "lon": 26.1184077,
    "tags": {
      "barrier": "gate"
    }
  },
  {
    "type": "node",
    "id": 9413527226,
    "lat": 52.1304652,
    "lon": 26.1186172
  },
  {
    "type": "node",
    "id": 9413527227,
    "lat": 52.1305167,
    "lon": 26.1187445
  },
  {
    "type": "node",
    "id": 9413527326,
    "lat": 52.1303670,
    "lon": 26.1190719
  },
  {
    "type": "node",
    "id": 9413527328,
    "lat": 52.1303186,
    "lon": 26.1189491,
    "tags": {
      "bicycle": "yes",
      "crossing": "uncontrolled",
      "highway": "crossing",
      "supervised": "no",
      "tactile_paving": "no"
    }
  },
  {
    "type": "node",
    "id": 9413527331,
    "lat": 52.1310497,
    "lon": 26.1181859,
    "tags": {
      "bus": "yes",
      "name": "вуліца Студэнцкая",
      "name:be": "вуліца Студэнцкая",
      "name:ru": "улица Студенческая",
      "name:uk": "Вулиця Студентська",
      "operator": "Пинский автобусный парк",
      "public_transport": "stop_position",
      "tactile_paving": "no"
    }
  },
  {
    "type": "node",
    "id": 9413527349,
    "lat": 52.1315107,
    "lon": 26.1173746
  },
  {
    "type": "node",
    "id": 9413527350,
    "lat": 52.1313707,
    "lon": 26.1176643
  },
  {
    "type": "node",
    "id": 9413527351,
    "lat": 52.1315082,
    "lon": 26.1174846
  },
  {
    "type": "node",
    "id": 9413527352,
    "lat": 52.1317527,
    "lon": 26.1174162,
    "tags": {
      "bicycle": "yes",
      "crossing": "uncontrolled",
      "highway": "crossing",
      "kerb": "yes",
      "supervised": "no",
      "tactile_paving": "no"
    }
  },
  {
    "type": "node",
    "id": 9413527353,
    "lat": 52.1319181,
    "lon": 26.1174779
  },
  {
    "type": "node",
    "id": 9413527354,
    "lat": 52.1318194,
    "lon": 26.1174430
  },
  {
    "type": "node",
    "id": 9413527355,
    "lat": 52.1317148,
    "lon": 26.1174028
  },
  {
    "type": "node",
    "id": 9413527356,
    "lat": 52.1316536,
    "lon": 26.1173576
  },
  {
    "type": "node",
    "id": 9413527362,
    "lat": 52.1322178,
    "lon": 26.1170192
  },
  {
    "type": "node",
    "id": 9413527363,
    "lat": 52.1321775,
    "lon": 26.1169267
  },
  {
    "type": "node",
    "id": 9413527364,
    "lat": 52.1322754,
    "lon": 26.1167295
  },
  {
    "type": "node",
    "id": 9413527382,
    "lat": 52.1303565,
    "lon": 26.1178064
  },
  {
    "type": "node",
    "id": 9413527383,
    "lat": 52.1304125,
    "lon": 26.1177434
  },
  {
    "type": "node",
    "id": 9413527384,
    "lat": 52.1304511,
    "lon": 26.1177126
  },
  {
    "type": "node",
    "id": 9413527385,
    "lat": 52.1304931,
    "lon": 26.1176898
  },
  {
    "type": "node",
    "id": 9413527386,
    "lat": 52.1305302,
    "lon": 26.1176938
  },
  {
    "type": "node",
    "id": 9413527405,
    "lat": 52.1292788,
    "lon": 26.1197618
  },
  {
    "type": "node",
    "id": 9413527445,
    "lat": 52.1302215,
    "lon": 26.1131823,
    "tags": {
      "barrier": "gate"
    }
  },
  {
    "type": "node",
    "id": 9413552298,
    "lat": 52.1351745,
    "lon": 26.1131924
  },
  {
    "type": "node",
    "id": 9413552301,
    "lat": 52.1358878,
    "lon": 26.1136824,
    "tags": {
      "noexit": "yes"
    }
  },
  {
    "type": "node",
    "id": 9413552302,
    "lat": 52.1351601,
    "lon": 26.1132642
  },
  {
    "type": "node",
    "id": 9413552303,
    "lat": 52.1354308,
    "lon": 26.1130347
  },
  {
    "type": "node",
    "id": 9413552314,
    "lat": 52.1357222,
    "lon": 26.1144349
  },
  {
    "type": "node",
    "id": 9413552315,
    "lat": 52.1349446,
    "lon": 26.1140545
  },
  {
    "type": "node",
    "id": 9413554395,
    "lat": 52.1344455,
    "lon": 26.1142195
  },
  {
    "type": "node",
    "id": 9530290617,
    "lat": 52.1265590,
    "lon": 26.1128971
  },
  {
    "type": "node",
    "id": 9530290618,
    "lat": 52.1276178,
    "lon": 26.1156773,
    "tags": {
      "bus": "yes",
      "name": "ЖКГ горада Пінска",
      "name:be": "ЖКГ горада Пінска",
      "name:ru": "ЖКХ города Пинска",
      "name:uk": "ЖКГ міста Пінська",
      "public_transport": "stop_position"
    }
  },
  {
    "type": "node",
    "id": 9530290619,
    "lat": 52.1275768,
    "lon": 26.1157213,
    "tags": {
      "bench": "yes",
      "bin": "yes",
      "covered": "yes",
      "name": "ЖКГ горада Пінска",
      "name:be": "ЖКГ горада Пінска",
      "name:ru": "ЖКХ города Пинска",
      "name:uk": "ЖКГ міста Пінська",
      "public_transport": "platform",
      "shelter": "yes",
      "tactile_paving": "yes",
      "wheelchair": "yes"
    }
  },
  {
    "type": "node",
    "id": 9599191511,
    "lat": 52.1337739,
    "lon": 26.1207843,
    "tags": {
      "traffic_calming": "bump"
    }
  },
  {
    "type": "node",
    "id": 9599197017,
    "lat": 52.1338357,
    "lon": 26.1213346
  },
  {
    "type": "node",
    "id": 9599197020,
    "lat": 52.1340468,
    "lon": 26.1210642
  },
  {
    "type": "node",
    "id": 9599197021,
    "lat": 52.1339263,
    "lon": 26.1211941,
    "tags": {
      "bicycle": "yes",
      "button_operated": "no",
      "crossing": "uncontrolled",
      "crossing:island": "no",
      "highway": "crossing",
      "kerb": "flush",
      "supervised": "no",
      "tactile_paving": "no",
      "traffic_signals:sound": "no"
    }
  },
  {
    "type": "node",
    "id": 9599197049,
    "lat": 52.1314549,
    "lon": 26.1177358,
    "tags": {
      "hazard": "school_zone"
    }
  },
  {
    "type": "node",
    "id": 9599197050,
    "lat": 52.1334335,
    "lon": 26.1198939,
    "tags": {
      "hazard": "school_zone"
    }
  },
  {
    "type": "node",
    "id": 9599197054,
    "lat": 52.1308832,
    "lon": 26.1192319
  },
  {
    "type": "node",
    "id": 9599197055,
    "lat": 52.1308643,
    "lon": 26.1191734
  },
  {
    "type": "node",
    "id": 9599197059,
    "lat": 52.1321345,
    "lon": 26.1194483
  },
  {
    "type": "node",
    "id": 9599197073,
    "lat": 52.1332273,
    "lon": 26.1197021
  },
  {
    "type": "node",
    "id": 9599197074,
    "lat": 52.1332064,
    "lon": 26.1196489
  },
  {
    "type": "node",
    "id": 9599197086,
    "lat": 52.1323454,
    "lon": 26.1198261
  },
  {
    "type": "node",
    "id": 9599197087,
    "lat": 52.1323076,
    "lon": 26.1198167
  },
  {
    "type": "node",
    "id": 9599197174,
    "lat": 52.1379014,
    "lon": 26.1112666
  },
  {
    "type": "node",
    "id": 9599197191,
    "lat": 52.1393554,
    "lon": 26.1160362
  },
  {
    "type": "node",
    "id": 9599197192,
    "lat": 52.1393159,
    "lon": 26.1160737
  },
  {
    "type": "node",
    "id": 9599197193,
    "lat": 52.1389077,
    "lon": 26.1158887
  },
  {
    "type": "node",
    "id": 9599197194,
    "lat": 52.1388731,
    "lon": 26.1158404
  },
  {
    "type": "node",
    "id": 9599197214,
    "lat": 52.1375263,
    "lon": 26.1128321
  },
  {
    "type": "node",
    "id": 9599197215,
    "lat": 52.1374952,
    "lon": 26.1122757
  },
  {
    "type": "node",
    "id": 9599197217,
    "lat": 52.1372680,
    "lon": 26.1092126
  },
  {
    "type": "node",
    "id": 9599197219,
    "lat": 52.1378253,
    "lon": 26.1105229
  },
  {
    "type": "node",
    "id": 9599197222,
    "lat": 52.1380847,
    "lon": 26.1106514
  },
  {
    "type": "node",
    "id": 9599197223,
    "lat": 52.1378467,
    "lon": 26.1106986
  },
  {
    "type": "node",
    "id": 9599197224,
    "lat": 52.1380632,
    "lon": 26.1129463
  },
  {
    "type": "node",
    "id": 9599197225,
    "lat": 52.1382934,
    "lon": 26.1151905
  },
  {
    "type": "node",
    "id": 9599197235,
    "lat": 52.1379756,
    "lon": 26.1150803
  },
  {
    "type": "node",
    "id": 9599197236,
    "lat": 52.1380814,
    "lon": 26.1151245
  },
  {
    "type": "node",
    "id": 9599197237,
    "lat": 52.1381405,
    "lon": 26.1151604
  },
  {
    "type": "node",
    "id": 9599197238,
    "lat": 52.1382310,
    "lon": 26.1151837
  },
  {
    "type": "node",
    "id": 9599197239,
    "lat": 52.1382582,
    "lon": 26.1155936
  },
  {
    "type": "node",
    "id": 9599197240,
    "lat": 52.1382484,
    "lon": 26.1153160
  },
  {
    "type": "node",
    "id": 9599197241,
    "lat": 52.1382564,
    "lon": 26.1154083
  },
  {
    "type": "node",
    "id": 9599197242,
    "lat": 52.1382626,
    "lon": 26.1155703
  },
  {
    "type": "node",
    "id": 9599197243,
    "lat": 52.1381180,
    "lon": 26.1155358
  },
  {
    "type": "node",
    "id": 9599197244,
    "lat": 52.1380217,
    "lon": 26.1155014
  },
  {
    "type": "node",
    "id": 9599197245,
    "lat": 52.1378035,
    "lon": 26.1154060
  },
  {
    "type": "node",
    "id": 9599197246,
    "lat": 52.1378090,
    "lon": 26.1153633
  },
  {
    "type": "node",
    "id": 9599197247,
    "lat": 52.1378399,
    "lon": 26.1151764
  },
  {
    "type": "node",
    "id": 9599197248,
    "lat": 52.1378670,
    "lon": 26.1149946
  },
  {
    "type": "node",
    "id": 9599197249,
    "lat": 52.1378384,
    "lon": 26.1153780
  },
  {
    "type": "node",
    "id": 9599197250,
    "lat": 52.1378695,
    "lon": 26.1151912,
    "tags": {
      "bicycle": "yes",
      "button_operated": "no",
      "crossing": "traffic_signals",
      "crossing:island": "no",
      "highway": "crossing",
      "kerb": "flush",
      "supervised": "no",
      "tactile_paving": "no",
      "traffic_signals:sound": "no"
    }
  },
  {
    "type": "node",
    "id": 9599197251,
    "lat": 52.1382347,
    "lon": 26.1154000,
    "tags": {
      "bicycle": "yes",
      "button_operated": "no",
      "crossing": "traffic_signals",
      "crossing:island": "no",
      "highway": "crossing",
      "kerb": "flush",
      "supervised": "no",
      "tactile_paving": "no",
      "traffic_signals:sound": "no"
    }
  },
  {
    "type": "node",
    "id": 9599197252,
    "lat": 52.1381152,
    "lon": 26.1155064,
    "tags": {
      "bicycle": "yes",
      "button_operated": "no",
      "crossing": "traffic_signals",
      "crossing:island": "no",
      "highway": "crossing",
      "kerb": "flush",
      "supervised": "no",
      "tactile_paving": "no",
      "traffic_signals:sound": "no"
    }
  },
  {
    "type": "node",
    "id": 9599197253,
    "lat": 52.1380786,
    "lon": 26.1150990,
    "tags": {
      "bicycle": "yes",
      "button_operated": "no",
      "crossing": "traffic_signals",
      "crossing:island": "no",
      "highway": "crossing",
      "kerb": "flush",
      "supervised": "no",
      "tactile_paving": "no",
      "traffic_signals:sound": "no"
    }
  },
  {
    "type": "node",
    "id": 9599197254,
    "lat": 52.1378788,
    "lon": 26.1151256
  },
  {
    "type": "node",
    "id": 9599197255,
    "lat": 52.1378889,
    "lon": 26.1150036
  },
  {
    "type": "node",
    "id": 9599197256,
    "lat": 52.1382442,
    "lon": 26.1154796
  },
  {
    "type": "node",
    "id": 9599197257,
    "lat": 52.1382496,
    "lon": 26.1155651
  },
  {
    "type": "node",
    "id": 9599197259,
    "lat": 52.1367822,
    "lon": 26.1149257
  },
  {
    "type": "node",
    "id": 9599197260,
    "lat": 52.1377758,
    "lon": 26.1181303
  },
  {
    "type": "node",
    "id": 9646066728,
    "lat": 52.1371290,
    "lon": 26.1077925
  },
  {
    "type": "node",
    "id": 9669926069,
    "lat": 52.1277755,
    "lon": 26.1185757
  },
  {
    "type": "node",
    "id": 9705803520,
    "lat": 52.1382223,
    "lon": 26.1191579,
    "tags": {
      "noexit": "yes"
    }
  },
  {
    "type": "node",
    "id": 9705803526,
    "lat": 52.1375722,
    "lon": 26.1201843
  },
  {
    "type": "node",
    "id": 9705803544,
    "lat": 52.1371226,
    "lon": 26.1205978
  },
  {
    "type": "node",
    "id": 9705803546,
    "lat": 52.1380196,
    "lon": 26.1197728
  },
  {
    "type": "node",
    "id": 9705803547,
    "lat": 52.1381207,
    "lon": 26.1193176
  },
  {
    "type": "node",
    "id": 9705803548,
    "lat": 52.1381668,
    "lon": 26.1196375
  },
  {
    "type": "node",
    "id": 9705803549,
    "lat": 52.1380508,
    "lon": 26.1181114
  },
  {
    "type": "node",
    "id": 9705803550,
    "lat": 52.1380421,
    "lon": 26.1180407
  },
  {
    "type": "node",
    "id": 9705803551,
    "lat": 52.1379664,
    "lon": 26.1173215
  },
  {
    "type": "node",
    "id": 9705803553,
    "lat": 52.1381178,
    "lon": 26.1164840
  },
  {
    "type": "node",
    "id": 9705803554,
    "lat": 52.1382368,
    "lon": 26.1180432
  },
  {
    "type": "node",
    "id": 9705803555,
    "lat": 52.1381422,
    "lon": 26.1180709
  },
  {
    "type": "node",
    "id": 9705803557,
    "lat": 52.1353822,
    "lon": 26.1220737
  },
  {
    "type": "node",
    "id": 9705803562,
    "lat": 52.1352766,
    "lon": 26.1222201
  },
  {
    "type": "node",
    "id": 9705803571,
    "lat": 52.1365296,
    "lon": 26.1211432
  },
  {
    "type": "node",
    "id": 9705803574,
    "lat": 52.1362465,
    "lon": 26.1214036
  },
  {
    "type": "node",
    "id": 9705803577,
    "lat": 52.1370105,
    "lon": 26.1207010
  },
  {
    "type": "node",
    "id": 9705803580,
    "lat": 52.1373163,
    "lon": 26.1204197
  },
  {
    "type": "node",
    "id": 9705803581,
    "lat": 52.1384955,
    "lon": 26.1193488
  },
  {
    "type": "node",
    "id": 9705803582,
    "lat": 52.1386610,
    "lon": 26.1190630
  },
  {
    "type": "node",
    "id": 9705803583,
    "lat": 52.1381783,
    "lon": 26.1171031
  },
  {
    "type": "node",
    "id": 9705803584,
    "lat": 52.1379888,
    "lon": 26.1171840
  },
  {
    "type": "node",
    "id": 9705803585,
    "lat": 52.1381416,
    "lon": 26.1171188
  },
  {
    "type": "node",
    "id": 9705803586,
    "lat": 52.1378929,
    "lon": 26.1170634
  },
  {
    "type": "node",
    "id": 9705803587,
    "lat": 52.1377418,
    "lon": 26.1171763
  },
  {
    "type": "node",
    "id": 9705803588,
    "lat": 52.1378271,
    "lon": 26.1181778
  },
  {
    "type": "node",
    "id": 9705803589,
    "lat": 52.1379751,
    "lon": 26.1170543
  },
  {
    "type": "node",
    "id": 9782000543,
    "lat": 52.1270337,
    "lon": 26.1140111
  },
  {
    "type": "node",
    "id": 9782000544,
    "lat": 52.1270847,
    "lon": 26.1142954
  },
  {
    "type": "node",
    "id": 9782000551,
    "lat": 52.1286902,
    "lon": 26.1184516
  },
  {
    "type": "node",
    "id": 9782000552,
    "lat": 52.1283330,
    "lon": 26.1182862,
    "tags": {
      "railway": "crossing"
    }
  },
  {
    "type": "node",
    "id": 9782000553,
    "lat": 52.1282997,
    "lon": 26.1183052
  },
  {
    "type": "node",
    "id": 9782000554,
    "lat": 52.1282406,
    "lon": 26.1183643
  },
  {
    "type": "node",
    "id": 9782000555,
    "lat": 52.1281880,
    "lon": 26.1183643
  },
  {
    "type": "node",
    "id": 9782000556,
    "lat": 52.1281122,
    "lon": 26.1183670
  },
  {
    "type": "node",
    "id": 9782000557,
    "lat": 52.1280480,
    "lon": 26.1183912
  },
  {
    "type": "node",
    "id": 9782000558,
    "lat": 52.1279640,
    "lon": 26.1184314
  },
  {
    "type": "node",
    "id": 9782000559,
    "lat": 52.1279097,
    "lon": 26.1184743
  },
  {
    "type": "node",
    "id": 9782000560,
    "lat": 52.1278208,
    "lon": 26.1185575
  },
  {
    "type": "node",
    "id": 9942211185,
    "lat": 52.1257490,
    "lon": 26.1154057,
    "tags": {
      "noexit": "yes"
    }
  },
  {
    "type": "node",
    "id": 9942211186,
    "lat": 52.1254696,
    "lon": 26.1149728
  },
  {
    "type": "node",
    "id": 9942211187,
    "lat": 52.1255834,
    "lon": 26.1147780
  },
  {
    "type": "node",
    "id": 9942211188,
    "lat": 52.1254992,
    "lon": 26.1146475
  },
  {
    "type": "node",
    "id": 9942211189,
    "lat": 52.1254439,
    "lon": 26.1145619
  },
  {
    "type": "node",
    "id": 9942211203,
    "lat": 52.1251141,
    "lon": 26.1152068
  },
  {
    "type": "node",
    "id": 9942211204,
    "lat": 52.1251850,
    "lon": 26.1152238
  },
  {
    "type": "node",
    "id": 9942211205,
    "lat": 52.1252997,
    "lon": 26.1155091
  },
  {
    "type": "node",
    "id": 9942211206,
    "lat": 52.1250889,
    "lon": 26.1150260
  },
  {
    "type": "node",
    "id": 9942211208,
    "lat": 52.1243859,
    "lon": 26.1162180,
    "tags": {
      "crossing": "uncontrolled",
      "highway": "crossing",
      "kerb": "yes",
      "supervised": "no",
      "tactile_paving": "yes"
    }
  },
  {
    "type": "node",
    "id": 9942211209,
    "lat": 52.1243409,
    "lon": 26.1161344
  },
  {
    "type": "node",
    "id": 9942211210,
    "lat": 52.1245686,
    "lon": 26.1157680
  },
  {
    "type": "node",
    "id": 9942211211,
    "lat": 52.1245587,
    "lon": 26.1156982
  },
  {
    "type": "node",
    "id": 9942211214,
    "lat": 52.1256684,
    "lon": 26.1139768,
    "tags": {
      "crossing": "uncontrolled",
      "highway": "crossing",
      "kerb": "yes",
      "supervised": "no",
      "tactile_paving": "yes"
    }
  },
  {
    "type": "node",
    "id": 9942211216,
    "lat": 52.1257945,
    "lon": 26.1137847
  },
  {
    "type": "node",
    "id": 9942211288,
    "lat": 52.1250926,
    "lon": 26.1126485,
    "tags": {
      "crossing": "uncontrolled",
      "highway": "crossing",
      "kerb": "yes",
      "supervised": "no",
      "tactile_paving": "yes"
    }
  },
  {
    "type": "node",
    "id": 9942211289,
    "lat": 52.1250473,
    "lon": 26.1126993
  },
  {
    "type": "node",
    "id": 9942211292,
    "lat": 52.1253171,
    "lon": 26.1133406
  },
  {
    "type": "node",
    "id": 9942211293,
    "lat": 52.1253573,
    "lon": 26.1132889,
    "tags": {
      "crossing": "uncontrolled",
      "highway": "crossing",
      "kerb": "yes",
      "supervised": "no",
      "tactile_paving": "yes"
    }
  },
  {
    "type": "node",
    "id": 9942211294,
    "lat": 52.1253974,
    "lon": 26.1132374
  },
  {
    "type": "node",
    "id": 9942211295,
    "lat": 52.1251692,
    "lon": 26.1130364,
    "tags": {
      "crossing": "unmarked",
      "crossing:markings": "no",
      "highway": "crossing",
      "kerb": "yes",
      "supervised": "no",
      "tactile_paving": "yes"
    }
  },
  {
    "type": "node",
    "id": 9942211296,
    "lat": 52.1252761,
    "lon": 26.1132586,
    "tags": {
      "crossing": "unmarked",
      "crossing:markings": "no",
      "highway": "crossing",
      "kerb": "yes",
      "supervised": "no",
      "tactile_paving": "yes"
    }
  },
  {
    "type": "node",
    "id": 9942211297,
    "lat": 52.1253676,
    "lon": 26.1134414,
    "tags": {
      "crossing": "unmarked",
      "crossing:markings": "no",
      "highway": "crossing",
      "kerb": "yes",
      "supervised": "no",
      "tactile_paving": "yes"
    }
  },
  {
    "type": "node",
    "id": 9942211298,
    "lat": 52.1253961,
    "lon": 26.1135592
  },
  {
    "type": "node",
    "id": 9942211338,
    "lat": 52.1252092,
    "lon": 26.1113758
  },
  {
    "type": "node",
    "id": 9942211341,
    "lat": 52.1259001,
    "lon": 26.1136271
  },
  {
    "type": "node",
    "id": 9942211342,
    "lat": 52.1259387,
    "lon": 26.1131270
  },
  {
    "type": "node",
    "id": 9942211343,
    "lat": 52.1255065,
    "lon": 26.1121180
  },
  {
    "type": "node",
    "id": 9942211347,
    "lat": 52.1256399,
    "lon": 26.1140261
  },
  {
    "type": "node",
    "id": 9942211348,
    "lat": 52.1256944,
    "lon": 26.1139318
  },
  {
    "type": "node",
    "id": 9942211349,
    "lat": 52.1251283,
    "lon": 26.1126085
  },
  {
    "type": "node",
    "id": 9942211366,
    "lat": 52.1258966,
    "lon": 26.1128242
  },
  {
    "type": "node",
    "id": 9954470382,
    "lat": 52.1228642,
    "lon": 26.1205074
  },
  {
    "type": "node",
    "id": 9954475324,
    "lat": 52.1228590,
    "lon": 26.1186002,
    "tags": {
      "hazard": "school_zone"
    }
  },
  {
    "type": "node",
    "id": 9954475325,
    "lat": 52.1222460,
    "lon": 26.1193403
  },
  {
    "type": "node",
    "id": 9970533963,
    "lat": 52.1333749,
    "lon": 26.1140490
  },
  {
    "type": "node",
    "id": 9970533964,
    "lat": 52.1335022,
    "lon": 26.1133117
  },
  {
    "type": "node",
    "id": 9970533965,
    "lat": 52.1332720,
    "lon": 26.1139953
  },
  {
    "type": "node",
    "id": 9970533967,
    "lat": 52.1329215,
    "lon": 26.1138126
  },
  {
    "type": "node",
    "id": 10011840327,
    "lat": 52.1345376,
    "lon": 26.1231176
  },
  {
    "type": "node",
    "id": 10011840440,
    "lat": 52.1349623,
    "lon": 26.1225267
  },
  {
    "type": "node",
    "id": 10012930037,
    "lat": 52.1345072,
    "lon": 26.1151671
  },
  {
    "type": "node",
    "id": 10012930058,
    "lat": 52.1346669,
    "lon": 26.1170796
  },
  {
    "type": "node",
    "id": 10012930059,
    "lat": 52.1346899,
    "lon": 26.1169079
  },
  {
    "type": "node",
    "id": 10012930060,
    "lat": 52.1343491,
    "lon": 26.1162776
  },
  {
    "type": "node",
    "id": 10012930061,
    "lat": 52.1344709,
    "lon": 26.1161649
  },
  {
    "type": "node",
    "id": 10012930062,
    "lat": 52.1345812,
    "lon": 26.1160496
  },
  {
    "type": "node",
    "id": 10012930063,
    "lat": 52.1337650,
    "lon": 26.1155626
  },
  {
    "type": "node",
    "id": 10012930064,
    "lat": 52.1343211,
    "lon": 26.1158082
  },
  {
    "type": "node",
    "id": 10012930065,
    "lat": 52.1345779,
    "lon": 26.1159128
  },
  {
    "type": "node",
    "id": 10012930066,
    "lat": 52.1346899,
    "lon": 26.1159356
  },
  {
    "type": "node",
    "id": 10012930067,
    "lat": 52.1348603,
    "lon": 26.1157599
  },
  {
    "type": "node",
    "id": 10012930068,
    "lat": 52.1349054,
    "lon": 26.1157750
  },
  {
    "type": "node",
    "id": 10012930069,
    "lat": 52.1349278,
    "lon": 26.1156709
  },
  {
    "type": "node",
    "id": 10012930074,
    "lat": 52.1348595,
    "lon": 26.1152771,
    "tags": {
      "noexit": "yes"
    }
  },
  {
    "type": "node",
    "id": 10012930075,
    "lat": 52.1346899,
    "lon": 26.1171547
  },
  {
    "type": "node",
    "id": 10012930076,
    "lat": 52.1351122,
    "lon": 26.1173625
  },
  {
    "type": "node",
    "id": 10012930077,
    "lat": 52.1351336,
    "lon": 26.1173478
  },
  {
    "type": "node",
    "id": 10012930078,
    "lat": 52.1351506,
    "lon": 26.1173092
  },
  {
    "type": "node",
    "id": 10012930079,
    "lat": 52.1352641,
    "lon": 26.1166592
  },
  {
    "type": "node",
    "id": 10012930080,
    "lat": 52.1353104,
    "lon": 26.1163936
  },
  {
    "type": "node",
    "id": 10012930085,
    "lat": 52.1350634,
    "lon": 26.1172376,
    "tags": {
      "noexit": "yes"
    }
  },
  {
    "type": "node",
    "id": 10012930086,
    "lat": 52.1351659,
    "lon": 26.1166107
  },
  {
    "type": "node",
    "id": 10012930087,
    "lat": 52.1352960,
    "lon": 26.1166749
  },
  {
    "type": "node",
    "id": 10012930088,
    "lat": 52.1349533,
    "lon": 26.1172861
  },
  {
    "type": "node",
    "id": 10012930089,
    "lat": 52.1351426,
    "lon": 26.1163120
  },
  {
    "type": "node",
    "id": 10012930090,
    "lat": 52.1353546,
    "lon": 26.1164167
  },
  {
    "type": "node",
    "id": 10012930091,
    "lat": 52.1348233,
    "lon": 26.1161569
  },
  {
    "type": "node",
    "id": 10012930092,
    "lat": 52.1352184,
    "lon": 26.1162896
  },
  {
    "type": "node",
    "id": 10012930093,
    "lat": 52.1352530,
    "lon": 26.1160938
  },
  {
    "type": "node",
    "id": 10012930094,
    "lat": 52.1349624,
    "lon": 26.1159343,
    "tags": {
      "noexit": "yes"
    }
  },
  {
    "type": "node",
    "id": 10012930095,
    "lat": 52.1353641,
    "lon": 26.1163634
  },
  {
    "type": "node",
    "id": 10012930096,
    "lat": 52.1348726,
    "lon": 26.1161206,
    "tags": {
      "noexit": "yes"
    }
  },
  {
    "type": "node",
    "id": 10012930097,
    "lat": 52.1352411,
    "lon": 26.1169963,
    "tags": {
      "traffic_calming": "bump"
    }
  },
  {
    "type": "node",
    "id": 10012930119,
    "lat": 52.1337502,
    "lon": 26.1156381
  },
  {
    "type": "node",
    "id": 10012930170,
    "lat": 52.1321413,
    "lon": 26.1152327,
    "tags": {
      "barrier": "lift_gate"
    }
  },
  {
    "type": "node",
    "id": 10012930195,
    "lat": 52.1325667,
    "lon": 26.1170701
  },
  {
    "type": "node",
    "id": 10012930196,
    "lat": 52.1323532,
    "lon": 26.1170661
  },
  {
    "type": "node",
    "id": 10012930197,
    "lat": 52.1324298,
    "lon": 26.1170662
  },
  {
    "type": "node",
    "id": 10012930253,
    "lat": 52.1321698,
    "lon": 26.1254197
  },
  {
    "type": "node",
    "id": 10012997604,
    "lat": 52.1246649,
    "lon": 26.1162159,
    "tags": {
      "barrier": "gate"
    }
  },
  {
    "type": "node",
    "id": 10054130109,
    "lat": 52.1429415,
    "lon": 26.1173591
  },
  {
    "type": "node",
    "id": 10550591700,
    "lat": 52.1337342,
    "lon": 26.1174765
  },
  {
    "type": "node",
    "id": 10550591701,
    "lat": 52.1330072,
    "lon": 26.1181889,
    "tags": {
      "barrier": "gate"
    }
  },
  {
    "type": "node",
    "id": 10550591702,
    "lat": 52.1329842,
    "lon": 26.1182088
  },
  {
    "type": "node",
    "id": 10550591703,
    "lat": 52.1328587,
    "lon": 26.1183227
  },
  {
    "type": "node",
    "id": 10654369709,
    "lat": 52.1368293,
    "lon": 26.1180478
  },
  {
    "type": "node",
    "id": 10654369735,
    "lat": 52.1368120,
    "lon": 26.1184904
  },
  {
    "type": "node",
    "id": 10860473172,
    "lat": 52.1372947,
    "lon": 26.1095129
  },
  {
    "type": "node",
    "id": 10860487535,
    "lat": 52.1375001,
    "lon": 26.1138850
  },
  {
    "type": "node",
    "id": 10860487536,
    "lat": 52.1372730,
    "lon": 26.1136758
  },
  {
    "type": "node",
    "id": 10860487537,
    "lat": 52.1368487,
    "lon": 26.1138039
  },
  {
    "type": "node",
    "id": 10860487538,
    "lat": 52.1365701,
    "lon": 26.1139610
  },
  {
    "type": "node",
    "id": 10860487539,
    "lat": 52.1366976,
    "lon": 26.1136369
  },
  {
    "type": "node",
    "id": 10860487540,
    "lat": 52.1366910,
    "lon": 26.1134505
  },
  {
    "type": "node",
    "id": 10860487541,
    "lat": 52.1367569,
    "lon": 26.1130428
  },
  {
    "type": "node",
    "id": 10860487542,
    "lat": 52.1367774,
    "lon": 26.1129785
  },
  {
    "type": "node",
    "id": 10860487567,
    "lat": 52.1372454,
    "lon": 26.1127993
  },
  {
    "type": "node",
    "id": 10860487568,
    "lat": 52.1368175,
    "lon": 26.1129374
  },
  {
    "type": "node",
    "id": 10860487569,
    "lat": 52.1373706,
    "lon": 26.1127589
  },
  {
    "type": "node",
    "id": 10860487570,
    "lat": 52.1375194,
    "lon": 26.1127109
  },
  {
    "type": "node",
    "id": 10860558442,
    "lat": 52.1358851,
    "lon": 26.1132386
  },
  {
    "type": "node",
    "id": 10873185764,
    "lat": 52.1353149,
    "lon": 26.1137110
  },
  {
    "type": "node",
    "id": 10873185765,
    "lat": 52.1358090,
    "lon": 26.1139058
  },
  {
    "type": "node",
    "id": 10873185766,
    "lat": 52.1357773,
    "lon": 26.1138898,
    "tags": {
      "access": "private",
      "barrier": "gate"
    }
  },
  {
    "type": "node",
    "id": 10873248502,
    "lat": 52.1359716,
    "lon": 26.1132789
  },
  {
    "type": "node",
    "id": 10873248503,
    "lat": 52.1359897,
    "lon": 26.1132762
  },
  {
    "type": "node",
    "id": 10873248504,
    "lat": 52.1359235,
    "lon": 26.1132556,
    "tags": {
      "access": "no",
      "barrier": "gate"
    }
  },
  {
    "type": "node",
    "id": 10905351828,
    "lat": 52.1393620,
    "lon": 26.1156929
  },
  {
    "type": "node",
    "id": 10905351837,
    "lat": 52.1395144,
    "lon": 26.1159758,
    "tags": {
      "bicycle": "yes",
      "crossing": "uncontrolled",
      "crossing:island": "yes",
      "highway": "crossing",
      "kerb": "yes",
      "tactile_paving": "no"
    }
  },
  {
    "type": "node",
    "id": 10905351838,
    "lat": 52.1395014,
    "lon": 26.1160430,
    "tags": {
      "barrier": "kerb",
      "kerb": "raised"
    }
  },
  {
    "type": "node",
    "id": 10905351841,
    "lat": 52.1397884,
    "lon": 26.1158843
  },
  {
    "type": "node",
    "id": 10905351851,
    "lat": 52.1389488,
    "lon": 26.1155027
  },
  {
    "type": "node",
    "id": 10905351852,
    "lat": 52.1390789,
    "lon": 26.1155628
  },
  {
    "type": "node",
    "id": 10928636148,
    "lat": 52.1310022,
    "lon": 26.1180441
  },
  {
    "type": "node",
    "id": 10928636149,
    "lat": 52.1307386,
    "lon": 26.1186974
  },
  {
    "type": "node",
    "id": 10928636199,
    "lat": 52.1336343,
    "lon": 26.1199865
  },
  {
    "type": "node",
    "id": 10928636200,
    "lat": 52.1336840,
    "lon": 26.1205583,
    "tags": {
      "bus": "yes",
      "name": "Школа №16",
      "name:be": "Школа №16",
      "name:ru": "Школа №16",
      "name:uk": "Школа №16",
      "operator": "ОАО \"Пинский автобусный парк\"",
      "public_transport": "stop_position",
      "tactile_paving": "incorrect"
    }
  },
  {
    "type": "node",
    "id": 10928636201,
    "lat": 52.1335031,
    "lon": 26.1200834,
    "tags": {
      "bus": "yes",
      "name": "Школа №16",
      "name:be": "Школа №16",
      "name:ru": "Школа №16",
      "name:uk": "Школа №16",
      "operator": "ОАО \"Пинский автобусный парк\"",
      "public_transport": "stop_position",
      "tactile_paving": "incorrect"
    }
  },
  {
    "type": "node",
    "id": 10928642407,
    "lat": 52.1363102,
    "lon": 26.1176628
  },
  {
    "type": "node",
    "id": 10928642408,
    "lat": 52.1363792,
    "lon": 26.1176905
  },
  {
    "type": "node",
    "id": 10928642409,
    "lat": 52.1363503,
    "lon": 26.1176811
  },
  {
    "type": "node",
    "id": 10928642410,
    "lat": 52.1353114,
    "lon": 26.1172070
  },
  {
    "type": "node",
    "id": 10928642411,
    "lat": 52.1352818,
    "lon": 26.1171694
  },
  {
    "type": "node",
    "id": 10928642412,
    "lat": 52.1352719,
    "lon": 26.1171345
  },
  {
    "type": "node",
    "id": 10928642413,
    "lat": 52.1353236,
    "lon": 26.1168408
  },
  {
    "type": "node",
    "id": 10928642414,
    "lat": 52.1360333,
    "lon": 26.1171627
  },
  {
    "type": "node",
    "id": 10928642415,
    "lat": 52.1352717,
    "lon": 26.1168172
  },
  {
    "type": "node",
    "id": 10928642416,
    "lat": 52.1362354,
    "lon": 26.1183215
  },
  {
    "type": "node",
    "id": 10928642417,
    "lat": 52.1365208,
    "lon": 26.1184454
  },
  {
    "type": "node",
    "id": 10928642418,
    "lat": 52.1380367,
    "lon": 26.1179895
  },
  {
    "type": "node",
    "id": 10928642419,
    "lat": 52.1377739,
    "lon": 26.1180745
  },
  {
    "type": "node",
    "id": 10928642420,
    "lat": 52.1376558,
    "lon": 26.1181159
  },
  {
    "type": "node",
    "id": 10928642421,
    "lat": 52.1374769,
    "lon": 26.1183093
  },
  {
    "type": "node",
    "id": 10928642422,
    "lat": 52.1376648,
    "lon": 26.1182396
  },
  {
    "type": "node",
    "id": 10928642423,
    "lat": 52.1373412,
    "lon": 26.1183636
  },
  {
    "type": "node",
    "id": 10928642424,
    "lat": 52.1374516,
    "lon": 26.1183187
  },
  {
    "type": "node",
    "id": 10928642425,
    "lat": 52.1376360,
    "lon": 26.1178413
  },
  {
    "type": "node",
    "id": 10928642426,
    "lat": 52.1376821,
    "lon": 26.1185186
  },
  {
    "type": "node",
    "id": 10928642427,
    "lat": 52.1374187,
    "lon": 26.1187573
  },
  {
    "type": "node",
    "id": 10928642428,
    "lat": 52.1368452,
    "lon": 26.1148808
  },
  {
    "type": "node",
    "id": 10928642429,
    "lat": 52.1362605,
    "lon": 26.1183375
  },
  {
    "type": "node",
    "id": 10928642430,
    "lat": 52.1362514,
    "lon": 26.1183952
  },
  {
    "type": "node",
    "id": 10928642431,
    "lat": 52.1363346,
    "lon": 26.1185735
  },
  {
    "type": "node",
    "id": 10928642432,
    "lat": 52.1363617,
    "lon": 26.1185870
  },
  {
    "type": "node",
    "id": 10928642433,
    "lat": 52.1363864,
    "lon": 26.1185695
  },
  {
    "type": "node",
    "id": 10928642434,
    "lat": 52.1366087,
    "lon": 26.1183643
  },
  {
    "type": "node",
    "id": 10928642435,
    "lat": 52.1367279,
    "lon": 26.1178585
  },
  {
    "type": "node",
    "id": 10928642436,
    "lat": 52.1364251,
    "lon": 26.1174403
  },
  {
    "type": "node",
    "id": 10928642437,
    "lat": 52.1367511,
    "lon": 26.1178909
  },
  {
    "type": "node",
    "id": 10928642438,
    "lat": 52.1369281,
    "lon": 26.1181578
  },
  {
    "type": "node",
    "id": 10928642439,
    "lat": 52.1374771,
    "lon": 26.1184314
  },
  {
    "type": "node",
    "id": 10928644026,
    "lat": 52.1362644,
    "lon": 26.1185776
  },
  {
    "type": "node",
    "id": 10928711341,
    "lat": 52.1281081,
    "lon": 26.1108040,
    "tags": {
      "bus": "yes",
      "public_transport": "stop_position"
    }
  },
  {
    "type": "node",
    "id": 10967565473,
    "lat": 52.1232186,
    "lon": 26.1178945
  },
  {
    "type": "node",
    "id": 10967565477,
    "lat": 52.1232865,
    "lon": 26.1177886
  },
  {
    "type": "node",
    "id": 10967591617,
    "lat": 52.1229161,
    "lon": 26.1185101
  },
  {
    "type": "node",
    "id": 10967591618,
    "lat": 52.1228693,
    "lon": 26.1184433
  },
  {
    "type": "node",
    "id": 11017678063,
    "lat": 52.1400221,
    "lon": 26.1162079,
    "tags": {
      "traffic_calming": "bump"
    }
  },
  {
    "type": "node",
    "id": 11035929603,
    "lat": 52.1278241,
    "lon": 26.1163572
  },
  {
    "type": "node",
    "id": 11035929604,
    "lat": 52.1278703,
    "lon": 26.1163081,
    "tags": {
      "bicycle": "yes",
      "crossing": "uncontrolled",
      "crossing:island": "no",
      "highway": "crossing",
      "kerb": "yes",
      "supervised": "no",
      "tactile_paving": "no"
    }
  },
  {
    "type": "node",
    "id": 11035935137,
    "lat": 52.1275959,
    "lon": 26.1157705
  },
  {
    "type": "node",
    "id": 11035935138,
    "lat": 52.1275631,
    "lon": 26.1157787
  },
  {
    "type": "node",
    "id": 11035935139,
    "lat": 52.1273904,
    "lon": 26.1157884,
    "tags": {
      "railway": "crossing"
    }
  },
  {
    "type": "node",
    "id": 11035935140,
    "lat": 52.1273397,
    "lon": 26.1158007
  },
  {
    "type": "node",
    "id": 11035935141,
    "lat": 52.1271626,
    "lon": 26.1159486,
    "tags": {
      "railway": "crossing"
    }
  },
  {
    "type": "node",
    "id": 11035935142,
    "lat": 52.1270928,
    "lon": 26.1160191
  },
  {
    "type": "node",
    "id": 11035958505,
    "lat": 52.1279147,
    "lon": 26.1162610
  },
  {
    "type": "node",
    "id": 11146030649,
    "lat": 52.1235078,
    "lon": 26.1200348
  },
  {
    "type": "node",
    "id": 11211948499,
    "lat": 52.1404466,
    "lon": 26.1161928
  },
  {
    "type": "node",
    "id": 11211948501,
    "lat": 52.1400388,
    "lon": 26.1160028
  },
  {
    "type": "node",
    "id": 11211948503,
    "lat": 52.1406040,
    "lon": 26.1162522
  },
  {
    "type": "node",
    "id": 11212027149,
    "lat": 52.1363174,
    "lon": 26.1144821,
    "tags": {
      "bus": "yes",
      "check_date": "2023-09-23",
      "name": "Навучальная база",
      "name:be": "Навучальная база",
      "name:ru": "Учебная база",
      "network": "BY:regional:01",
      "public_transport": "stop_position",
      "survey:date": "2023-09-23"
    }
  },
  {
    "type": "node",
    "id": 11212027150,
    "lat": 52.1363422,
    "lon": 26.1143213,
    "tags": {
      "bench": "yes",
      "bin": "yes",
      "check_date": "2023-09-23",
      "departures_board": "timetable",
      "lit": "yes",
      "name": "Навучальная база",
      "name:be": "Навучальная база",
      "name:ru": "Учебная база",
      "operator": "ОАО \"Пинский автобусный парк\"",
      "public_transport": "platform",
      "shelter": "yes",
      "surface": "asphalt",
      "survey:date": "2023-09-23",
      "tactile_paving": "yes"
    }
  },
  {
    "type": "node",
    "id": 11212027151,
    "lat": 52.1369968,
    "lon": 26.1148034,
    "tags": {
      "bus": "yes",
      "check_date": "2023-09-23",
      "name": "Навучальная база",
      "name:be": "Навучальная база",
      "name:ru": "Учебная база",
      "network": "BY:regional:01",
      "public_transport": "stop_position",
      "survey:date": "2023-09-23"
    }
  },
  {
    "type": "node",
    "id": 11212027158,
    "lat": 52.1380287,
    "lon": 26.1155731
  },
  {
    "type": "node",
    "id": 11212027159,
    "lat": 52.1368299,
    "lon": 26.1149863
  },
  {
    "type": "node",
    "id": 11212027171,
    "lat": 52.1377677,
    "lon": 26.1167604,
    "tags": {
      "barrier": "gate"
    }
  },
  {
    "type": "node",
    "id": 11212095490,
    "lat": 52.1384090,
    "lon": 26.1185495,
    "tags": {
      "bus": "yes",
      "check_date": "2023-09-23",
      "name": "Сярэдняя школа № 8",
      "name:be": "Сярэдняя школа № 8",
      "name:ru": "Средняя школа № 8",
      "network": "BY:regional:01",
      "operator": "ОАО \"Пинский автобусный парк\"",
      "public_transport": "stop_position",
      "survey:date": "2023-09-23"
    }
  },
  {
    "type": "node",
    "id": 11212095491,
    "lat": 52.1384037,
    "lon": 26.1185003,
    "tags": {
      "bus": "yes",
      "check_date": "2023-09-23",
      "name": "Сярэдняя школа № 8",
      "name:be": "Сярэдняя школа № 8",
      "name:ru": "Средняя школа № 8",
      "network": "BY:regional:01",
      "operator": "ОАО \"Пинский автобусный парк\"",
      "public_transport": "stop_position",
      "survey:date": "2023-09-23"
    }
  },
  {
    "type": "node",
    "id": 11277476209,
    "lat": 52.1334233,
    "lon": 26.1131234,
    "tags": {
      "bus": "yes",
      "check_date": "2023-10-10",
      "name": "Медыцынскі каледж",
      "name:be": "Медыцынскі каледж",
      "name:ru": "Медицинский колледж",
      "network": "BY:regional:01",
      "public_transport": "stop_position",
      "survey:date": "2023-10-10"
    }
  },
  {
    "type": "node",
    "id": 11295415374,
    "lat": 52.1256151,
    "lon": 26.1160197
  },
  {
    "type": "node",
    "id": 11295415375,
    "lat": 52.1255500,
    "lon": 26.1160268
  },
  {
    "type": "node",
    "id": 11295415376,
    "lat": 52.1253928,
    "lon": 26.1156204
  },
  {
    "type": "node",
    "id": 11295415377,
    "lat": 52.1253532,
    "lon": 26.1155051
  },
  {
    "type": "node",
    "id": 11295415378,
    "lat": 52.1253162,
    "lon": 26.1155131
  },
  {
    "type": "node",
    "id": 11295415379,
    "lat": 52.1257633,
    "lon": 26.1157572
  },
  {
    "type": "node",
    "id": 11295415380,
    "lat": 52.1256151,
    "lon": 26.1153978
  },
  {
    "type": "node",
    "id": 11295415381,
    "lat": 52.1256011,
    "lon": 26.1153924
  },
  {
    "type": "node",
    "id": 11295415382,
    "lat": 52.1255698,
    "lon": 26.1154018
  },
  {
    "type": "node",
    "id": 11295415383,
    "lat": 52.1254841,
    "lon": 26.1154971
  },
  {
    "type": "node",
    "id": 11295415384,
    "lat": 52.1254327,
    "lon": 26.1155623
  },
  {
    "type": "node",
    "id": 11295415385,
    "lat": 52.1259925,
    "lon": 26.1168843
  },
  {
    "type": "node",
    "id": 11295415386,
    "lat": 52.1252912,
    "lon": 26.1149706
  },
  {
    "type": "node",
    "id": 11514295932,
    "lat": 52.1308965,
    "lon": 26.1199737,
    "tags": {
      "noexit": "yes"
    }
  },
  {
    "type": "node",
    "id": 11515810062,
    "lat": 52.1337629,
    "lon": 26.1160290
  },
  {
    "type": "node",
    "id": 11515810063,
    "lat": 52.1354627,
    "lon": 26.1173092
  },
  {
    "type": "node",
    "id": 11515810064,
    "lat": 52.1353517,
    "lon": 26.1179754
  },
  {
    "type": "node",
    "id": 11515810065,
    "lat": 52.1353501,
    "lon": 26.1180693
  },
  {
    "type": "node",
    "id": 11542464159,
    "lat": 52.1385953,
    "lon": 26.1184447
  },
  {
    "type": "node",
    "id": 11542464160,
    "lat": 52.1335847,
    "lon": 26.1206623
  },
  {
    "type": "node",
    "id": 11543453814,
    "lat": 52.1384204,
    "lon": 26.1179766
  },
  {
    "type": "node",
    "id": 11578613569,
    "lat": 52.1358482,
    "lon": 26.1136596
  },
  {
    "type": "node",
    "id": 11710854850,
    "lat": 52.1366661,
    "lon": 26.1159791
  },
  {
    "type": "node",
    "id": 11710854851,
    "lat": 52.1381696,
    "lon": 26.1170137
  },
  {
    "type": "node",
    "id": 11710854853,
    "lat": 52.1379356,
    "lon": 26.1168274
  },
  {
    "type": "node",
    "id": 11710854854,
    "lat": 52.1377915,
    "lon": 26.1155373
  },
  {
    "type": "node",
    "id": 11710854855,
    "lat": 52.1374903,
    "lon": 26.1154085
  },
  {
    "type": "node",
    "id": 11710854856,
    "lat": 52.1375627,
    "lon": 26.1177233
  },
  {
    "type": "node",
    "id": 11710854857,
    "lat": 52.1377147,
    "lon": 26.1167347
  },
  {
    "type": "node",
    "id": 11710854858,
    "lat": 52.1374491,
    "lon": 26.1177903
  },
  {
    "type": "node",
    "id": 11710854859,
    "lat": 52.1368334,
    "lon": 26.1174738
  },
  {
    "type": "node",
    "id": 11710854860,
    "lat": 52.1370030,
    "lon": 26.1163902
  },
  {
    "type": "node",
    "id": 11710854861,
    "lat": 52.1380360,
    "lon": 26.1168674
  },
  {
    "type": "node",
    "id": 11710854862,
    "lat": 52.1379232,
    "lon": 26.1157787,
    "tags": {
      "noexit": "yes"
    }
  },
  {
    "type": "node",
    "id": 11710854863,
    "lat": 52.1380549,
    "lon": 26.1170500
  },
  {
    "type": "node",
    "id": 11710854864,
    "lat": 52.1382556,
    "lon": 26.1169863
  },
  {
    "type": "node",
    "id": 11710854865,
    "lat": 52.1375045,
    "lon": 26.1153042
  },
  {
    "type": "node",
    "id": 11710876794,
    "lat": 52.1369310,
    "lon": 26.1151698
  },
  {
    "type": "node",
    "id": 11710876795,
    "lat": 52.1367773,
    "lon": 26.1160318
  },
  {
    "type": "node",
    "id": 11710876796,
    "lat": 52.1366233,
    "lon": 26.1168956,
    "tags": {
      "noexit": "yes"
    }
  },
  {
    "type": "node",
    "id": 11710876797,
    "lat": 52.1366205,
    "lon": 26.1159576
  },
  {
    "type": "node",
    "id": 11710876798,
    "lat": 52.1369210,
    "lon": 26.1160997
  },
  {
    "type": "node",
    "id": 11710876799,
    "lat": 52.1370812,
    "lon": 26.1152257
  },
  {
    "type": "node",
    "id": 11786957490,
    "lat": 52.1277148,
    "lon": 26.1110653
  },
  {
    "type": "node",
    "id": 11786957550,
    "lat": 52.1278205,
    "lon": 26.1109955
  }
  
    ]
  }
  